FMID,MarketName,Website,Facebook,Twitter,Youtube,OtherMedia,street,city,County,State,zip,Season1Date,Season1Time,Season2Date,Season2Time,Season3Date,Season3Time,Season4Date,Season4Time,x,y,Location,updateTime
1012045,Encino Farmers Market,,,,,,17400 Victory Blvd,Van Nuys,Los Angeles,California,91406,01/01/2016 to 12/31/2016,Sun: 8:00 AM-1:00 PM;,,,,,,,-118.5128542,34.1862306,,6/27/2016 16:05
1012046,Madras Saturday Market Holiday Market,,Madras Saturday Market,,,,Fairgrounds Rd,Madras ,Jefferson,Oregon,97741,12/10/2016 to 12/10/2016,Sat: 9:00 AM-4:00 PM;,,,,,,,-121.1385911,44.6178903,,6/27/2016 17:00
1012047,Marymount Farmers Market,http://www.marymountfarmersmarket.org,,,,,2807 N. Glebe Road,Arlington,Arlington,Virginia,22207,05/21/2016 to 11/19/2016,Sat: 9:00 AM-1:00 PM;,,,,,,,-77.128471,38.904309,,6/27/2016 22:17
1012048,Elm Street Square Farmer's Market,,,,,,Elm Street,Newton ,Middlesex,Massachusetts,2465,06/18/2016 to 10/08/2016,Sat: 10:00 AM-2:00 PM;,,,,,,,-71.2303515,42.3509392,,6/27/2016 20:28
1012049,Newton Farmers' Market Depot,,,,,,250 Albemarle Road,Newtonville,Middlesex,Massachusetts,2460,11/05/2016 to 12/17/2016,Sat: 12:00 PM-2:00 PM;,,,,,,,-71.216376,42.357832,,6/27/2016 20:57
1012050,Ellington Winter Farmers' Market,http://www.ellingtonfarmersmarket.com/,https://www.facebook.com/ellingtonfarmersmarket/,https://twitter.com/EllingtonFM,https://www.youtube.com/watch?v=UTlDsofYFH4,https://www.pinterest.com/ellingtonfm/,11 Pinney ST,Ellington,Tolland,Connecticut,6029,11/19/2016 to 03/18/2017,Sat: 2:00 PM-4:00 PM;,,,,,,,-72.49035,41.8697886,,7/7/2016 16:36
1012051,Village of Aurora Farmers Market,https://auroranyfarmersmarket.com/,https://www.facebook.com/Aurora-Farmers-Market-1619273541646945/,,,,170 Main Street,Aurora,Cayuga,New York,13026,06/04/2016 to 10/29/2016,Sat: 9:00 AM-1:00 PM;,,,,,,,-76.701286,42.738376,,6/28/2016 9:16
1012054,Goochland Fairground Farmers Market,http://www.rvagriculture.org,https://www.facebook.com/GoochlandFairgroundFarmersMarket/,www.twitter.com/rvag_inc,,https://www.pinterest.com/chiknegg/goochland-fairground-farmers-market/,2650 Fairground Road,Goochland,Goochland,Virginia,23103,05/03/2016 to 10/25/2016,Tue: 4:00 PM-7:00 PM;,,,,,,,-77.888205,37.698485,,6/28/2016 10:30
1012055,Grown to Go Mobile Market - Western Goochland,http://www.rvagriculture.org,https://www.facebook.com/RVAgriculture.org/?fref=ts,https://www.twitter.com/rvag_inc,,,2397 Hadensville Fife Road,Goochland,Goochland,Virginia,23063,07/10/2016 to 10/16/2016,Sun: 1:00 PM-2:30 PM;,,,,,,,-78.056357,37.740096,,6/28/2016 10:37
1012056,Sustainable Nantucket Mid-Island Farmers Market,http://www.sustainablenantucket.org/,Sustainable Nantucket Farmers & Artisans Market,,,,113 Pleasant Street,Nantucket,Nantucket,Massachusetts,2554,07/06/2016 to 09/14/2016,Wed: 3:30 PM-6:30 PM;,,,,,,,-70.093518,41.272936,,6/28/2016 11:05
1012057,The Silver City Farmers' Market,http://www.massinmotiontaunton.org/the-silver-city-farmers-market,The Silver City Farmers Market,,,,Hamilton Street and Hopewell St,Taunton,Bristol,Massachusetts,2780,07/14/2016 to 10/13/2016,Thu: 4:30 PM-7:30 PM;,,,,,,,-71.094872,41.913428,,6/28/2016 11:51
1012058,Bristol County Agricultural High School,http://www.bcahs.com ,Bristol Aggie Grows Farm Stand,,,,135 center street ,Dighton ,Bristol,Massachusetts,2715,,Sat: 8:00 AM-1:00 PM;,,,,,,,-71.112588,41.835966,,6/28/2016 11:44
1012059,Crescent Ridge Farmers Market,http://crescentridgefarmersmarket.com,,,,,407 Bay Road,Sharon,Norfolk,Massachusetts,2067,06/11/2016 to 10/22/2016,Sat: 10:00 AM-2:00 PM;,,,,,,,-71.186029,42.117516,,6/28/2016 11:41
1012060,Petersham Friday Market,http://www.petershamcommon.com/fridaymarket.htm,,,,,,Petersham,Worcester,Massachusetts,1366,06/17/2016 to 10/21/2016,,,,,,,,-72.186669,42.488744,,6/28/2016 11:43
1012061,"Fayettevill, Arkansas Farmers' Market",,https://www.facebook.com/Fayetteville-Arkansas-Farmers-Market-372790109508/,,,,101 W. Mountain Street,Fayetteville,Washington,Arkansas,72701,04/02/2016 to 10/29/2016,Tue: 7:00 AM-1:00 PM;Thu: 7:00 AM-1:00 PM;Sat: 7:00 AM-2:00 PM;,11/05/2016 to 11/19/2016,Sat: 7:00 AM-2:00 PM;,12/01/2016 to 03/25/2017,Sat: 9:00 AM-1:00 PM;,,,-94.160861,36.0616132,,6/28/2016 11:55
1012062,Vernon Farmers Market,http://www.vernontx.gov,Vernon Farmers Market Association,,,,1725 Wilbarger,Vernon ,Wilbarger,Texas,76384,05/14/2016 to 08/27/2016,Sat: 8:00 AM-12:00 PM;,,,,,,,-99.284047,34.15351,,6/28/2016 12:08
1012063, Caledonia Farmers Market Association - Danville,https://sites.google.com/site/caledoniafarmersmarket/,https://www.facebook.com/Danville.VT.Farmers.Market/,,,,,Danville ,Caledonia,Vermont,5828,06/08/2016 to 10/12/2016,Wed: 9:00 AM-1:00 PM;,,,,,,,-72.140305,44.411013,,6/28/2016 12:10
1012064,Revere Farmers' Market,,https://www.facebook.com/reverefarmersmarket/,,,,249 Broadway,Revere,Suffolk,Massachusetts,2151,07/08/2016 to 10/07/2016,Fri: 12:30 PM-4:30 PM;,,,,,,,-71.013631,42.407274,,6/28/2016 12:01
1012065,Franklin Farmers Market,http://www.franklinfarmersmarketma.com,https://www.facebook.com/FranklinFarmersMarketMA/,,,,Main Street at High Street,Franklin,Norfolk,Massachusetts,2038,06/03/2016 to 10/28/2016,Fri: 12:00 PM-6:00 PM;,,,,,,,-71.401453,42.08777,,6/28/2016 12:26
1012066,Dexter Farmers' Market,,Dexter Farmers' Market,,,,29 Grove Street,Dexter,Penobscot,Maine,4930,05/21/2016 to 10/29/2016,Sat: 10:00 AM-2:00 PM;,,,,,,,-69.289062,45.026147,,6/28/2016 12:44
1012067,Egleston Farmers Market,http://Eglestonfarmersmarket.org,www.facebook.com/EglestonFarmersMarket,@EglestonFarmMkt,,,31 Germania Street,Jamaica Plain,Suffolk,Massachusetts,2130,05/14/2016 to 02/25/2017,Sat: 10:00 AM-2:00 PM;,,,,,,,-71.103239,42.314332,,6/28/2016 12:53
1012068,The Greenfield Tuesday Farmers' Market,http://tuesdayfarmersmarket.wordpress.com,https://www.facebook.com/greenfieldtuesdaymarket/,,,https://www.instagram.com/tuesdayfarmersmarket/,Sears Avenue,Greenfield,Franklin,Massachusetts,1301,05/24/2016 to 10/25/2016,Tue: 1:30 PM-6:30 PM;,,,,,,,-72.6039289,42.5883382,,6/28/2016 13:13
1012070,Smart Markets Chantilly,http://www.smartmarkets.org,www.facebook.com/smartmarketschantilly,@smartmarkets,,,3460 Centreville Road,Chantilly,Fairfax,Virginia,22051,04/28/2016 to 11/25/2016,Thu: 3:30 PM-7:00 PM;,,,,,,,-77.4237072,38.9090074,,6/28/2016 13:48
1012071,Ennis Farmers Market,http://ennistx.com/farmers-market,https://www.facebook.com/ennistxfarmersmarket,https://twitter.com/ennisfarmmarket,https://www.youtube.com/results?search_query=ennis+farmers+market+,https://www.instagram.com/ennisfarmersmarket/,100 N. Dallas Street,Ennis ,Ellis,Texas,75119,04/02/2016 to 10/29/2016,Sat: 8:00 AM-1:00 PM;,,,,,,,-96.628182,32.327437,,6/28/2016 14:29
1012072,Smart Markets Huntington,http://www.smartmarkets.org,www.facebook.com/smartmarketshuntington,@smartmarkets,,,5918 North Kings Highway,Alexandria,Fairfax,Virginia,22003,04/28/2016 to 11/24/2016,Thu: 3:00 PM-7:00 PM;,,,,,,,-77.0770722,38.7894498,,6/28/2016 13:52
1012073,Smart Markets Loudon Station,http://www.smartmarkets.org,www.facebook.com/smartmarketsloudonstation,@smartmarkets,,,43805 Central Station Drive,Ashburn,Loudoun,Virginia,20147,06/19/2016 to 11/27/2016,Sun: 10:00 AM-2:00 PM;,,,,,,,-77.4863786,39.0069507,,6/28/2016 13:56
1012074,CUESA Jack London Square Farmers Market,http://www.cuesa.org,https://www.facebook.com/jacklondonsqfm/,@cuesa,,,472 Water Street,Oakland ,Alameda,California,94607,01/01/2016 to 12/31/2016,Sun: 9:00 AM-2:00 PM;,,,,,,,-122.277186,37.794714,,6/28/2016 14:07
1012076,Hood River Farmers Market,http://www.gorgegrown.com,https://www.facebook.com/HoodRiverFarmersMarket,,,,5th Street & Columbia Street,Hood River,Hood River,Oregon,OR,05/07/2016 to 11/19/2016,Sat: 9:00 AM-1:00 PM;,,,,,,,-121.515814,45.710094,,6/28/2016 15:25
1012077,Natick Farmers Market,http://www.natickfarmersmarekt.com,natickfarmersmarket,,,,Common Street,Natick,Middlesex,Massachusetts,1760,01/01/2016 to 12/31/2016,Sat: 9:00 AM-1:00 PM;,,,,,,,-71.3460359,42.2829114,,6/28/2016 15:29
1012078,Mosier Farmers Market,,https://www.facebook.com/Mosier-Farmers-Market-136907079719940/,,,,1202 First Street,Mosier,Wasco,Oregon,97040,06/19/2016 to 09/25/2016,Sun: 4:00 PM-7:00 PM;,,,,,,,-121.399692,45.6832769,,6/28/2016 15:31
1012079,Coeburn Farmers Market,,,,,,Front Street and Grand Ave.,Coeburn,Wise,Virginia,24230,,Sat: 1:00 PM-4:30 PM;,,,,,,,-82.463127,36.9432199,,8/29/2016 8:34
1012080,Stoneham Farmers Market,http://Stonehamfarmersmarket.com,Stoneham Farmers Market,,,,Main St.,Stoneham,Middlesex,Massachusetts,2180,06/16/2016 to 10/13/2016,Thu: 2:30 AM-6:30 AM;,,,,,,,-71.100163,42.480311,,6/28/2016 16:00
1012081,Bangor Farmers' Market,http://www.bangorfarmersmarket.org,www.facebook.com/bangorfarmersmarket,,,,Corner of Franklin and Harlow Streets,Bangor,Penobscot,Maine,4401,05/01/2016 to 11/20/2016,Sun: 11:00 AM-2:00 PM;,,,,,,,-68.771649,44.8039587,,6/28/2016 16:09
1012082,Powers Park Farmers Market,http://www.farmtocity.org,https://www.facebook.com/FarmToCity/,,,,Almond and Ann Streets,Philadelphia ,Philadelphia,Pennsylvania,19134,05/19/2016 to 11/17/2016,Thu: 3:00 PM-7:00 PM;,,,,,,,-75.109463,39.98254,,6/28/2016 15:57
1012083,Farmers' Market at Harvard University,http://www.dining.harvard.edu/food-literacy-project/farmers-market-harvard,https://www.facebook.com/harvardfarmersmarkets/,twitter.com/hudsinfo,,instagram.com/hudsinfo,1 Oxford St,Cambridge,Middlesex,Massachusetts,2138,06/07/2016 to 11/22/2016,Tue: 12:00 PM-6:00 PM;,,,,,,,-71.1167153,42.3764326,,6/28/2016 16:40
1012084,Texas Farmers' Market at Mueller ,http://texasfarmersmarket.org/,https://www.facebook.com/TFMMueller,https://twitter.com/TFMMueller,,https://www.instagram.com/texasfarmersmarket/,4209 Airport Blvd.,Austin ,Travis,Texas,78722,01/01/2016 to 12/31/2016,Sun: 10:00 AM-2:00 PM;,,,,,,,-97.707269,30.296618,,6/28/2016 16:44
1012085,Shelburne Farmers Market,http://SBPAVT.org/farmersmarket,,,,,Church Street,Shelburne ,Chittenden,Vermont,5482,05/28/2016 to 10/15/2016,Sat: 9:00 AM-1:00 PM;,,,,,,,-73.227644,44.378312,,6/28/2016 16:53
1012086,East Coast Indoor Farmers Market,http://www.eastcoastgardencenter.com/farmers-market.html,https://www.facebook.com/eastcoastgardencenter/,,,,30366 Cordrey Road,Millsboro ,Sussex,Delaware,19966,11/08/2016 to 04/11/2017,Tue: 12:00 PM-3:00 PM;,,,,,,,-75.2181481,38.6162124,,6/28/2016 17:14
1012087,BERLIN FARMERS MARKET,,https://www.facebook.com/Berlin-Farmers-Market-Berlin-Ct-390030617712122/,,,,,Berlin,Hartford,Connecticut,6037,06/11/2016 to 09/24/2016,Sat: 9:00 AM-1:00 PM;,,,,,,,-72.786014,41.643845,,6/28/2016 19:20
1012088,City of Everett Farmers Market ,http://Www.cityofeverett.com,,,,,Glendale Park Elm street,Everett,Essex,Massachusetts,2149,06/15/2016 to 10/19/2016,Wed: 12:00 PM-6:00 PM;,,,,,,,-71.04483,42.412739,,6/28/2016 19:50
1012089,SCFB UPPER UNION STREET,,,,,,WOODLAND MUNICAPAL PARKING LOT,SCHENECTADY,Schenectady,New York,12309,06/01/2016 to 10/29/2016,Sat: 9:00 AM-1:30 PM;,,,,,,,-73.905169,42.803462,,6/28/2016 20:18
1012090,Burlington Farmers Market,http://www.burlingtonfarmersmarket.org,https://www.facebook.com/Burlington-Farmers-Market-115041215180553/,,,,,Burlington ,Chittenden,Vermont,5401,05/07/2016 to 10/29/2016,Sat: 8:30 AM-2:00 PM;,,,,,,,-73.213445,44.476556,,6/28/2016 20:33
1012091,Brookline Farmers' Market,http://brooklinefarmersmarket.com,https://www.facebook.com/BrooklineFarmersMarket/,,,https://www.instagram.com/brooklinefarmersmarket/,Centre Street West Parking Lot,Brookline ,Norfolk,Massachusetts,2446,06/02/2016 to 11/17/2016,Thu: 1:30 PM-6:30 PM;,,,,,,,-71.123897,42.342195,,6/29/2016 7:48
1012093,Carver Farmers Market,,,,,,108 Main St.,Carver,Plymouth,Massachusetts,2330,,Sun: 12:00 PM-4:00 PM;,,,,,,,-70.769182,41.888852,,6/29/2016 8:37
1012094,Metro Denver Farmers' Market,http://www.denverfarmersmarket.com/,https://www.facebook.com/denverfarmersmarket,,,,6905 S Broadway,Littleton,Arapahoe,Colorado,80122,06/16/2016 to 10/13/2016,Thu: 10:00 AM-2:00 PM;,,,,,,,-104.989168,39.591409,,6/29/2016 9:20
1012095,Lunenburg Farmers Market,http://www.lunenburgfarmersmarket.org,https://www.facebook.com/LunenburgFarmersMarket,,,,Route 2,Lunenburg,Essex,Vermont,5906,06/01/2016 to 10/12/2016,Wed: 2:00 PM-6:00 PM;,,,,,,,-71.694717,44.462211,,6/29/2016 9:23
1012096,Town of Unicoi Farmers' Market,http://www.unicoitn.net/farmers-market,https://www.facebook.com/townofunicoitn/,,,,106 Unicoi Village Place,Unicoi,Unicoi,Tennessee,37692,06/17/2016 to 10/28/2016,Fri: 8:00 AM-1:00 PM;,,,,,,,-82.350705,36.207772,,6/29/2016 9:52
1012097,Lake Wedowee Local Produce,,https://www.facebook.com/lakewedoweelocalproduce/?ref=bookmarks,,,,17542 HWY 431,Wedowee,Randolph,Alabama,36278,06/03/2016 to 10/07/2016,Fri: 2:00 PM-6:00 PM;,,,,,,,-85.484529,33.316503,,6/29/2016 10:08
1012099,Sanford Farmers' Market - Wednesday,http://www.sanfordfarmersmarket.org/,https://www.facebook.com/SanfordFarmersMarket/,https://twitter.com/sanfrdfarmrsmkt,,,919 Main Street,Sanford Maine,York,Maine,4073,05/04/2016 to 10/26/2016,Wed: 12:00 PM-4:00 PM;,,,,,,,-70.774675,43.438742,,6/29/2016 10:29
1012100,STCC Farmers' Market,,https://www.facebook.com/pages/Springfield-Technical-Community-College/109746082384737?fref=ts,,,,One Armory Square,Springfield,Hampden,Massachusetts,1102,08/17/2016 to 10/26/2016,Wed: 12:00 PM-3:00 PM;,,,,,,,-72.579662,42.108206,,6/29/2016 10:44
1012101,DUMBO's Down to Earth Farmers Market,http://DowntoEarthMarkets.com,facebook@communitymarkets.biz,twitter.com/DowntoEarthMkts,,instagram.com/downtoearthmkts/,155 Water St,Brooklyn,Kings,New York,11201,06/08/2016 to 11/16/2016,Wed: 12:00 PM-7:00 PM;,,,,,,,-73.987717,40.703012,,6/29/2016 11:58
1012102,Attleboro Farmers Market,http://www.attleborofarmersmarket@gmail.com,,,,,201 County Street ,Attleboro ,Bristol,Massachusetts,2703,06/18/2016 to 10/29/2016,Sat: 9:00 AM-1:00 PM;,,,,,,,-71.299662,41.937848,,6/29/2016 12:33
1012103,SOUTH BOSTON FARMER'S MARKET,http://sbndc.org/south-boston-farmers-market/,https://www.facebook.com/South-Boston-Farmers-Market-293116144114043/,@SBFarmersMkt_,,,446 West Broadway,South Boston,Suffolk,Massachusetts,2127,06/06/2016 to 10/31/2016,Mon: 12:00 PM-6:00 PM;,,,,,,,-71.046817,42.335985,,6/29/2016 13:10
1012105,Northeast Michigan Regional Farm Market,,,,,,815 W. Lake Street (US-23),Tawas City,Iosco,Michigan,48763,05/21/2016 to 10/29/2016,Sat: 8:00 AM-1:00 PM;,,,,,,,-83.5262372,44.2605697,,6/29/2016 14:52
1012106,Crescent City Farmers Market,http://www.crescentcityfarmersmarket.org/,https://www.facebook.com/Crescent-City-Farmers-Market-12780011170/?ref=bookmarks,https://twitter.com/ccfmtweets,,instagram: @crescentcityfarmersmkt,1235 N Peters St,New Orleans,Orleans,Louisiana,70116,01/01/2016 to 07/13/2016,Wed: 1:00 PM-5:00 PM;,10/12/2016 to 12/31/2016,Wed: 1:00 PM-5:00 PM;,,,,,-90.058542,29.960535,,6/29/2016 16:03
1012107,Farmville Community Marketplace,http://farmvilleva.com,Farmville Community Marketplace,,,,"213 North Street, ",Farmville ,Prince Edward,Virginia,23901,04/23/2016 to 10/29/2016,Sat: 9:00 AM-1:00 PM;,,,,,,,-78.392913,37.304001,,7/20/2016 14:17
1012108,Lawrenceville Farmers Market,,,,,,400 N. Main Street,Lawrenceville,Brunswick,Virginia,23868,07/01/2016 to 09/30/2016,Fri: 3:00 PM-6:00 PM;,,,,,,,-77.853212,36.752006,,6/29/2016 16:33
1012110,Los Gatos Certified Farmers Market,http://cafarmersmkts.com,Los Gatos Farmers Market,@cafarmersmkts,,@cafarmersmkts,Main St & N Santa Cruz Ave,Los Gatos ,Santa Clara,California,95030,01/01/2016 to 12/31/2016,Sun: 9:00 AM-1:00 PM;,,,,,,,-121.983407,37.222242,,6/29/2016 17:17
1012113,Platte County Farmers Market,,,,,,Main Street,Wheatland,Platte,Wyoming,,,Sun: 8:00 AM-11:00 AM;,,,,,,,-104.953798,42.055953,,6/29/2016 21:20
1012115,Damariscotta Farmers Market ,http://www.damariscottafarmersmarket.org,https://www.facebook.com/damariscottafarmersmarket/,@DamaFarmerMkt ,Damariscotta Farmers Market,Instagram: @damariscottafarmers,DRA Round Top Farm and Rising Tide Co-Op ,Damariscotta,Lincoln,Maine,4543,05/13/2016 to 10/28/2016,Fri: 9:00 AM-12:00 PM;,06/01/2016 to 09/01/2016,Mon: 3:00 PM-6:00 PM;,,,,,-69.513212,44.03883,,6/30/2016 8:46
1012116,Suffolk Farmers' Market,http://www.suffolk-fun.com,https://www.facebook.com/SuffolkFarmersMarketVirginia/,,,,524 N. Main Street,Suffolk,Suffolk,Virginia,23434,04/30/2016 to 11/19/2016,Sat: 9:00 AM-1:00 PM;,,,,,,,-76.58185,36.737591,,6/30/2016 9:45
1012117,Centerville Farmers Market,,https://www.facebook.com/Centerville-Farmers-Market-1239079762770121/,,,,52 Twaddell Mill Road,Centerville,New Castle,Delaware,19807,06/18/2016 to 10/15/2016,Sat: 8:30 AM-12:00 PM;,,,,,,,-75.616506,39.821415,,6/30/2016 10:14
1012118,Clintonville Farmers' Market,http://www.clintonvillefarmersmarket.org,www.facebook.com/clintonvillefarmersmarket,,,Instagram @clintonvillefarmersmarket,N High St and W Dunedin Rd,Columbus,Franklin,Ohio,43214,04/30/2016 to 11/19/2016,Sat: 9:00 AM-12:00 PM;,07/06/2016 to 09/28/2016,Wed: 4:00 PM-7:00 PM;,,,,,-83.0165751,40.0342974,,6/30/2016 12:21
1012120,North Market Farmers' Market,http://www.northmarket.com,Facebook.com/NorthMarket,@northmarket,,Instagram:    @northmarket,59 Spruce Street,Columbus,Franklin,Ohio,43213,04/16/2016 to 12/17/2016,Sat: 8:00 AM-2:00 PM;,,,,,,,-83.0041,39.971889,,6/30/2016 12:34
1012121,The Land Connection Champaign Farmers' Market,http://thelandconnection.org/market,https://www.facebook.com/TheLandConnection/,https://twitter.com/LandConnection,https://www.youtube.com/channel/UCmz-MjufoEh_fyNIfvOxzgA,https://www.instagram.com/thelandconnection/,310-330 N. Neil,Champaign,Champaign,Illinois,IL,05/03/2016 to 10/25/2016,Tue: 4:00 PM-7:00 PM;,,,,,,,-88.243298,40.119058,,6/30/2016 12:54
1012122,Desoto Community Farmers Market,,https://www.facebook.com/DCFM62924/,,,,101 W. Main Street,Desoto,Jackson,Illinois,62924,06/07/2016 to 10/25/2016,Tue: 3:00 PM-6:00 PM;,,,,,,,-89.228629,37.816439,,6/30/2016 12:59
1012125,Lawrenceville Farmers Market,http://www.lunited.org/programs/community-planning-development/lawrenceville-farmers-market/,https://www.facebook.com/LawrencevillePGHFarmersMarket/,https://twitter.com/lvillemarket,,https://www.instagram.com/lvillefarmersmarket/,250 40th St,Pittsburgh,Allegheny,Pennsylvania,15201,06/04/2016 to 10/29/2016,Sat: 1:00 PM-4:00 PM;,,,,,,,-79.9607473,40.467448,,6/30/2016 13:16
1012126,Kenosha HarborMarket,http://kenoshaharbormarket.com,Kenosha HarborMarket ,,,,2nd Avenue between 54th and 56th Streets,Kenosha ,Kenosha,Wisconsin,53140,05/14/2016 to 10/15/2016,Sat: 9:00 AM-2:00 PM;,,,,,,,-87.813957,42.586623,,6/30/2016 13:51
1012127,Santee Community Farmers Market,,https://www.facebook.com/Santeefarmersmarket/,,,https://www.facebook.com/SanteeCommunityFoodsProject/,53142 Highway 12,Niobrara,Knox,Nebraska,68760,07/02/2016 to ,Sat: 10:00 AM-2:00 PM;,,,,,,,-97.881936,42.733001,,6/30/2016 13:44
1012128,Kenosha Winter HarborMarket ,http://kenoshaharbormarket.com,Kenosha HarborMarket ,,,,514 - 56th Street,Kenosha ,Kenosha,Wisconsin,53140,10/22/2016 to 05/06/2017,Sun: 9:00 AM-1:00 PM;,,,,,,,-87.81806,42.585197,,6/30/2016 13:49
1012129,Arlington Farmers Market,http://www.community-foodworks.org/arlington-courthouse-market,https://www.facebook.com/ArlingtonFarmersMarket/,Twitter: @ArlFarmersMkt,,Instagram: arlfarmersmkt,1400 N. Courthouse Rd.,Arlington,Arlington,Virginia,22201,01/02/2016 to 03/26/2016,Sat: 9:00 AM-12:00 PM;,04/02/2016 to 12/17/2016,Sat: 8:00 AM-12:00 PM;,,,,,-77.084528,38.889602,,6/30/2016 14:05
1012130,WestoshaMarket ,http://WestoshaMarket.com,WestoshaMarket ,,,,30820 111th Street,Wilmot ,Kenosha,Wisconsin,53192,07/06/2016 to 09/28/2016,Wed: 2:30 PM-6:30 PM;,,,,,,,-88.179523,42.517562,,6/30/2016 14:00
1012131,Herndon Farmers Market ,http://www.fairfaxcounty.gov/parks/farmersmarkets/,,,,,777 Lynn St,Herndon,Fairfax,Virginia,20170,05/05/2016 to 11/10/2016,Thu: 8:00 AM-12:30 PM;,,,,,,,-77.3864575,38.9712122,,7/14/2016 14:55
1012132,Community Food Bank Farm Stand,http://www.communityfoodbank.org,https://www.facebook.com/SantaCruzRiverFarmersMarket/,https://twitter.com/SantaCruzRiver,,,3003 S. Country Club Rd.,Tucson,Pima,Arizona,85726,01/01/2016 to 12/31/2016,Tue: 8:00 AM-12:00 PM;,,,,,,,-110.92521,32.188882,,6/30/2016 15:36
1012133,Eighth & Enright Farmers Market @ Common Roots,,,,,,3542 W. 8th St.,Cincinnati ,Hamilton,Ohio,45205,06/04/2016 to 10/15/2016,Sat: 12:00 PM-3:00 PM;,,,,,,,-84.573114,39.106241,,6/30/2016 14:20
1012134,banning market night,,facebook.com/banningmarketnight,,,,1170 W Ramsey Street,banning,Riverside,California,92220,05/10/2016 to 10/25/2016,Tue: 6:00 PM-9:00 PM;,,,,,,,-116.889524,33.924897,,6/30/2016 14:44
1012135,Manitowoc Farmers' Market,http://www.manitowoc.org,,,,,,Manitowoc ,Manitowoc,Wisconsin,54220,05/07/2016 to 10/29/2016,Sat: 8:00 AM-2:00 PM;,06/07/2016 to 10/25/2016,Tue: 12:00 PM-6:00 PM;,,,,,-87.657155,44.091503,,6/30/2016 14:30
1012141,Milford's Riverwalk Farmers Market,http://www.downtownmilford.org/farmersmarket,www.facebook.com/RiverwalkFarmersMarket,,,,S. Walnut Street,Milford ,Sussex,Delaware,19963,05/07/2016 to 10/01/2016,Sat: 9:00 AM-1:00 PM;,,,,,,,-75.428176,38.913006,,6/30/2016 15:20
1012142,Fife Farmers Market ,http://cityoffife.org/city-departments/parks-and-recreation/special-events/farmers-market,https://www.facebook.com/fifefarmersmarket/ ,,,,2820 54th Ave E,Fife,Pierce,Washington,98424,06/03/2016 to 09/23/2016,Sat: 3:00 PM-7:00 PM;,,,,,,,-122.357014,47.230951,,6/30/2016 15:23
1012143,Rockland Farmers' Market,http://rocklandfarmersmarket.org/,facebook.com/RFM,,,Instagram @rocklandfarmersmarket,Harbor Park,Rockland,Knox,Maine,4841,05/19/2016 to 10/27/2016,Thu: 8:30 AM-1:00 PM;,,,,,,,-69.108468,44.1011505,,6/30/2016 15:46
1012144,SOUTH WHIDBEY TILTH FARMERS' MARKET,http://www.southwhidbeytilth.org/market.html,https://www.facebook.com/SouthWhidbeyTilthFarmersMarket?ref=hl,,,,2812 Thompson Road,Langley ,Island,Washington,98260,05/01/2016 to 10/16/2016,Sun: 11:00 AM-2:00 PM;,,,,,,,-122.474481,48.009171,,6/30/2016 16:04
1012145,Steilacoom Farmers' Market,http://www.townofsteilacoom.com/267/Farmers-market,https://www.facebook.com/Steilacoom-Farmers-Market-145578922125401/,,,,Lafayette and Wilkes Street,Steilacoom,Pierce,Washington,98388,,Wed: 3:00 PM-7:00 PM;,,,,,,,-122.5984882,47.1727753,,6/30/2016 16:09
1012146,Chewelah Farmers Market,http://www.chewelahfarmersmarket.com,Chewelah Farmers Market,,,,700 North Park Street,Chewelah,Stevens,Washington,99109,05/13/2016 to 10/28/2016,Fri: 11:30 AM-5:30 PM;,,,,,,,-117.715235,48.28238,,6/30/2016 16:13
1012148,Neskowin Farmers Market,http://neskowinfarmersmarket.com,https://www.facebook.com/NeskowinFarmersMarket/,,,,Neskowin Beach Wayside ,Neskowin,Tillamook,Oregon,97149,05/21/2016 to 10/01/2016,Sat: 9:00 AM-1:00 PM;,,,,,,,-123.982222,45.103228,,6/30/2016 16:39
1012149,Seattle City Hall Farmers Market featuring Pike Place Market Express,http://www.pikeplacemarket.org,,,,,600 4th Ave,Seattle,King,Washington,98104,05/31/2016 to 10/11/2016,Mon: 10:00 AM-;Tue: 10:00 AM-2:00 PM;,,,,,,,-122.330361,47.603679,,6/30/2016 16:58
1012150,Pike Place Market - Microsoft Commons Farmers Market,http://www.pikeplacemarket.org,,,,,15253 NE 40th St,Redmond,King,Washington,98052,05/31/2016 to 10/11/2016,Tue: 10:00 AM-2:00 PM;,,,,,,,-122.13733,47.644322,,6/30/2016 17:22
1012151,Pike Place Market - Evening Farmers Market,http://www.pikeplacemarket.org,,,,,1600 Pike Place,Seattle,King,Washington,98101,06/01/2016 to 10/12/2016,Wed: 5:00 PM-8:00 PM;,,,,,,,-122.341986,47.609566,,6/30/2016 17:26
1012152,Pike Place Market - South Lake Union Farmers Market,http://www.pikeplacemarket.org,,,,,410 Terry Ave N,Seattle,King,Washington,98109,06/02/2016 to 10/13/2016,Thu: 10:00 AM-2:00 PM;,,,,,,,-122.33688,47.622595,,6/30/2016 17:31
1012153,Pike Place Market - 1st Hill Farmers Market,http://www.pikeplacemarket.org,,,,,1200 9th Ave,Seattle,King,Washington,98101,06/03/2016 to 10/14/2016,Fri: 10:00 AM-2:00 PM;,,,,,,,-122.328889,47.610091,,6/30/2016 17:34
1012156,The Village Farmers Market in Creede,http://www.villagefarmersmarketcreede.com,Village Farmers Market,,,,550 N. Airport Road,Creede,Mineral,Colorado,81130,06/10/2016 to 09/02/2016,Fri: 12:00 PM-6:00 PM;,,,,,,,-106.9164953,37.8239687,,6/30/2016 18:00
1012157,Anaconda Community Market,http://www.anacondacommunityfoundation.org/anaconda-community-market.html,https://www.facebook.com/groups/478915098830452/,,,,Kennedy Commons (306 Main),Anaconda,Deer Lodge,Montana,59711,07/12/2016 to 09/13/2016,Tue: 4:00 PM-7:00 PM;,,,,,,,-112.954123,46.12798,,6/30/2016 18:19
1012158,21 Acres Farm Market,http://21acres.org,https://www.facebook.com/21Acres/,@21acres,21AcresCenter's channel,Instagram @21acres,13701 NE 171st Street,Woodinville,King,Washington,98072,01/01/2016 to 12/31/2016,Wed: 11:00 AM-6:00 PM;Thu: 11:00 AM-6:00 PM;Fri: 11:00 AM-6:00 PM;Sat: 11:00 AM-6:00 PM;,,,,,,,-122.1569875,47.7502397,,6/30/2016 19:50
1012159,Scott County Farmers' Market,,,,,,600 Scott High Drive,Huntsville,Scott,Tennessee,37756,,Sat: 9:00 AM-2:00 PM;,,,,,,,-84.5328257,36.4061698,,6/30/2016 21:35
1012160,Edmonds Museum Summer Market,http:// www.historicedmonds.org/summer-market,https://www.facebook.com/edmondsmuseumsummermarket/,,,,5th Ave between Main and Bell & Bell St. between 5th & 6th Ave,Edmonds,Snohomish,Washington,98020,06/18/2016 to 10/01/2016,Sun: 9:00 AM-3:00 PM;,,,,,,,-122.376658,47.811372,,7/1/2016 0:42
1012161,Mount Vernon Farmers Market,http://mountvernonfarmersmarket.org,www.facebook.com/mountvernonwafarmersmarket,https://twitter.com/FarmMarketMV,,www.instagram.com/explore/locations/96519118/,Riverwalk Park between Gates St. and Myrtle St.,Mount Vernon,Skagit,Washington,98273,05/21/2016 to 10/15/2016,Sat: 9:00 AM-2:00 PM;,,,,,,,-122.311832,48.417071,,8/1/2016 17:16
1012163,Blairstown Farmers' Market,http://BlairstownFarmersMarket.com,https://www.facebook.com/foodshedalliance/,https://twitter.com/FoodshedNJ,,,5 Stillwater Road,Blairstown,Warren,New Jersey,7825,,Sat: 10:00 AM-2:00 PM;,,,,,,,-74.955689,40.982893,,7/1/2016 8:56
1012164,Northampton Tuesday Farmers' Market,http://www.northamptontuesdaymarket.com,https://www.facebook.com/northamptontuesdaymarket/,https://twitter.com/TuesdayMarket,,https://www.instagram.com/tuesdaymarket/,"99 Armory St., Northampton, MA 01060",Northampton,Hampshire,Massachusetts,1060,04/26/2016 to 11/08/2016,Tue: 1:30 PM-6:30 PM;,,,,,,,-72.630195,42.318193,,7/1/2016 9:17
1012165,Hampton Bays Farmers Market,http://www.stmaryshb.org,https://www.facebook.com/hamptonbaysfarmersmarket,@HBFarmersMrkt,,Instagram: hamptonbaysfarmersmarket,165 Ponquogue Avenue,Hampton Bays ,Suffolk,New York,11946,05/28/2016 to 09/03/2016,Sat: 9:00 AM-1:00 PM;,,,,,,,-72.513106,40.858696,,7/1/2016 9:04
1012166,Morris County Winter Farmers' Market,http://MorrisWinterFarmersMarket.com,https://www.facebook.com/MorrisCountyWinterFarmersMarket/,https://twitter.com/FoodshedNJ,,,26 Mills Street,Morristown,Morris,New Jersey,7960,,Sun: 10:00 AM-2:00 PM;,,,,,,,-74.489945,40.801309,,7/1/2016 9:03
1012167,Dewey Square Farmers Market,https://bostonpublicmarket.org/,https://www.facebook.com/BostonPublicMarket,BosPublicMarket,,Instagram - @BostonPublicMarket,600 Atlantic Ave,Boston,Middlesex,Massachusetts,2210,05/17/2016 to 11/22/2016,Tue: 11:30 AM-6:30 PM;Thu: 11:30 AM-6:30 PM;,,,,,,,-71.055537,42.352929,,7/1/2016 9:07
1012170,Port Washington Organic Farmers' Market,http://grassrootsinfo.org/farmersmarket.php,facebook.com/grassrootsinfo,twitter.com/GrassrootsEnvEd,,ngton-organic-farmers-market-port-washington,"Town Dock, Main Street",Port Washington,Nassau,New York,11050,06/11/2016 to 10/29/2016,Sat: 8:00 AM-12:00 PM;,,,,,,,-73.702532,40.832058,,7/1/2016 9:21
1012171,Broome County Regional Farmers Market,http://www.bcregionalmkt.com,Facebook.com/broomecountyregionalfarmersmarket,,,,840 Upper Front St,Binghamton,Broome,New York,13905,6/25/2016,Tue: 4:00 PM-7:00 PM;Sat: 9:00 AM-1:00 PM;,,,,,,,-75.906011,42.128211,,7/20/2016 13:01
1012172,Pine Bush Farmers Market,,,,,,62 Main Street,Pine Bush ,Orange,New York,12566,05/28/2016 to 10/15/2016,Sat: 9:00 AM-2:00 PM;,,,,,,,-74.300342,41.609526,,7/1/2016 9:40
1012173,Cary Downtown Farmers Market,http://www.caryfarmersmarket.com,https://www.facebook.com/CaryDowntownFarmersMarket/,@CaryNCfarmermkt,,,135 W. Chatham St,Cary,Wake,North Carolina,27511,04/02/2016 to 11/19/2016,Sat: 8:00 AM-12:30 PM;,04/01/2017 to 11/18/2017,Sat: 8:00 AM-12:30 PM;,,,,,-78.7823443,35.7869682,,7/1/2016 9:47
1012174,Hampstead Farmers' Market,http://www.hampsteadfarmersmarket.com,hampstead farmers market,,,,1341 N. Main Street,Hampstead,Carroll,Maryland,21074,06/04/2016 to 10/01/2016,Sat: 8:30 AM-12:30 PM;,,,,,,,-76.851717,39.610329,,7/1/2016 10:22
1012175,EastSide Market,http://chemung.cce.cornell.edu/agriculture/buy-local/farmers-markets,https://www.facebook.com/EastSideMarketElmiraNY/,,,,760 E Water Street,Elmira,Chemung,New York,14901,06/10/2016 to 10/21/2016,Fri: 2:30 PM-6:00 PM;,,,,,,,-76.7923531,42.0886921,,7/1/2016 10:25
1012176,Parkside-Kenilworth Farmers Market,http://www.community-foodworks.org/,,,,,3517 Jay St NE,Washington ,District of Columbia,District of Columbia,20019,,Sat: 9:00 AM-1:00 PM;,,,,,,,-76.95111,38.906098,,7/1/2016 10:38
1012177,Cresco Farmers Market,http://www.howard-county.com,,,,,101 2nd Ave SW,Cresco,Howard,Iowa,52136,,Tue: 2:30 PM-5:30 PM;Fri: 2:30 PM-5:30 PM;,,,,,,,-92.118784,43.371656,,7/1/2016 11:00
1012178,Farmers' Market On Broadway,,,,,,,Green Bay,Brown,Wisconsin,54304,06/01/2016 to 09/28/2016,Wed: 3:00 PM-8:00 PM;,,,,,,,-88.020684,44.518088,,7/1/2016 10:50
1012179,Shorewood Farmers Market,http://www.shorewoodfarmersmarket.com/,https://www.facebook.com/shorewoodfarmersmarket/,,,,1600 E. Lake Bluff Blvd,Shorewood,Milwaukee,Wisconsin,53211,06/19/2016 to 10/23/2016,Sun: 9:30 AM-1:00 PM;,,,,,,,-87.890488,43.096929,,7/1/2016 10:55
1012182,Grizzly Green Market,http://www.umt.edu/dining/Sustainability/Grizzly%20Green%20Market/default.php,,,,,32 Campus Drive,Missoula,Missoula,Montana,59812,01/01/2016 to 12/31/2016,Thu: 10:00 AM-2:00 PM;,,,,,,,-113.983083,46.86023,,7/1/2016 11:53
1012183,Canal Market District,http://www.canalmarketdistrict.org,facebook.com/canalmarketdistrict,,,Instagram @canalmarketdistrict,24 East Canal St,Newark,Licking,Ohio,43055,06/03/2016 to 10/28/2016,Tue: 4:00 PM-7:00 PM;Fri: 4:00 AM-7:00 PM;,,,,,,,-82.401054,40.056583,,7/1/2016 12:03
1012184,WARSAW FARMERS' MARKET,,,,,,2444  NORTH MAIN ST.,Warsaw,Wyoming,New York,14569,07/07/2016 to 10/13/2016,Thu: 11:30 AM-4:00 PM;,,,,,,,-78.1290782,42.7634417,,7/1/2016 12:34
1012187,Midtown Farmers Market,http://www.midtownfarmersmarket.org,facebook.com/MidtownFarmersMarket/,@MidtownFarmMkt,,,2225 E. Lake Street,Minneapolis,Hennepin,Minnesota,55407,05/07/2016 to 10/29/2016,Tue: 3:00 PM-7:00 PM;Sat: 8:00 AM-1:00 PM;,,,,,,,-93.2387,44.947313,,7/1/2016 13:58
1012188,Santa Cruz River Farmers' Market,http://communityfoodbank.org,https://www.facebook.com/SantaCruzRiverFarmersMarket/,https://twitter.com/SantaCruzRiver,,,100 S. Avenida del Convento,Tucson ,Pima,Arizona,85745,01/01/2016 to ,Thu: 4:00 PM-7:00 PM;,,,,,,,-110.985666,32.219909,,7/1/2016 14:14
1012189,Market Place Thursdays,,Some Favorite Things Gallery,none,none,none,315 Old Corinth Rd,Hadley,Saratoga,New York,12835,06/30/2016 to 10/13/2016,Thu: 9:30 AM-1:00 PM;,,,,,,,-73.847538,43.316314,,7/26/2016 15:44
1012191,Old Town Scottsdale Farmers Market,http://arizonacommunityfarmersmarkets.com/FM_OldTownScottsdale.html,Old Town Scottsdale Farmers Market,Old Town Farmers Mkt @OTFM,,,3806 N. Brown Rd,Scottsdale ,Maricopa,Arizona,85251,10/15/2016 to 05/27/2017,Sat: 8:00 AM-1:00 PM;,,,,,,,-111.92509,33.491697,,7/1/2016 15:08
1012192,Downtown El Cajon Farmers Market,,https://www.facebook.com/DowntownElCajonFarmersMarket/,,,,201 E. Main Street,El Cajon,San Diego,California,92020,07/07/2016 to 08/25/2016,Thu: 3:00 PM-7:00 PM;,09/01/2016 to 12/01/2016,Thu: 3:00 AM-6:00 PM;,01/01/2016 to 05/26/2016,Thu: 3:00 PM-6:00 PM;,,,-116.960239,32.794701,,7/1/2016 15:03
1012194,Copake Hillsdale Farmer's Market,http://www.copakehillsdalefarmersmarket.com,facebook.com/copakehillsdalefarmersmarket,,,,9140 Route 22,Hillsdale,Columbia,New York,12529,05/01/2016 to 10/01/2016,Sun: 9:00 AM-1:00 PM;,,,,,,,-73.517481,42.170062,,7/1/2016 15:49
1012195,Montgomery Farmers' Market,http://montgomeryfarmersmarket.org,https://www.facebook.com/MontgomeryFM/?fref=ts,https://twitter.com/MontFarmersMkt,,https://www.instagram.com/montfarmersmkt/?hl=en,9609 Montgomery Road,Montgomery,Hamilton,Ohio,45242,05/07/2016 to 10/29/2016,Sun: 9:00 AM-12:30 PM;,,,,,,,-84.353673,39.231078,,7/1/2016 15:57
1012196,Ft. Wayne's Farmers Market,http://www.ftwaynesfarmersmarket.com,https://www.facebook.com/ftwaynesfm,https://twitter.com/ftwaynesfm,,,Douglass Street,Fort Wayne,Allen,Indiana,46802,10/08/2016 to 05/27/2017,Sat: 9:00 AM-1:00 PM;,,,,,,,-85.141517,41.074368,,7/1/2016 16:06
1012197,Saranac Green Market,http://www.saranacgreenmarket.com,SaranacGreenMarket,,,,Intersection of Picketts Corners Road and Route 3,Saranac,Clinton,New York,12981,07/03/2016 to 09/11/2016,Sun: 10:00 AM-1:00 PM;,,,,,,,-73.733963,44.66166,,7/1/2016 16:07
1012198,Uptown Farmers Market,http://www.uptownmarketaz.com,facebook.com/uptownmarketaz,Twitter: @uptownmarketaz,,Instagram: @uptownmarketaz,5757 N. Central Avenue,Phoenix,Maricopa,Arizona,85012,05/07/2016 to 09/24/2016,Sat: 8:00 AM-12:00 PM;,10/01/2016 to 04/29/2017,Sat: 9:00 AM-1:00 PM;,10/05/2016 to 06/28/2017,Wed: 9:00 AM-1:00 PM;,,,-112.070596,33.522619,,9/15/2016 16:47
1012199,Port Towns Farmers Mercado,http://www.ecoffshoots.org/food/ptfm/,https://www.facebook.com/PTFarmersMarket,,,,4521 Kenilworth Avenue,Bladensburg,Prince George's,Maryland,20710,06/04/2016 to 09/24/2016,Sat: 11:00 AM-3:00 PM;,,,,,,,-76.931042,38.944653,,7/1/2016 17:48
1012201,The Olympia Farmers Market,http://www.olympiafarmersmarket.com,www.facebook.com/olympiafarmersmarket,@olyfarmersmkt,,@olympiafarmersmarket,700 Capitol Way N,Olympia ,Thurston,Washington,98501,01/01/2016 to 12/31/2016,Thu: 10:00 AM-3:00 PM;Fri: 10:00 AM-3:00 PM;Sat: 10:00 AM-3:00 PM;Sun: 10:00 AM-3:00 PM;,,,,,,,-122.902506,47.050307,,7/1/2016 18:45
1012202,Lake Forest Park Farmers Market,http:// thirdplacecommons.org/farmers-market/,https://www.facebook.com/ThirdPlaceCommons/,,,,17171 Bothell Way NE,Lake Forest Park,King,Washington,98155,05/08/2016 to 10/16/2016,Sun: 10:00 AM-3:00 PM;,,,,,,,-122.280325,47.754018,,7/1/2016 23:30
1012203,Saranac Lake Village Farmers Market,http://www.ausablevalleygrangefarmersmarkets.com,https://www.facebook.com/ausablevalleygrangefarmersmarkets/,,,,Riverside Park,Saranac Lake,Franklin,New York,12983,06/04/2016 to 10/15/2016,Sat: 9:00 AM-2:00 PM;,,,,,,,-74.131251,44.32463,,7/2/2016 10:52
1012204,Westbrook Village Second Sundays Marketplace,http://www.westbrookvillage.org,,,,,19251 N Westbrook Parkway,Peoria ,Maricopa,Arizona,85382,10/01/2016 to 04/01/2017,Sun: 9:00 AM-1:00 PM;,,,,,,,-112.265596,33.658197,,7/2/2016 11:55
1012205,Barryville Farmers' Market,http://www.barryvillefarmersmarket.com/,https://www.facebook.com/barryvillefarmersmarket,,,,3385 Route 97,Barryville,Sullivan,New York,12719,05/14/2016 to 10/29/2016,Sat: 10:00 AM-1:00 PM;,,,,,,,-74.913476,41.477836,,7/2/2016 12:10
1012206,Lake Placid Farmers' Market ,http://www.ausablevalleygrangefarmersmarkets.com/lake-placid.html,https://www.facebook.com/ausablevalleygrangefarmersmarkets/,,,,2322 Saranac Avenue,Lake Placid,Essex,New York,12946,06/29/2016 to 10/19/2016,Wed: 9:00 AM-1:00 PM;,,,,,,,-73.988205,44.29231,,7/2/2016 12:18
1012207,Schroon Lake Farmers' Market,http://www.ausablevalleygrangefarmersmarkets.com/schroon-lake.html,https://www.facebook.com/ausablevalleygrangefarmersmarkets/,,,,15 Leland Ave,Schroon Lake,Essex,New York,12870,06/27/2016 to 08/29/2016,Mon: 9:00 AM-1:00 PM;,,,,,,,-73.7606489,43.8366949,,7/2/2016 12:21
1012208,Schmidt Family Farms,,,,,,4282 State Road,Medina,Medina,Ohio,44256,05/25/2016 to 09/28/2016,Wed: 1:00 PM-6:00 PM;,,,,,,,-81.707468,41.159139,,7/2/2016 18:10
1012209,Wolcott Area Farmers Market,,www.facebook.com/WolcottAreaFarmersMarket,,,,1 Northup Park,Wolcott,Wayne,New York,NY,06/09/2016 to 10/06/2016,Thu: 2:30 PM-6:00 PM;,,,,,,,-76.815495,43.220144,,7/2/2016 21:15
1012212,Weiser Farmer's Market,,Weiser Farmers Market,,,,1 State Street,Weiser ,Washington,Idaho,83672,08/18/2016 to 09/29/2016,Thu: 5:30 PM-7:30 PM;,,,,,,,-116.97113,44.244083,,7/3/2016 22:16
1012213,Urban Acres Produce,,,,,,839 N. Pine St.,Wilmington,New Castle,Delaware,19802, to 07/01/2016,,,,,,,,-75.542582,39.742037,,7/4/2016 0:17
1012215,Thurmont Main Street Farmer's Market,http://www.thurmontmainstreet.com,www.facebook.com/ThurmontFirst,,,,South Center Street,Thurmont ,Frederick,Maryland,21788,06/04/2016 to 09/24/2016,Sat: 9:00 AM-12:00 PM;,,,,,,,-77.4105309,39.622789,,7/4/2016 16:11
1012216,Maku'u Farmers Market,,https://www.facebook.com/makuufarmersmarket/,,,https://www.youtube.com/watch?v=EdDCec4xGPY,15-2131 Keaau Pahoa Highway,Pahoa,Hawaii,Hawaii,96778,01/01/2016 to 12/31/2016,Sun: 8:00 AM-2:00 PM;,,,,,,,-154.971986,19.536657,,7/4/2016 18:23
1012217,Trinidad Community Farmers Market ,http://Trinidadfarmersmarket.com,Trinidad Community Farmers Market ,,,,"Cimino Park , Modica Drive and Convent St ",Trinidad,Las Animas,Colorado,81082,06/01/2016 to 10/15/2016,Sat: 8:00 AM-12:00 PM;,,,,,,,-104.5047614,37.1656945,,7/4/2016 19:22
1012218,Hutto Co-Op Market Nights,http://visithutto.com/231/CO-OP-Market-Nights,https://www.facebook.com/downtownhutto/,,,,420 US Hwy 79,Hutto,Williamson,Texas,78634,02/03/2016 to 11/30/2016,Wed: 5:00 PM-8:00 PM;,,,,,,,-97.550922,30.543434,,7/5/2016 9:05
1012220,Farmers Markets at the Capitol,http://www.mifma.org,https://www.facebook.com/MichiganFarmersMarketAssociation/,,,,Capitol Ave & Michigan Ave,Lansing,Ingham,Michigan,48933,07/28/2016 to 09/22/2016,Thu: 10:00 AM-3:00 PM;,,,,,,,-84.5538744,42.7335912,,7/5/2016 9:24
1012222,Marshall Area Farmers Market,,Marshall Area Farmers Market ,,,,125 West Green Street,"Marshall, MI ",Calhoun,Michigan,49068,,Sat: 8:00 AM-1:00 PM;,,,,,,,-84.959151,42.270871,,7/5/2016 10:01
1012224,Muskegon Farmers Market,http://muskegonfarmersmarket.com,https://www.facebook.com/MuskegonFarmersMarket/,,,,242 W. Western Ave.,Muskegon ,Muskegon,Michigan,49440,05/07/2016 to 12/01/2016,Tue: 6:00 AM-3:00 PM;Thu: 6:00 AM-3:00 PM;Sat: 6:00 AM-3:00 PM;,11/26/2016 to 04/29/2017,Sun: 9:00 AM-2:00 PM;,,,,,-86.249198,43.238443,,7/20/2016 15:04
1012225,Mancelona Farmers Market,,Mancelonafarmersmarket,,,,121 State St,Mancelona,Antrim,Michigan,49659,05/19/2016 to 10/27/2016,Thu: 3:00 PM-7:00 PM;,,,,,,,-85.059364,44.90273,,7/5/2016 10:12
1012226,Lowell Area Farmers' Market,http://www.discoverlowell.org,Lowell Farmers Market,,,,Corner of Monroe and Avery ,Lowell,Kent,Michigan,49331,06/16/2016 to 09/15/2016,Thu: 12:00 PM-5:30 PM;,,,,,,,-85.336817,42.936083,,7/5/2016 10:16
1012227,Eaton Rapids Medical Center Farmer's Market,http://www.eatonrapidsmedicalcenter.org,Eaton Rapids Medical Center ,,,,1500 S. Main St. ,Eaton Rapids ,Eaton,Michigan,48827,05/20/2016 to 10/21/2016,Fri: 3:00 PM-6:00 PM;,,,,,,,-84.657876,42.495807,,7/5/2016 10:20
1012228,South East Area Farmers' Market,http://www.OKTjustice.org/farmers-market/,Southeast Area Farmers' Market,,,,900 Fuller Ave. SE,Grand Rapids,Kent,Michigan,49506,07/22/2016 to 11/12/2016,Fri: 3:00 PM-7:00 PM;Sat: 11:00 AM-3:00 PM;,,,,,,,-85.6393938,42.9464661,,7/5/2016 10:28
1012229,MARSHFIELD FARMERS MARKET,,MARSHFIELD FARMERS MARKET,,,,900 WASHINGTON,Marshfield ,Webster,Missouri,65706,05/01/2016 to 10/28/2016,Fri: 3:00 PM-7:00 PM;,,,,,,,-92.920421,37.33542,,7/5/2016 11:07
1012232,"Downtown Saginaw Farmers' Market, Inc.",http://www.saginawfarmersmarket.org,Downtown Saginaw Farmers Market,,,,507 S. Washington Avenue (M-13),Saginaw,Saginaw,Michigan,48601,05/27/2016 to 10/31/2016,Mon: 10:00 AM-3:00 PM;Wed: 10:00 AM-3:00 PM;Fri: 10:00 AM-3:00 PM;Sat: 9:00 AM-1:00 PM;,,,,,,,-83.941012,43.428552,,7/5/2016 11:26
1012233,Agricenter International Farmers Market,http://www.agricenter.org/farmers-market/,https://www.facebook.com/farmersmarketmemphis/,https://twitter.com/Agricenter_Intl,,https://www.instagram.com/agricenterinternational/,7777 Walnut Grove Rd,Memphis,Shelby,Tennessee,38120,05/02/2016 to 10/01/2016,Mon: 7:30 AM-5:30 PM;Tue: 7:30 AM-5:30 PM;Wed: 7:30 AM-5:30 PM;Thu: 7:30 AM-5:30 PM;Fri: 7:30 AM-5:30 PM;Sat: 7:00 AM-5:30 PM;,,,,,,,-89.8037477,35.128866,,7/5/2016 11:28
1012234,Ypsilanti Farmers Market - Downtown,http://growinghope.net,https://facebook.com/YpsilantiFarmersMarkets/,,,,16 S. Washington,Ypsilanti,Washtenaw,Michigan,48197,05/03/2016 to 10/25/2016,Tue: 3:00 PM-7:00 PM;,,,,,,,-83.615002,42.240217,,7/5/2016 11:55
1012235,New Baltimore Farmers Market,http://www.newbaltimorefarmersmarket.com,https://www.facebook.com/New-Baltimore-Farmers-Market-Fan-Page-298736159230/,,,Instagram: nb_farmers_market,Grassy Lot next to 50976 Washington Street,New Baltimore,Macomb,Michigan,48047,06/05/2016 to 10/16/2016,Sun: 8:00 AM-1:00 PM;,11/26/2016 to 11/26/2016,Sat: 10:00 AM-3:00 PM;,,,,,-82.7344481,42.6796429,,7/5/2016 12:12
1012236,Ypsilanti Farmers Market - Depot Town,http://growinghope.net/farmers-markets/ypsilanti/,https://facebook.com/YpsilantiFarmersMarkets/,,,,100 Rice St,Ypsilanti,Washtenaw,Michigan,48197,05/07/2016 to 10/29/2016,Sat: 9:00 AM-1:00 PM;,,,,,,,-83.610492,42.246295,,7/5/2016 12:05
1012237,Fairmont Farmers Market Downtown Location,,https://www.facebook.com/Fairmont-Farmers-Market-106429072728729/,,,,Adams Street,Fairmont,Marion,West Virginia,26554,06/07/2016 to 10/25/2016,Tue: 4:00 PM-6:00 PM;,,,,,,,-80.141524,39.485128,,7/5/2016 12:57
1012238,Nyack Farmers Market,http://Nyackchamber.org,Nyack Farmers Market,Nyack Farmers Market,Nyack Farmers Market,Nyack Farmers Market,Main Street Parking Lot- Downtown Nyack,Nyack,Rockland,New York,10960,04/07/2016 to 11/23/2016,Thu: 8:00 AM-2:00 PM;,,,,,,,-73.92035,41.091089,,7/5/2016 12:59
1012239,"Foothills Farmers' Market, Inc.",http://www.foothillsfarmersmarket.com,https://www.facebook.com/foothillsfarmersmarket/,,,,126 W. Marion Street,Shelby,Cleveland,North Carolina,28152,01/01/2016 to 12/31/2016,Wed: 8:00 AM-12:00 PM;Sat: 8:00 AM-12:00 PM;,,,,,,,-81.5411997,35.2920003,,7/5/2016 13:01
1012240,Tupper Lake Farmers' Market,http://www.tupperlakefarmersmarket.com,https://www.facebook.com/TupperLakeFarmersMarket/,,,,"The Wild Center, 45 Museum Drive",Tupper Lake,Franklin,New York,12986,06/09/2016 to 09/22/2016,Thu: 10:00 AM-2:00 PM;,,,,,,,-74.439323,44.219995,,7/5/2016 13:02
1012241,Marine City Farmer's Market,,https://www.facebook.com/FarmersMarketMC/?fref=ts,,,,310 S Parker St,Marine City,St. Clair,Michigan,48039,07/14/2016 to 09/29/2016,Thu: 8:00 AM-1:00 PM;,,,,,,,-82.501097,42.71615,,7/5/2016 13:05
1012242,Fairmont Farmers Market I-79 Technology Park Location ,,https://www.facebook.com/Fairmont-Farmers-Market-106429072728729/,,,,3000 Technology Drive,Fairmont ,Marion,West Virginia,26554,06/02/2016 to 10/27/2016,Thu: 4:00 PM-6:00 PM;,,,,,,,-80.191687,39.431586,,7/5/2016 13:04
1012243,Downtown Fond du Lac Farmers Market - Saturday,http://www.downtownfdl.com/farmers-market.html,https://www.facebook.com/FondDuLacFarmersMarket/,,https://www.youtube.com/channel/UCA4zODGpao80RPD27BFfPzA,https://www.instagram.com/downtownfdl/,Main Street from Western Ave. to Sheboygan St.,Fond du Lac,Fond du Lac,Wisconsin,54935,05/14/2016 to 10/29/2016,Sat: 8:00 AM-12:00 PM;,,,,,,,-88.446973,43.775364,,7/5/2016 13:06
1012244,Nyack Indoor Winter Farmers' Market,http://Nyackchamber.org,Nyack Farmers Market,Nyack Farmers Market,Nyack Farmers Market,Nyack Farmers Market,Nyack Center- 58 Depew Avenue,Nyack,Rockland,New York,10960,12/01/2016 to 03/30/2017,Thu: 8:00 AM-2:00 PM;,,,,,,,-73.9190023,41.0894236,,7/5/2016 13:09
1012245,Northwest Detroit Farmers' Market,,https://www.facebook.com/nwdetroitfarmersmarket/,,,Instagram @nwdetroitfarmersmarket,18445 Scarsdale St.,Detroit,Wayne,Michigan,48223,06/02/2016 to 10/13/2016,Thu: 4:00 PM-8:00 PM;,,,,,,,-83.2236095,42.4068148,,7/5/2016 13:13
1012246,Grafton Farmers Market,,https://www.facebook.com/Grafton-Farmers-Market-819537644757046/,,,,Main Street,Grafton,Taylor,West Virginia,26354,05/25/2016 to 10/12/2016,Wed: 3:00 PM-6:00 PM;Sat: 1:00 PM-4:00 PM;,,,,,,,-80.01714,39.340373,,7/5/2016 13:16
1012247,Vicksburg Farmers' Market,http://Www.vicksburgfarmersmarket.com,Vicksburg Farmers' Market,,,,300 N. Richardson ,Vicksburg,Kalamazoo,Michigan,49097,,Fri: 2:30 PM-6:30 PM;,,,,,,,-85.528345,42.126553,,7/5/2016 13:28
1012249,Madison Farmers Market,,dawson madison farmers market,,,,Highway 40 E. and 1st St.,Madison ,Lac qui Parle,Minnesota,56256,06/21/2016 to 10/11/2016,Tue: 8:30 AM-12:00 PM;,,,,,,,-96.1754168,45.0087575,,7/5/2016 15:18
1012250,Dundee Farmers Market,https://heartofdundee.com/farmers-market/,https://www.facebook.com/dundeefarmersmarket/?fref=ts,,,,"Downtown Dundee, In the Triangle",DUNDEE,Monroe,Michigan,48131,05/15/2016 to 10/16/2016,Sun: 10:00 AM-3:00 PM;,,,,,,,-83.660742,41.957342,,7/5/2016 15:10
1012251,Sankofa World Market,https://www.facebook.com/SankofaPVD/,https://www.facebook.com/SankofaPVD/,SankofaPVD,,Instagram: SankofaPVD,275 Elmwood Ave,Providence,Providence,Rhode Island,2907,06/29/2016 to 10/05/2016,Wed: 2:00 PM-6:00 PM;,,,,,,,-71.4259842,41.8050532,,7/5/2016 15:13
1012252,"Freeman Health System, West - Farmers Market",http://freemanhealth.com,,,,,1102 W 32nd St,Joplin,Newton,Missouri,64804,05/18/2016 to 09/28/2016,Wed: 4:00 PM-7:30 PM;,,,,,,,-94.526846,37.0526877,,7/5/2016 15:24
1012253,Goshen Farmers Market,http://Goshen New York Chamber.com,Goshenfarmersmarket,,,,33 Park Place,Goshen,Orange,New York,10924,05/20/2016 to 10/28/2016,Fri: 10:00 AM-5:00 PM;,,,,,,,-74.323258,41.402116,,7/5/2016 15:41
1012254,Dawson Farmers Market,,dawson madison farmers market,,,,Ash  and 8th street,Dawson ,Lac qui Parle,Minnesota,56232,06/30/2016 to 10/13/2016,Thu: 4:00 PM-6:00 PM;,,,,,,,-96.0574386,44.9259444,,7/5/2016 15:43
1012255,East Lansing Farmer's Market,http://www.cityofeastlansing.com/farmersmarket,https://www.facebook.com/elfarmersmarket/,https://twitter.com/elfarmersmarket/,,,280 Valley Court,East Lansing,Ingham,Michigan,48823,06/05/2016 to 10/30/2016,Sun: 10:00 AM-2:00 PM;,,,,,,,-84.48749,42.737508,,7/5/2016 15:39
1012256,Downtown Fond du Lac Farmers Market - Wednesday,http://www.downtownfdl.com/farmers-market.html,https://www.facebook.com/FondDuLacFarmersMarket/,,https://www.youtube.com/channel/UCA4zODGpao80RPD27BFfPzA,https://www.instagram.com/downtownfdl/,Main Street Plaza ,Fond du Lac,Fond du Lac,Wisconsin,54935,06/01/2016 to 10/26/2016,Wed: 11:00 AM-3:00 PM;,,,,,,,-88.447092,43.777853,,7/5/2016 16:54
1012257,Brookland's Monroe St Farmers Market,http://www.community-foodworks.org/monroe-street-ne,https://www.facebook.com/FarmersMarketontheArtsWalk/,https://twitter.com/monroestfm,,,716 Monroe St NE,"Washington, DC",District of Columbia,District of Columbia,20018,04/16/2016 to 12/17/2016,Sat: 9:00 AM-1:00 PM;,,,,,,,-76.995089,38.933091,,7/5/2016 17:19
1012258,Rhode Island Row Farmers Market,http://www.community-foodworks.org/rhode-island-row-ne,https://www.facebook.com/rhodeislandavefarmersmarket/,,,,2300 Washington Pl NE,"Washington, DC",District of Columbia,District of Columbia,20017,,Thu: 4:00 AM-7:30 PM;,,,,,,,-76.993783,38.92131,,7/5/2016 17:24
1012260,High Springs Farmers Market,http://farmersmarket.highsprings.com,fb.com/farmersmarkethighsprings,,,,115 NE Railroad Avenue,High Springs,Alachua,Florida,32643,01/01/2016 to 12/31/2016,Thu: 12:00 PM-4:00 PM;,,,,,,,-82.596257,29.825509,,7/5/2016 18:25
1012261,West Anaheim Farmers' Market,http://www.downtownanaheim.com/westanaheimfarmersmarket,https://www.facebook.com/westanaheimfarmersmarket,,,,3100 W Orange Ave,Anaheim,Orange,California,92804,05/01/2016 to 10/01/2016,Wed: 4:00 PM-8:00 PM;,,,,,,,-117.998416,33.824344,,7/5/2016 20:09
1012262,Happy Valley Farmers Market ,http://happyvalleyfm.com,https://www.facebook.com/HappyValleyFM/,,,,100 east Main St. ,American Fork ,Utah,Utah,84058,06/15/2016 to 10/26/2016,Wed: 5:00 AM-9:00 PM;,,,,,,,-111.7959181,40.376769,,7/5/2016 20:19
1012265,Copley Creekside Farmers Market,http://copleyfarmersmarket.com/,https://www.facebook.com/CopleyCreeksideFarmersMarket/,https://twitter.com/copleyfm,,https://www.instagram.com/copleymarket/,1245 S Cleveland-Massillon Rd,Copley,Summit,Ohio,44321,05/26/2016 to 10/06/2016,Thu: 3:00 PM-6:00 PM;,,,,,,,-81.643846,41.103803,,7/6/2016 7:14
1012266,St. Charles Farmers' Marketplace,http://stcmi.com,stcmarketplace,,,,110 W. Spruce,St. Charles,Saginaw,Michigan,48655,06/07/2016 to 10/04/2016,Tue: 2:00 PM-7:00 PM;,,,,,,,-84.147648,43.298335,,7/6/2016 8:23
1012268,Plainwell Farmers Market,http://plainwell.org,Plainwell Farmers Market Official,@PlainwellMarket,,,200 W. Allegan St.,Plainwell ,Allegan,Michigan,49080,05/20/2016 to 10/28/2016,Tue: 3:00 PM-6:00 PM;Fri: 10:00 AM-4:00 PM;,11/26/2016 to 12/17/2016,Sat: 10:00 AM-2:00 PM;,,,,,-85.6451219,42.4443,,7/6/2016 14:34
1012269,Kensington Metropark Farmers Market,http://www.metroparks.com/facilities-education/kensington-farm-center/,https://www.facebook.com/KensingtonMetropark/,,,,4570 Huron River Parkway,Milford,Oakland,Michigan,48380,06/03/2016 to 09/30/2016,Fri: 9:00 AM-2:00 PM;,,,,,,,-83.634008,42.551403,,7/6/2016 9:25
1012270,Rodale Institute Organic Farmers Market at the Y,http://www.rodaleinstitute.org,https://www.facebook.com/rodaleinstituteallentownmarket/,,,,425 S. 15th St.,Allentown,Lehigh,Pennsylvania,18102,06/04/2016 to 10/29/2016,Sat: 9:00 AM-1:00 PM;,,,,,,,-75.485142,40.59255,,7/6/2016 10:49
1012271,Rodale Institute Organic Farmers Market at Sacred Heart,http://www.rodaleinstitute.org,https://www.facebook.com/rodaleinstituteorganicmarketon7th/,,,,450 W. Chew St.,Allentown,Lehigh,Pennsylvania,18102,06/02/2016 to 10/27/2016,Thu: 3:00 PM-6:00 PM;,,,,,,,-75.469507,40.607196,,7/6/2016 10:46
1012273,Chazy Orchards Farm Market,http://www.chazy.com,https://www.facebook.com/ChazyOrchardsInc,,,,9486 Route 9,Chazy,Clinton,New York,12921,09/06/2016 to 12/24/2016,Mon: 8:00 AM-5:00 PM;Tue: 8:00 AM-5:00 PM;Wed: 8:00 AM-5:00 PM;Thu: 8:00 AM-5:00 PM;Fri: 8:00 AM-5:00 PM;Sat: 8:00 AM-4:00 PM;Sun: 8:00 AM-4:00 PM;,,,,,,,-73.4299444,44.8803997,,7/6/2016 11:59
1012274,Mount Clemens Farmers Market Downtown,http://mountclemensfarmersmarket@gmail.com,https://www.facebook.com/Mount-Clemens-Farmers-Market-105767222777622/,,,,125 Macomb Pl,Mount Clemens ,Macomb,Michigan,48043,07/20/2016 to 09/21/2016,Wed: 2:00 PM-6:00 PM;,,,,,,,-82.881506,42.598055,,7/6/2016 12:04
1012275,SWANSEA FARMERS MARKET,,https://www.facebook.com/swanseafarmersmarket16,,,,1210 Wilbur Ave,Swansea,Bristol,Massachusetts,2777,01/01/2016 to 12/31/2016,Sun: 10:00 AM-2:00 PM;,,,,,,,-71.2342916,41.7321705,,7/6/2016 12:13
1012276,The ARA Farm Market,,,,,,854 N Barlow Rd,Lincoln,Alcona,Michigan,48742,04/30/2016 to 11/19/2016,Sat: 9:00 AM-12:30 PM;,,,,,,,-83.403527,44.682817,,7/7/2016 9:52
1012277,North Port Farmers Market,http://www.northportfarmersmarket.com,northportfarmersmarket,,,,4970 city hall blvd.,North Port ,Sarasota,Florida,34286,10/07/2016 to 04/28/2017,Fri: 9:00 AM-2:00 PM;,,,,,,,-82.206423,27.074732,,7/6/2016 16:01
1012278,St. Petersburg Saturday Morning Market,http://www.saturdaymorningmarket.com,https://www.facebook.com/Saturday-Morning-Market,SPSatAMMkt,,,First Street and First Avenue South,St Petersburg,Pinellas,Florida,33701,10/01/2016 to 05/27/2017,Sat: 9:00 AM-2:00 PM;,06/04/2016 to 08/27/2016,Sat: 9:00 AM-1:00 PM;,,,,,-82.631968,27.777957,,7/6/2016 16:14
1012279,Marshall Farmers Market,,Marshall Farmers Market ,,,,116 West College Drive ( parking lot),Marshall ,Lyon,Minnesota,56258,,Sat: 7:30 AM-12:00 PM;,,,,,,,-95.790891,44.445911,,7/6/2016 16:28
1012280,39 North Marketplace,http://www.39northdowntown.com,39 North ,39North Downtown,,,Downtown Sparks Victorian Ave,Sparks,Washoe,Nevada,89431,06/09/2016 to 08/18/2016,Thu: 4:00 PM-9:00 PM;,,,,,,,-119.754962,39.534773,,7/6/2016 17:19
1012282,Thursday Marin Farmers Market,http://agriculturalinstitute.org,www.facebook.com/MarinFarmersMarkets/,,,www.instagram.com/aim_farmers_markets/,Avenue of the Flags,San Rafael ,Marin,California,94903,01/01/2016 to 12/31/2016,Thu: 8:00 AM-1:00 PM;,,,,,,,-122.534713,38.000824,,7/6/2016 18:30
1012283,Painted Desert Farmer's Market,,https://www.facebook.com/PaintedDesertFarmersMarket/,,,,Hwy 160 and Hwy 264,Tuba City,Coconino,Arizona,86045,07/11/2016 to 10/03/2016,Mon: 3:30 PM-8:30 PM;,,,,,,,-111.227557,36.120033,,7/6/2016 19:03
1012285,Food Hub Fridays Farmers Market,http://www.fallonfoodhub.com/food-hub-fridays/,https://www.facebook.com/foodhubfridays/,,,,40 E Center St,Fallon,Churchill,Nevada,89406,06/03/2016 to 09/30/2016,Fri: 4:00 PM-7:00 PM;,,,,,,,-118.776097,39.473092,,7/7/2016 13:38
1012286,On the Ranch Farmers & Artisan Market,http://ontheranchmarket.com,http://facebook.com/ontheranchmarket,http://twitter.com/ontheranchnlv,http://youtube.com/Ontheranchtv,http://instagram.com/ontheranchmarket,628 W. Craig Rd,North Las Vegas,Clark,Nevada,89032,01/01/2016 to 12/31/2016,Sun: 8:00 AM-1:00 PM;,,,,,,,-115.151709,36.246614,,7/6/2016 20:16
1012287,Libby Farmer's Market,,,,,,905 W 9th St.,Libby ,Lincoln,Montana,59923,05/11/2016 to 10/06/2016,Thu: 12:00 PM-5:00 PM;,,,,,,,-115.5630777,48.3924647,,7/6/2016 21:45
1012288,Adrian Farmers Market,,,,,,115 Toledo Street,Adrian ,Lenawee,Michigan,49221,05/07/2016 to 10/29/2016,Sat: 9:00 AM-1:00 PM;,,,,,,,-84.034589,41.900169,,7/6/2016 21:49
1012289,Louisiana Community Betterment Farmer's Market,,Louisiana Community Betterment Farmers Market,,,,"Sunset Park, Georgia Street",Louisiana ,Pike,Missouri,63353,05/04/2016 to 10/26/2016,Wed: 3:00 PM-6:00 PM;,,,,,,,-91.062347,39.441483,,7/6/2016 23:14
1012290,Trout Creek Farmers Market ,http://Troutcreekfarmersmarket.com,https://m.facebook.com/Trout-Creek-Farmers-Market-487390187942809/?ref=bookmarks,,,,Trout Creek Park,Trout Creek,Sanders,Montana,59874,07/06/2016 to 09/28/2016,Wed: 4:00 PM-6:00 PM;,,,,,,,-115.587968,47.832475,,7/7/2016 0:43
1012292,Downtown Henderson Farmers Market,http://hendersonfarmersmarketnv.com,https://www.facebook.com/Henderson-Farmers-Market-Nevada-591107304365347/,,,,,Henderson ,Clark,Nevada,,01/01/2016 to 12/31/2016,Thu: 9:00 AM-4:00 PM;Fri: 9:00 AM-4:00 PM;,,,,,,,-114.9817213,36.0395247,,7/7/2016 9:20
1012293,Walker County Farmer's Market ,,https://m.facebook.com/pages/Walker-County-Farmers-Market/121903267889346,,,,1501 Airport Road ,Jasper ,Walker,Alabama,35001,05/21/2016 to 10/22/2016,Tue: 7:00 AM-12:00 PM;Thu: 7:00 AM-12:00 PM;Sat: 7:00 AM-12:00 PM;,,,,,,,-87.266542,33.867565,,7/7/2016 9:26
1012294,Elaney Wood Heritage Farmers Market,http://http//www.greene.ces.ncsu.edu,Elaney Wood Heritage Farmers Market,,,,470 Hwy 13 South,Snow Hill ,Greene,North Carolina,28580,04/02/2016 to 10/29/2016,Sat: 8:00 AM-1:00 PM;,,,,,,,-77.692573,35.456422,,7/7/2016 10:16
1012295,Westgate Farmers' Market @ Elder Beerman,http://www.toledofarmersmarket.com,Toledo Farmers Market,,,,3300 Secor Road,Toledo ,Lucas,Ohio,43606,05/18/2016 to 10/26/2016,Wed: 3:00 PM-7:00 PM;,,,,,,,-83.62351,41.680346,,7/7/2016 9:47
1012296,DeForest Area Farmers' Market,http://www.vi.deforest.wi.us/index.asp?Type=B_BASIC&SEC={38A90127-1135-4F1B-99D2-5AC8EE5AF484},https://www.facebook.com/DeFoFarmersMarket/,,,,Jefferson Street and Stevenson Street,DeForest,Dane,Wisconsin,53532,05/24/2016 to 10/26/2016,Tue: 3:00 PM-6:00 PM;,,,,,,,-89.338933,43.245438,,7/7/2016 9:55
1012297,Village Market- Slavic Village,http://slavicvillage.org/villagemarket,https://www.facebook.com/VillageMarketSlavicVillage/,,,,5106 Fleet Ave,Cleveland ,Cuyahoga,Ohio,44065,06/13/2016 to 08/29/2016,Mon: 4:00 PM-7:00 PM;,,,,,,,-81.654618,41.455556,,7/7/2016 10:36
1012298,Downtown Bedford Farmers Market,http://www.downtownbedford.com,https://www.facebook.com/DowntownBedford/?fref=ts,,,,124 South Juliana Street,Bedford,Bedford,Pennsylvania,15522,05/18/2016 to 10/26/2016,Wed: 9:00 AM-1:00 PM;,,,,,,,-78.503873,40.018113,,7/7/2016 10:17
1012300,Hudsonville Farmers Market & Crafts,http://www.fcelevator.com/index.cfm?show=10&mid=16,https://www.facebook.com/Hudsonville-Farmers-Market-Crafts-131002943577800/,,,,3302 Prospect Street,Hudsonville,Ottawa,Michigan,49426,06/01/2016 to 10/05/2016,Wed: 8:00 AM-2:00 PM;,,,,,,,-85.864407,42.867745,,7/7/2016 10:42
1012301,Douglas Farmers Market,http://www.douglasfarmersmarket.org,https://www.facebook.com/douglasfarmers/?fref=ts,,,https://www.pinterest.com/dfmdouglas/pins/follow/?guid=sBaF_fjNueeh,283 Main Street,Douglas,Worcester,Massachusetts,MA,06/18/2016 to 10/01/2016,Sat: 9:00 AM-12:00 PM;,,,,,,,-71.7136899,42.0721862,,7/7/2016 10:46
1012303,"Deer Lodge Community Garden ""U Pick""  Farmers Market",,Deeer Lodge Community Garden,,,,519 Higgins ,Deer Lodge ,Powell,Montana,59722,08/13/2016 to 09/17/2016,Sat: 9:00 AM-12:00 PM;,,,,,,,-112.7313469,46.4023382,,7/7/2016 11:44
1012304,Red Lodge Farmers' Market ,http://redlodgefarmersmarket.org,https://www.facebook.com/redlodgefarmersmarket/?fref=ts,,,,Lions Park ,Red Lodge ,Carbon,Montana,59068,06/24/2016 to 09/30/2016,Fri: 3:30 PM-6:00 PM;,,,,,,,-109.248157,45.190151,,7/7/2016 11:42
1012307,The Market Square Farmers' Market,http://marketsquarefarmersmarket.org/,https://www.facebook.com/marketsquarefarmersmarket/,https://twitter.com/mktsqfarmersmkt,,https://www.instagram.com/marketsquarefarmersmarket/,Market Square,Knoxville,Knox,Tennessee,37902,05/04/2016 to 11/19/2016,Wed: 11:00 AM-2:00 PM;Sat: 9:00 AM-2:00 PM;,,,,,,,-83.9193932,35.9646521,,7/7/2016 12:11
1012308,Festival Farmers Market,,,,,,942 Main Street, Cobleskill,Schoharie,New York,12043,07/09/2016 to 10/08/2016,Wed: 3:00 PM-5:00 PM;Sat: 10:00 AM-2:00 PM;,,,,,,,-74.4669868,42.6792512,,7/7/2016 12:01
1012309,Cornville Farmer's Market,http://cornvilleaz.org,,,,,,Cornville,Yavapai,Arizona,86325,05/16/2016 to 10/10/2016,Mon: 4:00 PM-7:00 PM;,,,,,,,-111.918668,34.718187,,7/7/2016 12:12
1012310,UT Farmers Market,http://vegetables.tennessee.edu/utfm.html,https://www.facebook.com/UT-Farmers-Market-197864066906773/,,,https://www.instagram.com/utfarmersmarket/,2518 Jacob Drive,"Knoxville, TN",Knox,Tennessee,37996,05/11/2016 to 10/19/2016,Wed: 4:00 PM-7:00 PM;,,,,,,,-83.9384194,35.9449944,,7/7/2016 12:18
1012311,Goodell Gardens Farmers Market,http://www.goodellgardens.org,www.facebook.com/goodellgardensandhomestead,www.twitter.com/goodellgardens,,www.instagram.com/goodellgardens,221 Waterford Street,Edinboro,Erie,Pennsylvania,16412,06/22/2016 to 09/28/2016,Wed: 3:00 PM-6:00 PM;,,,,,,,-80.1230603,41.8769872,,7/7/2016 12:33
1012313,Ennis Farmer's Market,http://www.madisonfarmtofork.com,https://www.facebook.com/ennismontanafarmersmarket/,,,https://www.instagram.com/ennisfarmers/,S Charles Street and Hwy 287 S,Ennis,Madison,Montana,59729,06/01/2016 to 09/07/2016,Mon: 4:30 PM-6:30 PM;,,,,,,,-111.7336261,45.3490793,,7/7/2016 13:27
1012314,Monore Farmers Market on the Square,http://www.mainstreetmonroe.org,Monroe Farmers Market on the Square,,,,10th St and 16th Ave,Monroe,Green,Wisconsin,53566,05/04/2016 to 10/22/2016,Wed: 1:00 PM-5:30 PM;Sat: 8:00 AM-1:00 PM;,11/19/2016 to 04/15/2017,Sat: 9:00 AM-2:00 PM;,,,,,-89.6398886,42.6021262,,7/7/2016 14:16
1012315,Eureka Area Farmers Market,http://eurekamontana.org,eureka farmers market,,,,Riverside Park,Eureka ,Lincoln,Montana,59917,05/04/2016 to 09/14/2016,Wed: 4:00 PM-6:00 PM;,,,,,,,-115.053403,48.8777197,,7/7/2016 14:25
1012316,Springdale Farmers' Market,http://springdalefarmersmarket.org,none,none,none,none,,Springdale 72764,Washington,Arkansas,72764,05/01/2016 to 11/01/2016,Tue: 7:00 AM-1:00 PM;Thu: 7:00 AM-1:00 PM;Sat: 7:00 AM-1:00 PM;,,,,,,,-94.126811,36.184207,,7/7/2016 14:33
1012317,Painted Post Farmers' Marker -Summer,,https://facebook.com/PaintedPostFarmersMarket,,,,277 Steuben St,Painted Post,Steuben,New York,14870,06/04/2016 to 10/29/2016,Sat: 10:00 AM-2:00 PM;,,,,,,,-77.092384,42.163762,,7/7/2016 15:15
1012318,Ligonier Country Market,http://www.ligoniercountrymarket.org,https://www.facebook.com/LigonierCountryMarket,,,,Corner of Springer Road and West Main Street,Ligonier,Westmoreland,Pennsylvania,15658,05/21/2016 to 10/01/2016,Sat: 8:00 AM-12:00 PM;,,,,,,,-79.2467929,40.2488972,,7/7/2016 15:35
1012320,Bradenton Farmers' Market,http://www.realizebradenton.com/farmers_market,https://www.facebook.com/bradentonfarmersmarket/,,,,300 Old Main Street,Bradenton ,Manatee,Florida,34205,10/01/2016 to 05/27/2017,Sat: 9:00 AM-2:00 PM;,,,,,,,-82.57345,27.497223,,7/7/2016 16:12
1012321,Santa Monica Farmers Market - Sunday Main Street,http://www.farmersmarket.smgov.net,santa monica farmers markets,smfms,City of Santa Monica Farmers Markets,Instagram:  SMFMs,2640 Main Street,Santa Monica,Los Angeles,California,90405,01/01/2016 to 12/31/2016,Sun: 8:30 AM-1:30 PM;,,,,,,,-118.483333,34.0014563,,7/7/2016 16:07
1012323,Downtown Bloomington Association Farmers Market,http://downtownbloomington.org/farmers-market/,https://www.facebook.com/DBAFarmersMarket/,DBFarmersMarket,,,200 N. Main Street,Bloomington,McLean,Illinois,61701,05/07/2016 to 10/29/2016,Sat: 7:30 AM-12:00 PM;,,,,,,,-88.9941015,40.4800126,,7/7/2016 16:17
1012324,Woodstock Farmers Market,http://www.woodstockmarketpdx.com,https://www.facebook.com/woodstockmarketpdx/,https://twitter.com/woodstockfarmer,,,4600 SE Woodstock Blvd,Portland,Multnomah,Oregon,97206,06/05/2016 to 10/30/2016,Sun: 10:00 AM-2:00 PM;,,,,,,,-122.6149508,45.4789791,,7/7/2016 16:13
1012325,Vashon Farmers Market - Saturday,http://www.vigavashon.org,www.facebook.com/vashonfarmersmarket,,,,17519 Vashon Highway SW,Vashon,King,Washington,98070,04/02/2016 to 12/10/2016,Sat: 10:00 AM-2:00 PM;,,,,,,,-122.460747,47.447834,,7/7/2016 16:18
1012326,Farmer's Market at Sandpoint,http://farmersmarketatsandpoint.com,Farmers Market at Sandpoint,,,,"Farmin Park, Oak & 3rd & 4th St.",Sandpoint,Bonner,Idaho,83864,,Wed: 3:00 PM-5:30 PM;Sat: 9:00 AM-1:00 PM;,,,,,,,-116.606641,48.2501658,,7/7/2016 16:19
1012327,South Points Farmers Market,,,,,,4148 Taylor Blvd,Louisville/Jefferson County metro government (balance),Jefferson,Kentucky,40215,,Sun: 11:00 AM-3:00 PM;,,,,,,,-85.784554,38.181518,,7/7/2016 16:24
1012328,Brown Deer Farmers Market,http://www.browndeerfarmersmarket.org/,@BrownDeerFarmersMarket,,,,9078 N. Green Bay Road,Brown Deer,Milwaukee,Wisconsin,53223,06/15/2016 to 10/26/2016,Wed: 9:00 AM-6:00 PM;,,,,,,,-87.961935,43.181343,,7/7/2016 16:22
1012329,Vashon Farmers Market - Wednesday,http://vigavashon.org/farmers-market/,www.facebook.com/vashonfarmersmarket,,,,17519 Vashon Highway SW,Vashon,King,Washington,98070,06/01/2016 to 09/07/2016,Wed: 3:00 PM-6:00 PM;,,,,,,,-122.460661,47.447823,,7/7/2016 16:22
1012330,Kelso Bridge Market,,Kelso Bridge Market,,,,351 Three Rivers Mall Drive,Kelso ,Cowlitz,Washington,98626,05/01/2016 to 08/28/2016,Sun: 10:00 AM-3:00 PM;,,,,,,,-122.877161,46.127435,,7/7/2016 16:30
1012331,Downtown Bloomington Farmers Market- Indoor,http://www.downtownbloomington.org/farmers-market/,DBAFarmersMarket,DBFarmersMarket,,,101 S. Madison St.,Bloomington ,McLean,Illinois,61701,11/19/2016 to 04/15/2017,Sat: 10:00 AM-12:00 PM;,,,,,,,-88.9964823,40.4780683,,7/7/2016 16:44
1012332,Ellington Farmers Market,,https://www.facebook.com/ellingtonfarmersmarket/,https://twitter.com/EllingtonFM,https://www.youtube.com/results?search_query=ellington+farmers+market,https://www.instagram.com/ellingtonfm/,"Arbor Park, Main ST",Ellington,Tolland,Connecticut,6029,05/07/2016 to 10/22/2016,Sat: 9:00 AM-12:00 PM;,,,,,,,-72.4652021,41.9032806,,7/7/2016 16:42
1012333,Dogtown Farmers Market,http://dogtownfarmersmarket.com,dogtownfarmersmarketNLR,,,,410 Main Street,North Little Rock ,Pulaski,Arkansas,72114,04/23/2016 to 10/22/2016,Sat: 7:00 AM-12:00 PM;,,,,,,,-92.267351,34.757408,,7/7/2016 16:52
1012334,Santa Monica Farmers Market - Saturday Downtown,http://www.smgov.net/portals/farmersmarket,Santa Monica Farmers Market,@smfms,,Instagram @smfms,2nd Street & Arizona Avenue,Santa Monica,Los Angeles,California,90405,01/01/2016 to 12/31/2016,,,,,,,,-118.4986283,34.0162113,,7/7/2016 17:14
1012335,Boulder Farmers Market ,http://www.bcfm.org,www.facebook.com/Boulder-Farmers-Market-512016698971120,www.twitter.com/bldrfarmersmkt,,www.instagram.com/boulderfarmersmarket,Canyon Boulevard and 13th Street ,Boulder,Boulder,Colorado,80302,04/02/2016 to 11/19/2016,Sat: 8:00 AM-2:00 PM;,05/04/2016 to 10/05/2016,Wed: 4:00 PM-8:00 PM;,,,,,-105.277638,40.015245,,7/7/2016 17:32
1012337,Gresham Saturday Market at MHCC,http://greshamsaturdaymarket.com,Gresham Saturday Market,twitter.com/gatmarket,,,,Gresham,Multnomah,Oregon,97030,04/16/2016 to 09/24/2016,Sat: 9:00 AM-3:00 PM;,,,,,,,-122.397929,45.518722,,7/7/2016 18:42
1012338,Watseka Farmers Market,http://watsekafarmersmarket.com,,,,,Rt 1 and 24,Watseka ,Iroquois,Illinois,60970,,Sat: 7:00 AM-12:00 PM;,,,,,,,-87.7344139,40.7762868,,7/7/2016 20:30
1012339,Paramount City Farmers' Market,http://Socalfarmersmarkets.net,www.facebook.com/paramountfarmersmarket,,,www.instagram.com/socalfarmersmarkets,15500 Downey Ave. ,Paramount ,Los Angeles,California,90723,01/01/2016 to 12/31/2016,Fri: 9:30 AM-1:30 PM;,,,,,,,-118.151223,33.891775,,7/7/2016 21:17
1012340,Lakewood Center Farmers' Market,http://Socalfarmersmarkets.net,www.facebook.com/lakewoodcenterfarmersmarket,,,www.instagram.com/socalfarmersmarkets,500 Lakewood Blvd,Lakewood ,Los Angeles,California,90712,01/01/2016 to 12/31/2016,Sat: 8:00 AM-12:30 PM;,,,,,,,-118.14222,33.852829,,7/7/2016 21:23
1012341,Farmers Market Place LLC,,www.facebook/farmersmarketplacellc,,,,1301 18th Ave NW,Austin,Mower,Minnesota,55912,05/19/2016 to 10/31/2016,Mon: 4:00 PM-6:00 PM;Thu: 4:00 PM-6:00 PM;Sat: 9:00 AM-12:00 PM;,,,,,,,-92.989549,43.682951,,7/7/2016 21:49
1012342,31 & Main Farmers Market at Campus Town,http://www.31mainfarmersmarket.com/,https://www.facebook.com/31mainfarmersmarket/,https://twitter.com/31MainFarmMarkt,,https://instagram.com/31MainFarmersMarket,1928 Pennington Road,Ewing,Mercer,New Jersey,8618,06/12/2016 to 10/30/2016,Sun: 10:00 AM-2:00 PM;,,,,,,,-74.783264,40.267025,,7/7/2016 22:12
1012343,Green Fork Farmers Market ,http://Greenforkfarmersmarket.locallygrown.net ,@greenforkfarmersmarket,,,,205 W. Dickson St. ,Fayetteville,Washington,Arkansas,72701,01/01/2016 to 12/31/2016,,,,,,,,-94.161898,36.065937,,7/7/2016 23:37
1012344,Latham Farmers Market,http://Lathamfarmersmarket.org,Latham Farmers Market,,,Instagram ,109 Weatherly Road,Huntsville ,Madison,Alabama,35803,05/03/2016 to 09/27/2016,,,,,,,,-86.5645725,34.6471516,,7/7/2016 23:49
1012345,Duvall Farmers Market,http://duvallfarmersmarket.org,http://www.facebook.com/pages/Duvall-Farmers-Market/141032938155,,,,Brown Ave,Duvall,King,Washington,98019,05/05/2016 to 10/13/2016,Thu: 3:00 PM-7:00 PM;,,,,,,,-121.985974,47.7382671,,7/8/2016 0:21
1012346,Keauhou Farmers Market,http://www.konacountyfarmbureau.org,https://www.facebook.com/KeauhouFarmersMarket/,,,,"78-6831 Alii Dr, Kailua-Kona, HI 96740",Kahaluu-Keauhou ,Hawaii,Hawaii,96740,01/01/2016 to 12/31/2016,Sat: 8:00 AM-12:00 PM;,,,,,,,-155.961611,19.570129,,7/8/2016 2:55
1012347,Wyandotte Farmers Market,http://wyandottefarmersmarket.com,wyandotte farmers market,,,,corner of First Street and Elm Street,Wyandotte ,Wayne,Michigan,48192,06/02/2016 to 10/20/2016,Thu: 12:00 PM-6:30 PM;,,,,,,,-83.1500042,42.2031602,,7/8/2016 6:47
1012348,Manitou Community Market,http://www.manitoucommunitymarket.org,Facebook at Manitou Community Market ,,,,,Manitou Springs,El Paso,Colorado,80829,07/07/2016 to 10/06/2016,Thu: 3:00 PM-7:00 PM;,,,,,,,-104.912813,38.858322,,7/8/2016 8:51
1012349,Fresh Marketplace @ New Wilmington Center,,,,,,129 Chestnut Street,New Wilmington,Lawrence,Pennsylvania,16142,05/19/2016 to 09/29/2016,Thu: 4:00 PM-7:00 PM;,,,,,,,-80.3321924,41.1216065,,7/8/2016 9:47
1012351,St. Joseph Farmers Market,http://www.stjosephfarmersmarket.com/,https://www.facebook.com/stjosephfarmersmarket/?fref=ts,,,,"610 N. Co. Rd. 2, St. Joseph, MN",St. Joseph,Stearns,Minnesota,56374,05/13/2016 to 09/09/2016,Fri: 3:00 PM-6:30 PM;,09/16/2016 to ,Fri: 3:00 PM-7:00 PM;,09/23/2016 to 10/21/2016,Fri: 3:00 PM-6:00 PM;,,,-94.317981,45.570734,,7/8/2016 9:59
1012353,Seymour Area Farmers Market,,https://www.facebook.com/Seymour-Area-Farmers-Market-220617751321790/,@SeymourFarmMkt,,Instagram:  @seymourfarmmarket,Walnut St and Saint Louis Ave.,Seymour,Jackson,Indiana,47274,05/28/2016 to 10/29/2016,Wed: 4:00 PM-6:00 PM;Sat: 8:00 AM-1:00 PM;,,,,,,,-85.8914498,38.9578388,,7/8/2016 11:37
1012355,GPS Farmers Market,http://www.GPSFaith.com,GPS Farmers Market,,,GPSMarket (instagram),10714 N. 2nd Street,Machesney Park,Winnebago,Illinois,61111,05/26/2016 to 09/22/2016,Thu: 3:00 PM-7:00 PM;,,,,,,,-89.031468,42.373537,,7/8/2016 11:42
1012356,Riverside Arts Market,http://riversideartsmarket.com,Riverside Arts Market ,RiversideArtsMarket@RAMJacksonville,,,715 Riverside Avenue,Jacksonville,Duval,Florida,32204,01/01/2016 to 12/31/2016,Sat: 10:00 AM-4:00 PM;,,,,,,,-81.676293,30.316698,,7/8/2016 12:01
1012357,The Indian Shores Sunday Morning Market,http://www.TheBeachMarkets.com,https://www.facebook.com/IndianShoresSundayMarket/,,,,19305 Gulf Blvd,Indian Shores,Pinellas,Florida,33785,10/02/2016 to 05/21/2017,Sun: 9:00 AM-1:00 PM;,,,,,,,-82.8424617,27.8479082,,7/8/2016 11:56
1012358,Woodlawn Farmers Market,http://woodlawnfarmersmarket.org,www.facebook.com/woodlawnneighborhoodfarmersmarket,,,,NE Dekum St and 8th Ave,Portland ,Multnomah,Oregon,97211,05/21/2016 to 10/29/2016,Sat: 10:00 AM-2:00 PM;,,,,,,,-122.656921,45.571898,,7/8/2016 12:08
1012359,Glendale Farmers Market,http://www.glendalefarmersmarket.org,Glendale Farmers Market,Glendale Farmers Market ,,,7102 N. 58th. Drive,Glendale ,Maricopa,Arizona,85301,10/08/2016 to 12/17/2016,Sat: 8:00 AM-12:00 PM;,,,,,,,-112.1850511,33.5402042,,10/25/2016 13:44
1012362,Seacoast Eat Local Winter Farmers' Market - Exeter High School,http://www.seacoasteatlocal.org,facebook.com/seacoasteatlocal,@SeacoastEatLocl,,,1 Blue Hawk Drive ,Exeter,Rockingham,New Hampshire,3833,11/19/2016 to 04/08/2017,Sat: 10:00 AM-2:00 PM;,,,,,,,-71.0003126,43.0168516,,7/8/2016 13:52
1012363,Seacoast Eat Local Winter Farmers' Market - Wentworth Greenhouses ,http://seacoasteatlocal.org,facebook.com/seacoasteatlocal,@SeacoastEatLocl,,,141 Rollins Road,Rollinsford,Strafford,New Hampshire,3869,11/19/2016 to 04/08/2017,Sat: 10:00 AM-2:00 PM;,,,,,,,-70.8601023,43.2155618,,7/8/2016 13:53
1012364,Missoula Farmers Market,http://Missoulafarmersmarket.com,Missoulafarmersmarket,,,,Higgins and Alder,Missoula,Missoula,Montana,59801,05/07/2016 to 10/29/2016,Tue: 5:30 PM-7:00 PM;Sat: 8:00 AM-12:30 PM;,,,,,,,-113.9922681,46.8750586,,7/8/2016 14:05
1012365,Crossroads Farmers Market,https://www.crossroadscommunityfoodnetwork.org/farmers-market/,https://www.facebook.com/CrossroadsFarmersMarket/,@CrossroadsNtwk,https://www.youtube.com/channel/UCm23V5zJ2FZV7vC57i8OASQ,Instagram: @CrossroadsNtwk,Anne St. at University Blvd. E,Takoma Park,Montgomery,Maryland,20912,06/01/2016 to 11/16/2016,Wed: 11:00 AM-3:00 PM;,,,,,,,-76.990169,38.990479,,7/8/2016 14:31
1012366,Ponce City Farmers Market on the BeltLine ,http://cfmatl.org/poncecity/,https://www.facebook.com/pcfmbeltline/,,,,675 Ponce de Leon Avenue,Atlanta,DeKalb,Georgia,30308,05/03/2016 to 12/20/2016,Tue: 4:00 PM-8:00 PM;,,,,,,,-84.364596,33.772429,,7/8/2016 15:16
1012367,Laurel Downtown Farmers Market,http://laurelmontana.org/laurel-downtown-farmers-market/,,,,,Town Square,Laurel,Yellowstone,Montana,59044,07/20/2016 to 09/28/2016,Wed: 4:00 PM-6:30 PM;,,,,,,,-108.771149,45.671003,,7/8/2016 14:59
1012368,Spencerville OH Farmers Market,,https://www.facebook.com/SpencervilleFarmersMarket/,,,,St Rt 66 and 3rd St,Spencerville,Allen,Ohio,45887,07/14/2016 to 10/27/2016,Thu: 4:30 PM-7:30 PM;,,,,,,,-84.3540645,40.7076022,,7/8/2016 16:02
1012369,El Mercadito de Centro,http://www.micentro.org/centros-farmers-market--el-mercadito-de-centro.html,https://www.facebook.com/centro.hispano.5,,,,810 Badger rd.,Madison ,Dane,Wisconsin,53713,06/07/2016 to 10/25/2016,Tue: 9:00 AM-1:00 PM;,,,,,,,-89.395424,43.038611,,7/8/2016 17:38
1012372,YourFarmer2U Georgetown,http://www.yourfarmer2u.com,www.facebook.com/YourFarmer2U,,,www.instagram.com/yourfarmer2u,5th & Austin Ave,Georgetown,Williamson,Texas,78626,01/01/2016 to 12/31/2016,Thu: 3:00 PM-6:00 PM;,,,,,,,-97.6780832,30.6391672,,7/9/2016 10:32
1012373,Columbia Falls Community Market,http://cfcommunitymarket.com,https://www.facebook.com/columbiafallscommunitymarket/?fref=ts,,,,830 1st Ave West,Columbia Falls,Flathead,Montana,59912,05/19/2016 to 09/22/2016,Thu: 5:00 PM-8:00 PM;,,,,,,,-114.182752,48.371012,,7/9/2016 12:15
1012374,Arcadia's Mobile Market -- The Overlook at Oxon Run,http://arcadiafood.org/programs/mobile-market,,,https://www.youtube.com/user/ArcadiaFoodTV,,3700 9th St SE ,Washington ,District of Columbia,District of Columbia,20032,05/03/2016 to 11/29/2016,Tue: 4:00 PM-6:00 PM;,,,,,,,-76.9940286,38.8358959,,7/12/2016 11:36
1012375,Arcadia's Mobile Market -- Community of Hope - Conway Health and Resource Center,http://arcadiafood.org/programs/mobile-market,,,https://www.youtube.com/user/ArcadiaFoodTV,,115 Atlantic Street SW ,Washington ,District of Columbia,District of Columbia,20032,05/31/2016 to 10/25/2016,Tue: 3:00 PM-6:00 PM;,,,,,,,-77.0093913,38.8312359,,7/12/2016 11:37
1012377,Arcadia's Mobile Market -- Wah Luck House Chinatown,http://arcadiafood.org/programs/mobile-market,,,https://www.youtube.com/user/ArcadiaFoodTV,,800 6th St NW ,Washington,District of Columbia,District of Columbia,20001,06/01/2016 to 10/26/2016,Wed: 10:00 AM-12:00 PM;,,,,,,,-77.0201911,38.9002248,,7/12/2016 11:39
1012378,Western Springs French Market,http://www.bensidounmidwestmarkets.com/,facebook.com/WesternSpringsFrenchMarket,https://twitter.com/BensidounMarket,,https://www.instagram.com/bensidounfrenchmarket/,Hillgrove Ave. between Lawn and Grand Ave ,Western Springs,DuPage,Illinois,,05/05/2016 to 10/27/2016,Thu: 2:00 PM-7:00 PM;,,,,,,,-87.900894,41.809762,,7/9/2016 16:46
1012379,Chicago-Nettelhorst French Market,http://www.bensidounmidwestmarkets.com/,facebook.com/Nettelhorstfrenchmarket,https://twitter.com/BensidounMarket,,https://www.instagram.com/bensidounfrenchmarket/,"Nettelhorst School, Broadway and Melrose ",Chicago ,Cook,Illinois,,04/23/2016 to 11/05/2016,Sat: 8:00 AM-2:00 PM;,,,,,,,-87.644568,41.941208,,7/9/2016 16:56
1012380,Zion Canyon Farmers Market,http://zionharvest.org,https://www.facebook.com/ZionCanyonFarmersMarket/,,,,1212 Zion Park Blvd.,Springdale,Washington,Utah,84767,05/07/2016 to 10/15/2016,Sat: 9:00 AM-12:00 PM;,,,,,,,-113.004938,37.181501,,7/9/2016 17:00
1012381,Glencoe French Market,http://www.bensidounmidwestmarkets.com/,facebook.com/GlencoeFrenchMarket,https://twitter.com/BensidounMarket,,https://www.instagram.com/bensidounfrenchmarket/,Wyman Green/ Village Court,Glencoe,Cook,Illinois,,06/11/2016 to 09/03/2016,Sat: 8:00 AM-1:00 PM;,,,,,,,-87.7583639,42.1339522,,7/9/2016 17:08
1012382,Randolph County Farmers' Market,,Randolph County Farmers' Market,,,,210 McDonald Street,Pocahontas,Randolph,Arkansas,72455,,Wed: 7:00 AM-;Sat: 7:00 AM-;,,,,,,,-90.968122,36.261149,,7/9/2016 21:00
1012383,East Hampton Farmers Market LLC,,East Hampton Farmers Market LLC,,,,136 North Main Street,East Hampton ,Suffolk,New York,11963,05/27/2016 to 09/02/2016,Fri: 9:00 AM-1:00 PM;,,,,,,,-72.180675,40.972416,,7/10/2016 8:46
1012384,West Bloomfield Farmers Market,,https://www.facebook.com/WBFMarket/?view_public_for=922164297818450,,,https://www.pinterest.com/WBFarmMarket/,9035 U.S. Rt. 5,West Bloomfield,Ontario,New York,14585,06/10/2016 to 10/14/2016,Fri: 3:00 PM-7:00 PM;,,,,,,,-77.538264,42.905331,,8/13/2016 15:13
1012386,Braintree Farmers Market,http://www.braintreefarmersmarket.org,https://www.facebook.com/braintreefarmersmarket,,,,1 JFK Memorial Dr.,Braintree,Norfolk,Massachusetts,2184,06/18/2016 to 11/19/2016,Sat: 9:00 AM-1:00 PM;,,,,,,,-71.004909,42.206476,,7/10/2016 14:59
1012387,Saratoga Farmers' Market - Winter Market,http://www.saratogafarmersmarket.org,https://www.facebook.com/SaratogaFarmersMarket/,@SaratogaMarket,,Instagram #saratogafarmersmarket,"65 South Broadway, Saratoga Spa State Park",Saratoga Springs ,Saratoga,New York,12866,11/05/2016 to 04/29/2017,Sat: 9:00 AM-1:00 PM;,,,,,,,-73.790038,43.064686,,7/10/2016 16:35
1012388,Princeton Farmers and Artisans Market,,Princeton Farmers and Artisans Market,,,,67 West Street,Princeton,Washington,Maine,4668,06/02/2016 to 09/29/2016,Thu: 3:00 PM-5:00 PM;,,,,,,,-67.57199,45.22101,,7/10/2016 17:22
1012389,Aloha Community Farmers' Market,http://www.alohacommunityfarmersmarket.org,https://www.facebook.com/Aloha-Community-Farmers-Market-913645008655691/,@AlohaFarmMarket,,Instagram: Aloha Community Farmers' Market,17675 SW Farmington Rd and SW Kinnaman Rd,Aloha,Washington,Oregon,97007,05/05/2016 to 09/29/2016,Thu: 3:00 PM-7:30 PM;,,,,,,,-122.860524,45.482127,,7/10/2016 20:41
1012390,Downtown Waxahachie Farmers Market,http://www.waxahachie.com/Departments/DowntownDevelopment/DowntownFarmersMarket,https://www.facebook.com/DowntownWaxahachieFarmersMarket/?ref=bookmarks,,,,410 S. Rogers,Waxahachie ,Ellis,Texas,75165,04/16/2016 to 10/29/2016,Sat: 8:00 AM-1:00 PM;,,,,,,,-96.8501028,32.3832651,,7/10/2016 20:43
1012391,Shepherdstown Farmers Market I,,https://www.facebook.com/ShepherdstownFarmersMarket/?ref=bookmarks,,,,S. King St.,Shepherdstown,Jefferson,West Virginia,25443,03/27/2016 to ,Sun: 9:00 AM-1:00 PM;,,,,,,,-77.806025,39.430504,,7/11/2016 6:36
1012392,Orland Park Farmers Market,http://www.orlandpark.org/specialevents,Orland Park Recreation,Orland Park Fun,,,14700 S. Ravinia Ave,Orland Park,Cook,Illinois,60462,06/03/2016 to 09/16/2016,Fri: 8:00 AM-1:00 PM;,,,,,,,-87.857976,41.622489,,7/11/2016 8:14
1012393,Cherokee County Farmers Market,,,,,,,Centre ,Cherokee,Alabama,,06/16/2016 to 10/07/2016,Mon: 4:00 PM-6:00 PM;Thu: 7:00 AM-10:00 AM;,,,,,,,-85.670173,34.156258,,7/11/2016 8:41
1012395,Grangeville Farmers Market,,https://m.facebook.com/groups/128365537173880?ref=bookmarks,,,,Main Street,Grangeville ,Idaho,Idaho,83530,07/11/2016 to 09/24/2016,Thu: 6:00 PM-8:00 PM;Sat: 9:00 AM-1:00 PM;,,,,,,,-116.1146234,45.9245613,,7/11/2016 9:01
1012396,Middletown Farmers' Market,http://www.middletownmdfarmersmarket.com,http://www.facebook.com/middletownmdfarmersmarket,http://www.twitter.com/mtownfarmersmkt,,,12 S Church Street,Middletown,Frederick,Maryland,21769,05/05/2016 to 10/13/2016,Thu: 4:00 PM-7:00 PM;,,,,,,,-77.544774,39.441694,,8/8/2016 15:05
1012398,Mill City Grows Mobile Market,http://www.millcitygrows.org,www.facebook.com/MCGMobileMarket,twitter.com/MCG_MMKT,,,,Lowell ,Middlesex,Massachusetts,1851,06/22/2016 to 11/04/2016,Wed: 10:00 AM-6:30 PM;Thu: 10:00 AM-6:30 PM;Fri: 10:00 AM-6:00 PM;,01/01/2016 to 12/31/2016,Sun: 11:00 AM-3:00 PM;,,,,,-71.3161718,42.6334247,,7/11/2016 9:22
1012399,"Caswell County Local Foods Council ""Caswell Farmers Market""",http://www.CaswellLocalFoods.org,www.facebook.com/CaswellLocalFoods/,www.twitter.com/eatwellcaswell,,www.instagram.com/localfoodincaswell,4807 NC Hwy 57 N,Semora,Caswell,North Carolina,27344,04/16/2016 to 09/17/2016,Sat: 4:00 PM-7:00 PM;,,,,,,,-79.152655,36.4993399,,7/11/2016 9:29
1012402,"Utopia Farmers Market, LLC",,https://www.facebook.com/utopiafarmandstable/?ref=aymt_homepage_panel#,,,,133 North Hendrix Street,Batesburg-Leesville,Lexington,South Carolina,29070,06/01/2016 to 10/01/2016,Sat: 9:00 AM-1:00 PM;,03/01/2017 to 04/01/2017,Sat: 9:00 AM-1:00 PM;,05/01/2016 to 11/01/2016,Sat: 9:00 AM-1:00 PM;,,,-81.524422,33.913762,,7/11/2016 9:57
1012403,Branford Alps Farmers Market,http://alpsmkt.org/,https://m.facebook.com/BranfordAlpsFarmersMarket/,,,,17 Alps Road,Branford,New Haven,Connecticut,6405,06/23/2016 to 10/27/2016,Thu: 4:00 PM-7:00 PM;,,,,,,,-72.833736,41.273756,,7/11/2016 9:53
1012404,Port Orchard Farmers Market,http://pofarmersmarket.org ,https://www.facebook.com/PortOrchardFarmersMarket/,,,,Harrison Ave & Bay St,Port Orchard ,Kitsap,Washington,98366,04/16/2016 to 10/15/2016,Sat: 9:00 AM-3:00 PM;,,,,,,,-122.634025,47.542163,,7/11/2016 9:57
1012405,Tewksbury Farmer's Market on the Common,,Tewksbury Farmer's Market,Tewksbury Farmer's Market,,,1009 Main Street,Tewksbury ,Middlesex,Massachusetts,1876,,Tue: 3:00 PM-7:00 PM;,,,,,,,-71.2342732,42.611902,,7/11/2016 9:58
1012407,East Boston Farmers Market,http://www.ebnhc.org/en/food-access/farmers-market.html,https://www.facebook.com/EastBostonFarmersMarket?fref=ts,,,instagram.com/eastbostonfarmersmarket,209 Sumner Street,East Boston,Suffolk,Massachusetts,2128,07/06/2016 to 10/19/2016,Wed: 3:00 PM-6:30 PM;,,,,,,,-71.039821,42.368747,,7/11/2016 10:01
1012408,london-Laurel County Farmers Market,http://Londonlaurelfarmersmarket.com,@LondonLaurelCountyFarmersMarket,@laurelcofarmers,,,Main Street and Dixie Street,London,Laurel,Kentucky,40741,05/07/2016 to 10/27/2016,Tue: 4:00 PM-8:00 PM;Thu: 4:00 PM-8:00 PM;Sat: 8:00 AM-12:00 PM;,,,,,,,-84.081006,37.125662,,7/11/2016 10:07
1012409,The Grainery Farmers & Artisans Market,https://www.facebook.com/AceFarmersMarket/?fref=ts,,,,,755 Route 16,Ossipee,Carroll,New Hampshire,3864,01/01/2016 to 12/31/2016,Sat: 9:00 AM-2:00 PM;,11/01/2016 to 03/31/2017,Sat: 10:00 AM-2:00 PM;,,,,,-71.097186,43.690218,,7/11/2016 11:06
1012410,Arcadia's Mobile Market -- Children's National Medical Center WIC Clinic,http://arcadiafood.org/programs/mobile-market,,,https://www.youtube.com/user/ArcadiaFoodTV,,111 Michigan Ave NW ,Washington ,District of Columbia,District of Columbia,20010,05/04/2016 to 11/30/2016,Wed: 12:00 PM-2:00 PM;,,,,,,,-77.0146728,38.9271809,,7/12/2016 11:51
1012411,Rock Hill Farmers Market,http://www.rockhillfarmersmarket.com,www.facebook.com/rhfarmersmarket,,,,223 Rock Hill Drive,Rock Hill ,Sullivan,New York,12775,,Sat: 10:00 AM-1:00 PM;,,,,,,,-74.5964929,41.6252146,,7/11/2016 10:35
1012412,Historic Valley Junction Farmers Market,http://www.valleyjunction.com,www.facebook.com/valleyjunctionfarmersmarket,,,,137 5th Street,West Des Moines,Polk,Iowa,50265,05/05/2016 to 09/29/2016,Thu: 4:00 PM-8:00 PM;,,,,,,,-93.7086734,41.5708135,,7/11/2016 10:41
1012413,Arcadia's Mobile Market -- Hendley Elementary ,http://arcadiafood.org/programs/mobile-market,,,https://www.youtube.com/user/ArcadiaFoodTV,,425 Chesapeake St SE,Washington,District of Columbia,District of Columbia,20032,06/01/2016 to 10/26/2016,Wed: 3:00 PM-6:00 PM;,,,,,,,-76.9991386,38.8286428,,7/12/2016 11:52
1012414,Kedron Farmers Market ,,Facebook.com/kedronfarmersmarket,Twitter.com/@kedronfarmers,,Instagram.com/kedronfarmersmarket ,6001 Hwy. 48 N,Dickson ,Hickman,Tennessee,37055,06/01/2016 to 09/28/2016,Wed: 3:30 PM-6:30 PM;,,,,,,,-87.4769689,35.943622,,7/22/2016 9:32
1012415,Community Farmers Market Bowling Green,http://www.communityfarmersmarketbg.com/,https://www.facebook.com/Community-Farmers-Market-Bowling-Green-143986732333279/,https://twitter.com/CommunityFarmer/,,https://www.instagram.com/cfmbgky/,2319 Nashville Rd,Bowling Green,Warren,Kentucky,42101,01/01/2016 to 12/31/2016,Tue: 2:00 PM-6:00 PM;Sat: 8:00 AM-1:00 PM;,,,,,,,-86.4658499,36.9657743,,7/11/2016 11:09
1012417,Minnetonka Farmers Market,http://eminnetonka.com/farmersmarket,facebook.com/mtkafarmersmarket,@minnetonkamn,,,14600 Minnetonka Blvd,Minnetonka ,Hennepin,Minnesota,55345,06/28/2016 to 09/27/2016,Tue: 3:00 PM-7:00 PM;,,,,,,,-93.464747,44.941935,,8/23/2016 12:17
1012418,"Pike County Pop-Up Farmers' Markets - Beaver, Ohio",http://pike.osu.edu,https://www.facebook.com/OSU-Extension-Pike-County-942516695840817/,,,,7460 SR 335,Beaver,Pike,Ohio,45613,07/27/2016 to 10/05/2016,Wed: 2:00 PM-4:00 PM;,,,,,,,-82.8216316,39.0350046,,7/11/2016 11:22
1012419,Arcadia's Mobile Market -- Ledroit Park,http://arcadiafood.org/programs/mobile-market,,,https://www.youtube.com/user/ArcadiaFoodTV,,3rd St. & Elm St. NW,Washington,District of Columbia,District of Columbia,20001,05/04/2016 to 11/30/2016,Wed: 4:00 PM-7:00 PM;,,,,,,,-77.0159591,38.9175043,,7/12/2016 11:53
1012420,Monterey Farmers Market,,,,,,Monterey Rd (Route 23) and New Marlboro Rd,Monterey ,Berkshire,Massachusetts,1245,06/14/2016 to 10/11/2016,Tue: 4:00 PM-6:00 PM;,,,,,,,-73.202859,42.132731,,7/11/2016 11:23
1012421,"Pike County Pop-Up Farmers' Markets - Idaho, Ohio",http://pike.osu.edu,https://www.facebook.com/OSU-Extension-Pike-County-942516695840817/,,,,13192 SR 124,Piketon,Pike,Ohio,45661,07/27/2016 to 10/05/2016,Wed: 9:00 AM-11:00 AM;,,,,,,,-83.161292,39.09843,,7/11/2016 11:19
1012422,Arcadia's Mobile Market -- Congress Heights Senior Wellness Center,http://arcadiafood.org/programs/mobile-market,,,https://www.youtube.com/user/ArcadiaFoodTV,,3500 Martin Luther King Jr Ave SE,Washington,District of Columbia,District of Columbia,20032,05/05/2016 to 11/17/2016,Thu: 10:00 AM-12:00 PM;,,,,,,,-77.0044361,38.8400841,,7/12/2016 11:53
1012423,"Pike County Pop-Up Farmers' Markets - Piketon, Ohio",http://pike.osu.edu,https://www.facebook.com/OSU-Extension-Pike-County-942516695840817/,,,,Clark and 2nd Street,Piketon,Pike,Ohio,45661,07/28/2016 to 10/06/2016,Thu: 4:00 PM-6:00 PM;,,,,,,,-83.01216,39.068187,,7/11/2016 11:21
1012424,Stone Mountain Farmers Market,http://www.stonemountaincity.org/departments/economic_development_downtown_development_authority/farmers_market.php,https://www.facebook.com/stonemountainfarmersmarket,,,https://www.pinterest.com/SMVGA/,922 Main Street,Stone Mountain,DeKalb,Georgia,30083,04/19/2016 to 11/22/2016,Tue: 4:00 PM-7:00 PM;,,,,,,,-84.170625,33.807084,,7/11/2016 11:25
1012425,Roscoe Farmers Market,,Roscoe Farmers Market,,,,Rt 17,Roscoe ,Sullivan,New York,12776,05/08/2016 to 10/30/2016,Sun: 10:00 AM-2:00 PM;,,,,,,,-74.91218,41.932894,,7/11/2016 14:33
1012426,Framingham Farmers Market,,https://www.facebook.com/shop.local.framingham/,,,,Edgell Road,Framingham ,Middlesex,Massachusetts,1701,06/02/2016 to 10/27/2016,Thu: 12:00 PM-5:30 PM;,,,,,,,-71.433853,42.303524,,7/11/2016 11:47
1012427,Arcadia's Mobile Market -- United Medical Center,http://arcadiafood.org/programs/mobile-market,,,https://www.youtube.com/user/ArcadiaFoodTV,,1310 Southern Ave SE,Washington,District of Columbia,District of Columbia,20032,06/02/2016 to 10/27/2016,Thu: 10:00 AM-12:00 PM;,,,,,,,-76.9849936,38.8359393,,7/12/2016 11:54
1012429,Freedom Farmers Market at the Carter Center,http://www.freedomfarmersmkt.com,https://www.facebook.com/freedomfarmersmkt/,https://twitter.com/freedomfarmersm,,https://www.instagram.com/freedomfarmersmkt/,453 Freedom Pkwy NE ,Atlanta,Fulton,Georgia,30307,03/05/2016 to 12/17/2016,Sat: 9:00 AM-1:00 PM;,01/09/2016 to 02/27/2016,Sat: 9:00 AM-12:30 PM;,,,,,-84.35682,33.76759,,7/11/2016 12:00
1012430,Austin Farmers' Market,http://www.eatfreshaustin.com,https://www.facebook.com/austinfarmersmarket/,https://twitter.com/EatFreshAustin,,,501 Oakland Ave. East,Austin,Mower,Minnesota,55912,05/02/2016 to 10/29/2016,Mon: 4:00 PM-7:00 PM;Thu: 4:00 PM-7:00 PM;Sat: 9:00 AM-12:00 PM;,,,,,,,-92.969561,43.66672,,7/11/2016 12:08
1012432,Winooski Farmers Market,http://downtownwinooski.org/winooski-farmers-market/,https://www.facebook.com/winooskifarmersmarket,,,https://www.instagram.com/winooskifarmersmarket/,Winooski Falls Way,Winooski,Chittenden,Vermont,5404,05/29/2016 to 10/09/2016,Sun: 10:00 AM-2:00 PM;,,,,,,,-73.185351,44.490257,,7/11/2016 12:23
1012433,Glasgow Farmers Market,,Glasgow Farmers Market,,,,1000 Kanawha ST,Glasgow,Rockbridge,Virginia,24555,07/01/2016 to 10/29/2016,Fri: 3:00 PM-6:00 PM;Sat: 8:00 AM-12:00 PM;,,,,,,,-79.452075,37.629239,,7/11/2016 13:15
1012435,Waltham Farmers' Market,http://www.walthamfarmersmarket.org/,https://www.facebook.com/walthamfarmersmarket/,https://twitter.com/WalFarmMkt,,,119 School Street,Waltham,Middlesex,Massachusetts,2452,06/11/2016 to 11/05/2016,Sat: 9:30 AM-2:00 PM;,,,,,,,-71.2363048,42.3784677,,7/11/2016 13:45
1012436,Sherwood Saturday Market,http://sherwoodmarket.blogspot.com,www.facebook.com/Sherwood-Saturday-Market,,,,22341 SW Pine St.,Sherwood,Washington,Oregon,97140,05/07/2016 to 09/24/2016,Sat: 9:00 AM-1:00 PM;,,,,,,,-122.839625,45.356332,,7/11/2016 14:02
1012437,Inglewood Certified Farmers' Market,http://www.sjli.org,https://www.facebook.com/inglewoodcertifiedfarmersmarket/,,,,Manchester Blvd and Market Street,Inglewood,Los Angeles,California,90301,01/01/2016 to 12/31/2016,Thu: 3:00 PM-7:00 PM;,,,,,,,-118.351925,33.96121,,7/11/2016 14:11
1012438,Watertown Farmers Market at Arsenal on the Charles,http://www.watertownmarket.com,https://www.facebook.com/watertownmarket/,,,"instagram/watertown,com",311 Arsenal Street,Watertown,Middlesex,Massachusetts,2472,,Thu: 2:00 PM-6:00 PM;,,,,,,,-71.164724,42.363341,,7/11/2016 13:53
1012439,Westborough Farmers' Market ,http://www.eatfresh01581.com,Westborough Farmers' Market,@eatfresh01581,,Instagram: dismasfamilyfarm,57 W Main St,Westborough,Worcester,Massachusetts,1581,06/02/2016 to 09/29/2016,Thu: 2:00 PM-6:00 PM;,,,,,,,-71.6158479,42.2675847,,7/11/2016 14:14
1012441,North Park Thursday Certified Farmers' Market,http://sandiegomarkets.com,https://www.facebook.com/NorthParkMarket,@northparkmarket,,,3001 North Park Way,San Diego ,San Diego,California,92104,01/01/2016 to 12/31/2016,Thu: 3:00 PM-7:30 PM;,,,,,,,-117.1300547,32.747343,,7/11/2016 15:38
1012442,Mack Road -Valley Hi Farmers Market ,,Mack Road-Valley Hi Farmers Market ,,,,6100 Mack Road ,Sacramento ,Sacramento,California,95823,05/20/2016 to 09/09/2016,Fri: 8:30 AM-1:30 PM;,,,,,,,-121.429056,38.473816,,7/11/2016 15:37
1012443,Harvard Farmers Market,http://harvardfarmersmarket.org,,,,,27 Massacusetts Avenue,Harvard,Worcester,Massachusetts,1451,08/13/2016 to 10/29/2016,Sat: 9:00 AM-12:00 PM;,,,,,,,-71.582139,42.496923,,7/11/2016 15:54
1012444,Catawba Farms Farmers' Market,http://market.catawbafarms.com,https://www.facebook.com/CatawbaFarms,https://twitter.com/Catawba_Farms,,https://www.flickr.com/photos/141883075@N07/albums/72157666973763026,1670 Southwest Blvd,Newton,Catawba,North Carolina,28658,04/16/2016 to 12/17/2016,Sat: 8:00 AM-1:00 PM;,,,,,,,-81.221788,35.637794,,7/11/2016 16:08
1012445,Goldendale Farmers Market,http://goldendalechamber.org/goldendale-farmers-market.html,https://www.facebook.com/Goldendalefarmersmarket/,,,,North Wilbur Ave. Ekone Park,Goldendale,Klickitat,Washington,98620,05/07/2016 to 10/01/2016,Sat: 9:00 AM-2:00 PM;,,,,,,,-120.818727,45.824777,,7/11/2016 16:57
1012446,Provincetown Farmers Market,,Provincetown Farmers Market,,,,260 Commericial Street ,Provincetown,Barnstable,Massachusetts,2657,05/14/2016 to 11/19/2016,Sat: 9:00 AM-3:00 PM;,,,,,,,-70.1876201,42.051278,,7/11/2016 17:17
1012447,Viroqua Farmers'  MARKET-Saturday,http://viroqua-wisconsin.com/farmersmarket,Viroqua Farmers Market,,,,210 Fairgrounds Road,Viroqua ,Vernon,Wisconsin,54665,05/01/2016 to 11/01/2016,Sat: 8:00 AM-12:00 PM;,,,,,,,-90.8864999,43.5659569,,7/11/2016 18:05
1012448,Viroqua Farmers' Market-Wednesday,http://viroqua-wisconsin.com/farmersmarket,Viroqua Farmers Market,,,,210 South Main St.,Viroqua ,Vernon,Wisconsin,54665,05/01/2016 to 09/01/2016,Wed: 3:00 PM-7:00 PM;,,,,,,,-90.8893274,43.5548818,,7/11/2016 18:03
1012449,CentraCare Health - Long Prairie Farmers Market ,http://www.centracare.com/wellness/farmers-market/,https://www.facebook.com/CentraCareHealth/,,,,Southeast of the nursing home on 1st Av SE,Long Prairie ,Todd,Minnesota,56347,06/03/2016 to 10/14/2016,Fri: 2:00 PM-6:30 PM;,,,,,,,-94.849189,45.972912,,7/25/2016 13:06
1012450,Wisconsin Dells Farmers Market,,,,,,W15344 Waubeek Rd.,Wisconsin Dells ,Columbia,Wisconsin,53965,05/15/2016 to 10/16/2016,Sun: 9:00 AM-1:00 PM;,,,,,,,-89.7628883,43.6412622,,7/11/2016 18:24
1012451,Florida Farmers Market,http://warwickinfo.net/floridafarmersmarket/index.html,www.facebook.com/FloridaNYFarmersMarket,,,,Rt 17A and 94,Florida,Orange,New York,10921,06/14/2016 to 10/25/2016,Tue: 10:00 AM-4:00 PM;,,,,,,,-74.3554231,41.3268331,,7/11/2016 19:19
1012452,Walpole Farmers' Market,http://www.walpolemafarmersmarket.com,https://www.facebook.com/Walpole-Farmers-Market-111991025477749/,@WalpoleFarmers,,,653 Main Street,Walpole ,Norfolk,Massachusetts,2081,06/24/2016 to 09/30/2016,Fri: 1:30 PM-5:30 PM;,,,,,,,-71.244383,42.154787,,7/11/2016 20:09
1012453,Arcadia's Mobile Market -- Community of Hope Family Health & Birth Center,http://arcadiafood.org/programs/mobile-market,,,https://www.youtube.com/user/ArcadiaFoodTV,,801 17th St NE,Washington,District of Columbia,District of Columbia,20002,06/02/2016 to 10/27/2016,Thu: 3:00 PM-6:00 PM;,,,,,,,-76.9781261,38.9008251,,7/12/2016 11:55
1012454,Arcadia's Mobile Market -- Parkside Unity Healthcare/Circle 7 Express,http://arcadiafood.org/programs/mobile-market,,,https://www.youtube.com/user/ArcadiaFoodTV,,740 Kenilworth Ave NE,Washington,District of Columbia,District of Columbia,20019,05/05/2016 to 11/17/2016,Thu: 3:00 PM-6:00 PM;,,,,,,,-76.9468929,38.9007582,,7/12/2016 11:59
1012455,Arcadia's Mobile Market -- Deanwood Recreation Center,http://arcadiafood.org/programs/mobile-market,,,https://www.youtube.com/user/ArcadiaFoodTV,,1350 49th St NE,Washington,District of Columbia,District of Columbia,20019,05/06/2016 to 11/25/2016,Fri: 10:00 AM-12:00 PM;,,,,,,,-76.9324515,38.9082997,,7/12/2016 11:59
1012456,Polk County Farmers' Market,,https://www.facebook.com/polkfarmersmarket,,,,524 Sherwood,Mena,Polk,Arkansas,71953,05/28/2016 to ,Tue: 7:00 AM-11:00 AM;Thu: 7:00 AM-11:00 AM;Sat: 7:00 AM-11:00 AM;,,,,,,,-94.236379,34.582939,,7/11/2016 21:20
1012460,Saratoga Farmers' Market - Outdoor Market (May-October),http://www.saratogafarmersmarket.org,https://www.facebook.com/SaratogaFarmersMarket/,@SaratogaMarket,,Instagram #saratogafarmersmarket,"High Rock Park, High Rock Park Ave",Saratoga Springs ,Saratoga,New York,12866,05/04/2016 to 10/29/2016,Wed: 3:00 PM-6:00 PM;Sat: 9:00 AM-1:00 PM;,,,,,,,-73.781149,43.085525,,7/11/2016 22:15
1012461,Mt. Pleasant  Farmers Market,,"Mt. Pleasant, Iowa Farmers Market",,,,S. Walnut St,Mt. Pleasant,Henry,Iowa,52641,05/14/2016 to 10/08/2016,Wed: 4:00 PM-6:00 PM;Sat: 8:30 AM-11:00 AM;,,,,,,,-91.547312,40.956333,,7/11/2016 23:08
1012462,Dodgeville Farmers Market,http://dodgeville.locallygrown.net,,,,,,Dodgeville,Iowa,Wisconsin,53533,05/14/2016 to 10/29/2016,Sat: 8:00 AM-11:00 AM;,,,,,,,-90.129952,42.962064,,7/12/2016 7:21
1012463,Oak Ridge Farmers Market,http://easttnfarmmarkets.org,oak ridge farmers market,oak ridge farmers market,,,Jackson Square,Oak Ridge ,Anderson,Tennessee,37830,04/16/2016 to 11/23/2016,Wed: 3:00 PM-5:00 PM;Sat: 8:00 AM-12:00 PM;,,,,,,,-84.2401994,36.0248008,,7/12/2016 8:04
1012464,Knoxville Farmers Market- Lakeshore,http://easttnfarmmarkets.org,Lakeshore Farmers Market,Lakeshore Farmers Market,,,Lakeshore Park,Knoxville,Knox,Tennessee,,04/22/2016 to 11/18/2016,Fri: 3:00 PM-6:00 PM;,,,,,,,-83.9883144,35.9221074,,7/12/2016 7:56
1012465,Knoxville Farmers Market- Ebenezer Road,http://easttnfarmmarkets.org,Ebenezer Road Farmers Market,Ebenezer Road Farmers Market,,,1001 Ebenezer Road,Knoxville ,Knox,Tennessee,37923,04/19/2016 to 11/14/2016,Tue: 3:00 PM-6:00 PM;,,,,,,,-84.0706129,35.8930945,,7/12/2016 8:02
1012466,Fresh2You Mobile Market,http://chestercountyfoodbank.org/programs/fresh2you/,,,,,501 E. Lincoln Hwy,Coatesville,Chester,Pennsylvania,19320,,,,,,,,,-75.815943,39.9845692,,7/12/2016 8:53
1012467,Village of Buffalo Grove Farmers Market,http://www.vbg.org/market,buffalogrovefarmersmarket,,,,971 McHenry Road,Buffalo Grove,Lake,Illinois,60089,06/12/2016 to 10/09/2016,Sun: 8:00 AM-12:30 PM;,,,,,,,-87.9785608,42.1726145,,7/12/2016 9:01
1012470,Kamm's Corners Farmers Market,http://www.kammscornersfarmersmarket.org,https://www.facebook.com/kammsmarket/,,,,16906 Albers Ave.,Cleveland ,Cuyahoga,Ohio,44111,06/12/2016 to 10/09/2016,Sun: 10:00 AM-1:00 PM;,,,,,,,-81.814974,41.449328,,7/12/2016 9:16
1012471,North End Farmers Market,http://neatmiddletown.org/nefm,https://www.facebook.com/north.end.farmers.market/,,,https://www.instagram.com/northendfm/,575 Main St,Middletown,Middlesex,Connecticut,6457,07/01/2016 to 10/28/2016,Fri: 10:00 AM-2:00 PM;,,,,,,,-72.652,41.563893,,7/12/2016 10:38
1012472,West Broad Farmers Market and Garden,http://www.athenslandtrust.org/west-broad-farmers-market,https://www.facebook.com/WestBroadMarketGarden,https://twitter.com/westbroadfm,,https://www.instagram.com/westbroadfarmersmarket/,1573 West Broad Street,Athens,Clarke,Georgia,30606,04/30/2016 to 12/10/2016,Sat: 9:00 AM-1:00 PM;,,,,,,,-83.397132,33.9522,,7/12/2016 11:04
1012473,Streator Downtown Farmers Market,http://streator.org,https://www.facebook.com/streatordowntownfarmersmarket/,https://twitter.com/StreatorMarket?lang=en,,,200 N Park St,Streator,La Salle,Illinois,61364,06/04/2016 to 10/29/2016,Sat: 9:00 AM-1:00 PM;,,,,,,,-88.834048,41.121512,,7/12/2016 11:24
1012474,Arcadia's Mobile Market -- Barry Farm Recreation Center,http://arcadiafood.org/programs/mobile-market,,,https://www.youtube.com/user/ArcadiaFoodTV,,1230 Sumner Rd SE,Washington,District of Columbia,District of Columbia,20020,06/03/2016 to 10/28/2016,Fri: 2:00 PM-5:00 PM;,,,,,,,-76.996697,38.860661,,7/12/2016 12:00
1012475,Oak Square Farmers Market,,https://www.facebook.com/oaksquarefarmersmarket/,,,,"640 Washington St, Brighton, MA",Brighton,Suffolk,Massachusetts,2135,06/01/2016 to 10/26/2016,Wed: 4:00 PM-8:00 PM;,,,,,,,-71.169492,42.350508,,7/12/2016 11:23
1012476,Copley Square Farmers Market,http://www.massfarmersmarkets.org,www.facebook.com/CopleySquareFarmersMarket,@MAFarmMarkets,,,,Boston,Suffolk,Massachusetts,2116,05/10/2016 to 11/22/2016,Tue: 11:00 AM-6:00 PM;Fri: 11:00 AM-6:00 PM;,,,,,,,-71.07639,42.349966,,7/12/2016 11:42
1012477,Arcadia's Mobile Market -- Edgewood Commons,http://arcadiafood.org/programs/mobile-market,,,https://www.youtube.com/user/ArcadiaFoodTV,,601 Edgewood St NE ,Washington ,District of Columbia,District of Columbia,20017,05/06/2016 to 11/25/2016,Fri: 3:00 PM-6:00 PM;,,,,,,,-76.9971713,38.9237975,,7/12/2016 11:41
1012478,Waterfront Farmers Market of Gig Harbor,,https://www.facebook.com/waterfrontfarmersmarketgigharbor/,https://twitter.com/WFMMktManager,,https://www.instagram.com/?hl=en,3211 Harborview Drive,Gig Harbor,Pierce,Washington,98335,,Thu: 3:00 PM-7:00 PM;,,,,,,,-122.58199,47.3306718,,7/12/2016 11:57
1012479,Cambridge Central Square Farmers Market,http://www.massfarmersmarkets.org,www.facebook.com/CentralSquareFarmersMarket,@MAFarmMarkets,,,Bishop Allen Dr. & Norfolk St.,Cambridge ,Middlesex,Massachusetts,2139,05/16/2016 to 11/21/2016,Mon: 12:00 PM-6:00 PM;,,,,,,,-71.1012855,42.365228,,7/12/2016 11:57
1012481,Green Hills Produce & Crafts,,"Corning, IA - Farmer's Market",,,,,Corning,Adams,Iowa,50841,05/26/2016 to 09/29/2016,Thu: 5:00 PM-7:00 PM;,,,,,,,-94.734617,40.990542,,7/12/2016 12:13
1012482,Moreland Farmers Market,http://www.morelandfarmersmarket.org,Moreland Farmers Market,,,,SE 14th Ave and SE Bybee,Portland,Multnomah,Oregon,97282,05/04/2016 to 10/19/2016,Wed: 2:00 PM-7:00 PM;,,,,,,,-122.6517266,45.4736782,,7/12/2016 12:03
1012484,Cedar Mill Farmers Market,http://www.cedarmillfarmersmarket.org,Cedar Mill Farmers market,,,,Corner Of NW Murray and Cornell,Portland,Washington,Oregon,97266,05/07/2016 to 07/30/2016,Sat: 8:00 AM-1:00 PM;,,,,,,,-122.8141034,45.5263877,,7/12/2016 12:16
1012485,Wayne State University Farmers Market,http://www.clas.wayne.edu/seedwayne,https://facebook.com/WSUFarmersMarket/,@wsufarmersmkt,,Instagram: wsufarmersmarket,5401 Cass Avenue,Detroit ,Wayne,Michigan,48202,06/01/2016 to 10/26/2016,Wed: 11:00 AM-4:00 PM;,,,,,,,-83.0689052,42.3588968,,7/12/2016 12:21
1012486,Greenwood Ave Farmers Market,http://www.greenwoodavefm.org/,https://www.facebook.com/greenwoodavefarmersmarket/,https://twitter.com/GreenwoodAveFM,,https://www.instagram.com/greenwoodavefarmersmarket/,427 Greenwood Ave.,Trenton,Mercer,New Jersey,8609,06/13/2016 to 10/24/2016,Mon: 2:00 PM-6:00 PM;,,,,,,,-74.753179,40.216816,,7/12/2016 13:01
1012487,Suquamish Farmers Market,http://www.suquamishfarmersmarket.org,https://www.facebook.com/suquamishfm/,,,https://www.instagram.com/suquamishfm/,16281 WA-305,Poulsbo,Kitsap,Washington,98370,05/04/2016 to 10/12/2016,Wed: 3:00 PM-7:00 PM;,,,,,,,-122.584276,47.708097,,7/12/2016 13:02
1012488,Thief River Falls Farmers Market,,www.facebook.com/thiefriverfallsfarmersmarket,,,,3rd St. and Duluth Ave.,Thief River Falls,Pennington,Minnesota,56701,06/18/2016 to 10/01/2016,Tue: 3:30 PM-6:00 PM;Sat: 9:00 AM-12:00 PM;,,,,,,,-96.184402,48.118992,,7/12/2016 13:06
1012490,Poulsbo Farmers Market,http://www.poulsbofarmersmarket.org,https://www.facebook.com/PoulsboFarmersMarket/,,,https://www.instagram.com/poulsbofm/,19540 Front St NE,Poulsbo,Kitsap,Washington,98370,04/02/2016 to 12/17/2016,Sun: 9:00 AM-2:00 PM;,,,,,,,-122.649224,47.740461,,7/12/2016 13:20
1012492,Craftsbury Farmers Market,http://craftsburyfarmersmarket.com/,https://www.facebook.com/CraftsburyFarmersMarket/,,,,N. Craftsbury Road,Craftsbury Common,Orleans,Vermont,5827,05/28/2016 to 10/08/2016,Sat: 10:00 AM-1:00 PM;,,,,,,,-72.243778,44.8288392,,7/12/2016 13:45
1012493,Roseau Farmers Market,http://goroseau.com,,,,,,Roseau,Roseau,Minnesota,56751,06/18/2016 to ,Thu: 3:00 PM-7:00 PM;Sat: 9:00 AM-1:00 PM;,,,,,,,-95.760881,48.847646,,7/12/2016 13:49
1012494,Bethlehem Farmers' Market,http://www.bethlehemfarmersmarket.com,facebook.com/BethlehemFarmersMarketPA,twitter.com/BethFarmMkt,,instagram.com/bethlehemfarmersmarket,Intersection of New and Morton Streets,Bethlehem,Lehigh,Pennsylvania,18015,05/05/2016 to 10/27/2016,Thu: 11:00 AM-3:00 PM;,,,,,,,-75.3784029,40.6098058,,7/12/2016 14:16
1012495,Decatur Farmers Market ,http://cfmatl.org,https://www.facebook.com/DecaturFarmersMarkets/,,,,308 Clairmont Ave. ,Decatur ,DeKalb,Georgia,30030,01/01/2016 to 12/31/2016,Wed: 4:00 PM-7:00 PM;Sat: 9:00 AM-1:00 PM;,,,,,,,-84.2974842,33.7788269,,7/12/2016 14:06
1012497,Great Falls Original Farmer's Market,http://www.farmersmarketgf.com/,https://www.facebook.com/farmersmarketgf/,,,,2 South Park Drive,Great Falls ,Cascade,Montana,59401,06/04/2016 to 09/24/2016,Sat: 8:00 AM-12:00 PM;,07/13/2016 to 09/21/2016,Wed: 4:30 PM-6:30 PM;,,,,,-111.306786,47.505283,,7/16/2016 0:35
1012498,Goodyear Community Farmers Market,http://www.arizonacommunityfarmersmarkets.com/FM_Goodyear.html,https://www.facebook.com/GoodyearCommunityFarmersMarket,https://twitter.com/search?f=tweets&q=goodyearfm&src=typd,,,3151 N. Litchfield Rd,Litchfield Park ,Maricopa,Arizona,85338,10/01/2016 to 05/27/2017,Sat: 8:00 AM-12:00 PM;,,,,,,,-112.361037,33.482525,,7/12/2016 15:00
1012499,Somerville/Davis Square,http://www.massfarmersmarkets.org,www.facebook.com/Davis-Square-Farmers-Market-404743659554925/,@MAFarmMarkets,,#DavisSquare,50 Day St.,Somerville ,Middlesex,Massachusetts,2144,05/18/2016 to 11/23/2016,Wed: 12:00 PM-6:00 PM;,,,,,,,-71.1231062,42.3958267,,7/12/2016 14:50
1012500,6th Street Market in Downtown Tempe,http://arizonacommunityfarmersmarkets.com,www.facebook.com/6thstmarket/,,,www.instagram.com/6thstmarket/,6th Street and Mill Avenue,Tempe ,Maricopa,Arizona,85281,10/02/2016 to 05/28/2017,Sun: 9:00 AM-1:00 PM;,,,,,,,-111.939512,33.42442,,7/12/2016 15:50
1012502,REC Beaver Brook Park Market,http://www.recworcester.org/#!markets/c1m3b,https://www.facebook.com/recfarmersmarkets/?fref=ts,https://twitter.com/RECFarmMarket,,,306 Chandler St,Worcester ,Worcester,Massachusetts,,06/20/2016 to 10/24/2016,Mon: 9:30 AM-2:00 PM;Fri: 9:30 AM-2:00 PM;,,,,,,,-71.825397,42.262154,,7/13/2016 14:36
1012503,Wood County Farmers' Market,http://www.rapidsmall.com,Wood County Farmers Market,,,,555 West Grand Ave,Wisconsin Rapids,Wood,Wisconsin,54495,05/14/2016 to 10/29/2016,Thu: 9:00 AM-3:00 PM;Sat: 8:00 AM-12:00 PM;,11/05/2016 to 03/01/2017,Thu: 10:00 AM-2:00 PM;Sat: 10:00 AM-2:00 PM;,,,,,-89.832207,44.393812,,7/12/2016 17:10
1012505,Darlington Farmers Market,,,,,,Main Street,Darlington 53530,Lafayette,Wisconsin,,05/01/2016 to 10/01/2016,Sat: 8:00 AM-12:00 PM;,,,,,,,-90.12073,42.681899,,7/12/2016 17:34
1012506,Portland Farmers Market - Kenton ,http://www.portlandfarmersmarket.org,https://www.facebook.com/portlandfarmersmarket?v=wall,https://twitter.com/portlandfarmers,,https://www.instagram.com/portlandfarmers/,N Denver Ave and N McClellan St,Portland,Multnomah,Oregon,97217,06/01/2016 to 09/28/2016,Wed: 3:00 PM-7:00 PM;,,,,,,,-122.686888,45.583106,,7/13/2016 16:43
1012507,Champaign County Farmers' Market,,Corner of market Street and Locust Street,,,,Market Street and Locust Street,Urbana ,Champaign,Ohio,43078,05/07/2016 to 10/29/2016,Sat: 9:00 AM-12:00 PM;,,,,,,,-83.7509825,40.1068632,,7/12/2016 18:20
1012508,Montavilla Farmers Market,http://www.montavillamarket.org,https://www.facebook.com/MontavillaMarket,https://twitter.com/montavillamkt,,https://www.instagram.com/montavillamarket,7600 SE Stark Street,Portland,Multnomah,Oregon,97292,05/15/2016 to 10/30/2016,Sun: 10:00 AM-2:00 PM;,11/20/2016 to 11/20/2016,Sun: 10:00 AM-2:00 PM;,12/18/2016 to 12/18/2016,Sun: 11:00 AM-1:00 PM;,01/15/2017 to 01/15/2017,Sun: 11:00 AM-1:00 PM;,-122.584344,45.518886,,7/12/2016 18:52
1012509,Good Local Markets at Vickery Meadow,http://www.goodlocalmarkets.org,Good Local Markets,,,,5803 E. Northwest Highway,Dallas,Dallas,Texas,75231,04/03/2016 to 12/11/2016,Sun: 10:00 AM-3:00 PM;,,,,,,,-96.7647804,32.8661784,,7/12/2016 20:17
1012510,Good Local Markets at Lakeside Farmers Market,http://www.goodlocalmarkets.org,Good Local Markets,,,,9150 Garland Road,Dallas,Dallas,Texas,75218,03/12/2016 to 12/10/2016,,,,,,,,-96.706935,32.829427,,7/12/2016 20:26
1012511,Onslow County Farmers' Market,http://onslowncfarmersmarket.com,Onslow County Farmers' Market,,,,,"Camp Lejeune, NC",Onslow,North Carolina,28542,04/01/2016 to 09/27/2016,Tue: 10:00 AM-2:00 PM;,,,,,,,-77.337956,34.674159,,7/18/2016 14:45
1012513,Bosque Farmers Market,http://bosque.agrilife.org/bosque-farmers-market/,https://www.facebook.com/Bosque-Farmers-Market-956350901151818/,,,https://www.instagram.com/bosquefarmersmarket/,110 South Main,Meridian ,Bosque,Texas,76665,05/07/2016 to 10/29/2016,Sat: 9:00 AM-1:00 PM;,,,,,,,-97.6573069,31.9228027,,7/13/2016 8:27
1012514,Rome Farmers Market,,Www.facebook.com/romefarmersmarket,,,,Geneva Tr and Snowpass,New Rome,Adams,Wisconsin,54457,05/27/2016 to 09/30/2016,Fri: 8:00 AM-1:00 PM;,,,,,,,-89.810538,44.21722,,7/13/2016 14:10
1012515,Middle River Farmers Market,http://mrfarmersmarket.com,,,,,Main Street,Middle River,Marshall,Minnesota,56737,06/03/2016 to 09/30/2016,Fri: 1:00 PM-5:00 PM;,,,,,,,-96.161694,48.434896,,7/13/2016 9:24
1012516,Truro Educational Farmers' Market,http://www.sustainablecape.org,https://www.facebook.com/sustainablecape/,,,,,Truro,Barnstable,Massachusetts,2666,06/13/2016 to 08/29/2016,Mon: 8:00 AM-12:00 PM;,,,,,,,-70.0490107,41.99477,,7/13/2016 9:46
1012517,Hub City Farmers' Market,http://www.hubcityfm.org,hub city farmers' market,,,,498 howard st.,spartanburg,Spartanburg,South Carolina,29306,01/01/2016 to 12/31/2016,Sat: 8:00 AM-12:00 PM;,,,,,,,-81.942413,34.956245,,7/13/2016 9:44
1012518,Hub City Farmers' Market Wednesday market downtown location,http://www.hubcityfm.org,hub city farmers' market,,,,Wall street,spartanburg,Spartanburg,South Carolina,29306,06/01/2016 to 08/17/2016,Wed: 11:30 AM-1:30 PM;,,,,,,,-81.9327542,34.9485021,,7/13/2016 9:46
1012519,Downtown Dalton Farmers Market,http://www.downtowndalton.com,Downtown Dalton Farmers Market,,,,117 North Selvidge Street,Dalton,Whitfield,Georgia,30720,05/07/2016 to 08/27/2016,Tue: 4:00 PM-7:00 PM;Sat: 8:00 AM-12:00 PM;,,,,,,,-84.9709565,34.771746,,7/13/2016 10:31
1012520,Fulton County Medical Center Farmers Market,,,,,,214 peach orchard rd.,McConnellsburg borough,Fulton,Pennsylvania,17233,06/01/2016 to 10/01/2016,Fri: 10:00 AM-6:00 PM;,,,,,,,-77.995682,39.931838,,7/13/2016 10:37
1012521,Farmers in the Park,http://www.charlottesville.org/departments-and-services/departments-h-z/parks-recreation-/city-market/farmers-in-the-park,https://www.facebook.com/farmersinthepark/,,,,300 Meade Avenue,Charlottesville,Charlottesville,Virginia,22902,05/01/2016 to 09/30/2016,Wed: 3:00 PM-7:00 PM;,,,,,,,-78.465092,38.027678,,7/13/2016 10:54
1012522,Vilonia Handmade & Homegrown Market,,facebook.com/viloniafarmersmarket,,,,1113 Main St,Vilonia,Faulkner,Arkansas,72173,06/09/2016 to 10/15/2016,Thu: 7:00 AM-12:00 PM;Sat: 7:00 AM-12:00 PM;,,,,,,,-92.207414,35.083718,,7/13/2016 11:21
1012523,"Mill City Farmers Market, Inc.",http://millcityfarmersmarket.org/,https://www.facebook.com/MillCityFarmersMarket/,https://twitter.com/mcfarmersmkt,,,704 South 2nd Street,Minneapolis,Hennepin,Minnesota,55401,05/07/2016 to 09/24/2016,Sat: 8:00 AM-1:00 PM;,10/01/2016 to 10/29/2016,Sat: 9:00 AM-1:00 PM;,11/12/2016 to 04/08/2017,Sat: 10:00 AM-1:00 PM;,,,-93.256278,44.978211,,7/13/2016 11:37
1012524,Richfield Farmers Market,http://www.richfieldfarmersmarket.org,https://www.facebook.com/RichfieldFarmersMarket,https://twitter.com/RichfieldFarmkt,,,6335 Portland Ave S,Richfield ,Hennepin,Minnesota,55423,05/21/2016 to 10/22/2016,Sat: 7:00 AM-12:00 PM;,,,,,,,-93.2660508,44.8883807,,7/13/2016 11:41
1012525,Northeast Farmers' Market,http://NEFarmersMarket.wordpress.com,Facebook.com/NEKCFarmersMarket,,,Instagram: @NortheastFarmersMarket,3001 Independence Ave,Kansas City,Jackson,Missouri,64124,05/19/2016 to 09/29/2016,Thu: 4:00 PM-7:00 PM;,,,,,,,-94.5456169,39.105802,,7/13/2016 11:33
1012526,Paducah Farmer's Market,http://paducahky.gov/farmers-market,https://www.facebook.com/paducah.homegrown/,,,,306 2nd Street,Paducah,McCracken,Kentucky,42001,04/23/2016 to 10/29/2016,Sat: 7:30 AM-2:00 PM;,,,,,,,-88.5965,37.0901565,,7/13/2016 12:47
1012527,Clement St. Farmers Market,http://www.agriculturalinstitute.org,https://www.facebook.com/ClementStreetFarmersMarket/,,,,Clement St. between 2nd and 4th,San Francisco,San Francisco,California,,01/01/2016 to 12/31/2016,Sun: 9:00 AM-2:00 PM;,,,,,,,-122.460989,37.783062,,7/13/2016 12:38
1012529,Grand Lake-Oakland Farmers Market,https://www.agriculturalinstitute.org/directory/listing-details/grand-lake-oakland,https://www.facebook.com/GrandLakeFarmersMarket/,,,,Splash Pad Park,Oakland,Alameda,California,,01/01/2016 to 12/31/2016,Sat: 9:00 AM-2:00 PM;,,,,,,,-122.2478409,37.8105444,,7/13/2016 13:01
1012530,Sunday Civic Center Farmers Market,https://www.agriculturalinstitute.org/directory/listing-details/sunday-san-rafael-market,https://www.facebook.com/MarinFarmersMarkets/?fref=ts,,,,3501 Civic Center Dr.,San Rafael,Marin,California,94903,01/01/2016 to 12/31/2016,Sun: 8:00 AM-1:00 PM;,,,,,,,-122.531204,37.998052,,7/13/2016 13:10
1012532,REC Mobile Farmers Market - The Senior Center,http://www.recworcester.org/#!markets/c1m3b,https://www.facebook.com/recfarmersmarkets/?fref=ts,https://twitter.com/RECFarmMarket,,,128 Providence Street,Worcester ,Worcester,Massachusetts,1604,06/21/2016 to 10/25/2016,Tue: 9:00 AM-10:30 AM;,,,,,,,-71.7930315,42.248111,,7/13/2016 13:17
1012533,Thursday Civic Center Farmers Market,https://www.agriculturalinstitute.org/directory/listing-details/thursday-san-rafael-market,https://www.facebook.com/MarinFarmersMarkets/?fref=ts,,,,"Marin Center, Avenue of the Flags",San Rafael,Marin,California,94903,01/01/2016 to 12/31/2016,Thu: 8:00 AM-1:00 PM;,,,,,,,-122.533581,38.002859,,7/13/2016 13:30
1012534,Stonestown Farmers Market,https://www.agriculturalinstitute.org/directory/listing-details/stonestown-market,https://www.facebook.com/StonestownFarmersMarket/?fref=ts,,,,3251 20th Ave,San Francisco,San Francisco,California,94132,01/01/2016 to 12/31/2016,Sun: 9:00 AM-1:00 PM;,,,,,,,-122.478978,37.730057,,7/13/2016 13:44
1012535,Cornwall Farmers Market,http://cornwallny.gov,Town of Cornwall Farmers Market,,,,183 Main Street,Cornwall,Orange,New York,12518,05/01/2016 to 10/31/2016,,,,,,,,-74.029338,41.43972,,7/13/2016 13:57
1012536,Newark Farmers Market,https://www.agriculturalinstitute.org/directory/listing-details/newark-market,https://www.facebook.com/Newark-Farmers-Market-167753743427328/?fref=ts,,,,2086 Newpark Mall,Newark,Alameda,California,,01/01/2016 to 12/31/2016,Sun: 9:00 AM-1:00 PM;,,,,,,,-121.998246,37.525397,,7/13/2016 13:50
1012537,REC University Park Farm Stand,http://www.recworcester.org/#!markets/c1m3b,https://www.facebook.com/recfarmersmarkets/?fref=ts,https://twitter.com/RECFarmMarket,,,965 Main Street,Worcester ,Worcester,Massachusetts,1610,,Sat: 9:30 AM-1:00 PM;,,,,,,,-71.821553,42.247532,,7/13/2016 14:10
1012539,Marshfield Clinic and Aspirus Farmers Market,,,,,,333 Pine Ridge Blvd,Wausau,Marathon,Wisconsin,54401,06/16/2016 to 09/29/2016,Thu: 10:00 AM-4:00 PM;,,,,,,,-89.667728,44.966094,,7/13/2016 15:55
1012540,Little Rock River Market,,Little Rock Farmers' Market,,,,400 President Clinton Ave,Little Rock,Pulaski,Arkansas,72201,05/07/2016 to 09/24/2016,Sat: 7:00 AM-3:00 PM;,,,,,,,-92.2661212,34.7476891,,7/13/2016 16:03
1012541,The Market at Good Shepherd,,"The Market at Good Shepherd, Decatur, AL",,,,"3809 Spring Ave, SW",Decatur,Morgan,Alabama,35603,08/01/2016 to 10/31/2016,Mon: 2:00 PM-6:00 PM;,,,,,,,-87.001579,34.535562,,7/13/2016 16:23
1012542,Portland Farmers Market - King,http://www.portlandfarmersmarket.org/,https://www.facebook.com/portlandfarmersmarket?v=wall,https://twitter.com/portlandfarmers,,https://www.instagram.com/portlandfarmers/,NE 7th Ave and Wygant St,Portland,Multnomah,Oregon,97211,05/01/2016 to 11/20/2016,Sun: 10:00 AM-2:00 PM;,,,,,,,-122.6585746,45.5573069,,7/13/2016 16:43
1012543,Portland Farmers Market - Northwest,http://www.portlandfarmersmarket.org/,https://www.facebook.com/portlandfarmersmarket?v=wall,https://twitter.com/portlandfarmers,,https://www.instagram.com/portlandfarmers/,NW 19th Ave and Everett St,Portland,Multnomah,Oregon,97209,06/02/2016 to 09/29/2016,Thu: 2:00 PM-6:00 PM;,,,,,,,-122.6903025,45.5249448,,7/13/2016 16:48
1012544,Portland Farmers Market - Lents International,http://www.portlandfarmersmarket.org/,https://www.facebook.com/portlandfarmersmarket?v=wall,https://twitter.com/portlandfarmers,,https://www.instagram.com/portlandfarmers/,SE 91st Ave and Foster Road,Portland,Multnomah,Oregon,97266,06/05/2016 to 10/30/2016,Sun: 9:00 AM-2:00 PM;,,,,,,,-122.570302,45.480443,,7/13/2016 16:53
1012545,Portland Farmers Market - Pioneer Courthouse Square,http://www.portlandfarmersmarket.org/,https://www.facebook.com/portlandfarmersmarket?v=wall,https://twitter.com/portlandfarmers,,https://www.instagram.com/portlandfarmers/,SW 6th Ave and Yamhill St,Portland,Multnomah,Oregon,97204,06/20/2016 to 09/26/2016,Mon: 10:00 AM-2:00 PM;,,,,,,,-122.6789927,45.5184017,,7/13/2016 17:00
1012546,Portland Farmers Market - Shemanski Park,http://www.portlandfarmersmarket.org/,https://www.facebook.com/portlandfarmersmarket?v=wall,https://twitter.com/portlandfarmers,,https://www.instagram.com/portlandfarmers/,SW Park Ave and SW Salmon St,Portland,Multnomah,Oregon,97205,05/04/2016 to 11/23/2016,Wed: 10:00 AM-2:00 PM;,,,,,,,-122.6816722,45.5176149,,7/13/2016 17:04
1012547,Portland Farmers Market - Portland State University,http://www.portlandfarmersmarket.org/,https://www.facebook.com/portlandfarmersmarket?v=wall,https://twitter.com/portlandfarmers,,https://www.instagram.com/portlandfarmers/,SW Park Ave and Montgomery St,Portland,Multnomah,Oregon,97201,03/05/2016 to 10/29/2016,Sat: 8:30 AM-2:00 PM;,11/05/2016 to 02/25/2017,Sat: 9:00 AM-2:00 PM;,,,,,-122.6850889,45.5124099,,8/30/2016 11:19
1012548,Cannon Beach Farmers Market,http://Cannon Beach Market.org,Cannon Beach Farmers Market,info@cannon Beach Farmers Market,,,163 Gower St.,Cannon Beach ,Clatsop,Oregon,97110,,Tue: 1:00 PM-5:00 PM;,,,,,,,-123.9607538,45.8898257,,7/13/2016 18:08
1012550,Westover Hills Farmers Market,http://www.westoverhills.org,Westover Hills Farmers Market,,,,6400 Kavanaugh Blvd,Little Rock ,Pulaski,Arkansas,72207,05/03/2016 to 10/25/2016,Tue: 4:00 PM-7:00 PM;,,,,,,,-92.345477,34.770334,,7/13/2016 19:34
1012551,Historic Lewes Farmers Market at Kings Highway,http://www.historiclewesfarmersmarket.org,https://www.facebook.com/historiclewesfarmersmarket/,,,,Crooked Hammock Way and Kings Highway,Lewes,Sussex,Delaware,19958,,Wed: 8:00 AM-11:00 AM;,,,,,,,-75.1513058,38.7457004,,7/13/2016 19:34
1012552,Cowtown Farmers Market,http://www.cowtownmarket.com,@cowtownfarmersmkt,,,,3821 SOUTHWEST BLVD,Fort Worth ,Tarrant,Texas,,01/01/2016 to 12/31/2016,Sat: 8:00 AM-12:00 PM;,06/01/2016 to 09/28/2016,Wed: 8:00 AM-12:00 PM;,,,,,-97.442048,32.716447,,7/20/2016 11:56
1012553,Lewistown Farmers Market,,,,,,"East Main Street, Symmes Park",Lewistown,Fergus,Montana,59457,06/18/2016 to 10/01/2016,Sat: 8:00 AM-3:00 PM;,,,,,,,-109.414827,47.071131,,7/13/2016 19:45
1012554,The Wednesday Market,http://www.wednesdaymarket.locallygrown.net,The Wednesday Market,,,,139 Adams Street,Zebulon,Pike,Georgia,30295,01/01/2016 to 12/31/2016,Wed: 3:00 PM-6:00 PM;,,,,,,,-84.343912,33.103356,,7/13/2016 21:02
1012555,Hope Farmers Market,,www.facebook.com/HopeFarmersMarket,https://twitter.com/HopeFarmMarket,,instagram: hopefarmersmarket,Corner of 3rd and Elm Streets,Hope,Hempstead,Arkansas,71801,05/03/2016 to 09/27/2016,Tue: 7:00 AM-11:00 AM;,,,,,,,-93.592601,33.667057,,7/13/2016 21:30
1012556,Pinecroft Farmers Market,http://www.pinecroftfarmersmarket.com,https://m.facebook.com/pinecroftfarmersmarket/,,,,539-555 Prospect Street,West Boylston ,Worcester,Massachusetts,1583,06/05/2016 to 10/23/2016,Sun: 9:00 AM-1:00 PM;,,,,,,,-71.8005373,42.3367495,,7/13/2016 21:55
1012557,South Cumberland Farmers Market,,,,,,39 Ballpark Road,Sewanee,Franklin,Tennessee,37375,,Tue: 4:30 PM-6:00 PM;,,,,,,,-85.9175928,35.1939672,,7/13/2016 22:09
1012558,Palm Springs Certified Farmers' Market,http://www.certifiedfarmersmarkets.org,https://www.facebook.com/CertifiedFarmersMarket/,@PSFARMERSMARKET,,Instagram: certifiedfarmersmarketscv,2300 E. Baristo Rd,Palm Springs,Riverside,California,92262,01/01/2016 to 12/31/2016,Sat: 8:00 AM-12:30 PM;,,,,,,,-116.520945,33.820181,,7/13/2016 23:58
1012559,Burnt Hills Farmers Market,,Route 50 Green Market,,,,802 Saratoga Rd. (Route 50),Burnt Hills,Saratoga,New York,12027,06/04/2016 to 10/15/2016,Sat: 9:00 AM-1:00 PM;,,,,,,,-73.8997429,42.9085405,,7/14/2016 8:02
1012560,Morganton Farmer's Market,http://www.downtownmorganton.com/index.php/shop/farmers-markets,www.facebook.com/morgantonfarmersmarket,,,,111 North Green Street,Morganton,Burke,North Carolina,28655,04/30/2016 to 10/29/2016,Wed: 1:00 PM-5:30 PM;,11/19/2016 to 11/19/2016,Sat: 11:00 AM-3:00 PM;,12/10/2016 to 12/10/2016,Sat: 11:00 AM-3:00 PM;,,,-81.688488,35.7466269,,7/14/2016 8:43
1012562,Appleton Area Farmers Market,,,,,,,Appleton,Swift,Minnesota,56208,06/08/2016 to 08/31/2016,Wed: 8:00 AM-12:00 PM;,09/07/2016 to 10/12/2016,Wed: 9:00 AM-1:00 PM;,,,,,-96.020908,45.203207,,7/14/2016 9:33
1012563,Harrison Farmer's Market ,,Www.facebook.com/harrisonfarmersmarket,,,,1425 N. Main St.,Harrison,Boone,Arkansas,726o1,04/30/2016 to 11/05/2016,Tue: 7:00 AM-12:00 PM;Thu: 4:00 AM-7:00 PM;Sat: 7:00 AM-12:00 PM;,,,,,,,-93.1172502,36.247214,,7/14/2016 9:25
1012564,White Oak Pastures,http://www.whiteoakpastures.com,whiteoakpastures,whiteoakpasture,White Oak Pastures,whiteoakpastures,101 Church St,Bluffton ,Clay,Georgia,39824,01/01/2016 to 12/31/2016,Mon: 8:00 AM-6:00 PM;Tue: 8:00 AM-6:00 PM;Wed: 8:00 AM-6:00 PM;Thu: 8:00 AM-6:00 PM;Fri: 8:00 AM-6:00 PM;Sat: 9:00 AM-6:00 PM;Sun: 11:00 AM-5:00 PM;,,,,,,,-84.8660495,31.5208669,,7/14/2016 11:34
1012567,Emory Farmers Market,http://www.emory.edu/dining/emory_farmers_market.php,https://www.facebook.com/EmoryFarmersMarket/,https://twitter.com/emoryfarmersmkt,,@EMORYFARMERSMKT,"569 Asbury Circle, Cox Hall Bridge",Atlanta,Fulton,Georgia,30322,01/01/2016 to 12/31/2016,Tue: 11:00 AM-3:00 PM;,,,,,,,-84.323671,33.792144,,7/14/2016 11:01
1012572,Downtown South Boston Farmers' Market,http://www.downtownsobo.com/?link=farmers_market,https://www.facebook.com/Downtown-South-Boston-Farmers-Market-116983188377428/,,,,300 Broad Street,South Boston ,Halifax,Virginia,24589,04/15/2016 to 09/15/2016,Mon: 7:00 AM-12:00 PM;Tue: 7:00 AM-12:00 PM;Wed: 7:00 AM-12:00 PM;Thu: 7:00 AM-12:00 PM;Fri: 7:00 AM-12:00 PM;Sat: 7:00 AM-12:00 PM;,,,,,,,-78.900165,36.697279,,7/14/2016 11:39
1012573,Twin Bridges Farmers' Market,,,,,,Main Street City Park,Twin Bridges ,Madison,Montana,59754,05/07/2016 to 09/24/2016,Sat: 9:00 AM-12:00 PM;,,,,,,,-112.3310399,45.54426,,7/14/2016 11:35
1012574,McCutcheon/Mount Vernon Farmers Market ,http://www.fairfaxcounty.gov/parks/farmersmarkets/mtvernonmkt.htm,,,,,2501 Sherwood Hall Lane,Alexandria ,Fairfax,Virginia,22306,,Wed: 8:00 AM-12:00 PM;,,,,,,,-77.0749236,38.7434755,,7/14/2016 13:47
1012575,Matthews Community Farmers Market,http://matthewsfarmersmarket.com,Matthews Farmers Market,@Matthews_Market,,,North Trade and East John Street,Matthews ,Mecklenburg,North Carolina,28105,04/16/2016 to 11/27/2016,Sat: 8:00 AM-12:00 PM;,12/03/2016 to 04/08/2017,Sat: 8:00 AM-10:00 AM;,,,,,-80.722125,35.115766,,7/14/2016 12:05
1012576,Rockville Farmers Market,http://www.rockvillemd.gov/farmers,/RockvilleFarmersMarket,,,,Route 28 & Monroe Street,Rockville,Montgomery,Maryland,20850,05/14/2016 to 11/19/2016,Sat: 9:00 AM-1:00 PM;,,,,,,,-77.1492295,39.0819115,,7/14/2016 11:49
1012577,Simply Homegrown:  A Farmers' Market,http://www.rabunmarket.com,"simplyhomegrown, a farmers market",,,,837 hwy. 76w,clayton,Rabun,Georgia,30525,04/01/2016 to 10/29/2016,Sat: 9:00 AM-1:00 PM;,,,,,,,-83.4665588,34.8703554,,7/14/2016 12:10
1012578,Oak Marr Farmers Market ,http://www.fairfaxcounty.gov/parks/farmersmarkets/,,,,,3200 Jermantown Road,Oakton ,Fairfax,Virginia,22124,,Wed: 8:00 AM-12:00 PM;,,,,,,,-77.3142595,38.8751363,,7/14/2016 12:18
1012579,Powhatan Farmers Market,http://www.powhatanfarmersmarket.com,Powhatan Farmers Market,,,,2470 Anderson Hwy,Powhatan,Powhatan,Virginia,23139,05/05/2016 to 10/27/2016,Thu: 4:00 PM-7:00 PM;,,,,,,,-77.817293,37.522266,,7/14/2016 12:19
1012580,Pikeville Farmers Market,,Pikeville Farmers Market,,,,148 Trivette Drive,Pikeville,Pike,Kentucky,41501,06/04/2016 to 11/19/2016,Tue: 4:30 PM-7:00 PM;Sat: 9:00 AM-1:00 PM;,,,,,,,-82.516149,37.484163,,7/14/2016 13:22
1012583,Booneville Community Market,http://RuralDigitalBridge.org,STEPUPArkansas,,,,Broadway and 2nd St,Booneville ,Logan,Arkansas,72927,,Sat: 8:00 AM-12:00 PM;,,,,,,,-93.9219446,35.1391229,,7/14/2016 13:45
1012584,Sustainable Nantucket Farmers & Artisans Market,http://www.SustainableNantucket.org,https://www.facebook.com/Sustainable-Nantucket-Farmers-Artisans-Market-93323744428/?ref=bookmarks,,,,Cambridge Street and North Union Street,Nantucket ,Nantucket,Massachusetts,2554,06/11/2016 to 10/15/2016,Sun: 9:00 AM-1:00 PM;,,,,,,,-70.0983564,41.2840228,,7/14/2016 13:49
1012586,Wakefield Farmers Market ,http://www.fairfaxcounty.gov/parks/farmersmarkets/wakefieldmkt.htm,,,,,8100 Braddock Road,Annandale,Fairfax,Virginia,22003,,Wed: 2:00 PM-6:00 PM;,,,,,,,-77.2252242,38.8146476,,7/14/2016 13:55
1012587,Palm Desert Certified Farmers Market ,http://www.certifiedfarmersmarkets.org,https://www.facebook.com/CertifiedFarmersMarket/,@PSFARMERSMARKET,,Instagram: certifiedfarmersmarketscv,72-559 Hwy 111,Palm Desert,Riverside,California,92260,10/05/2016 to 04/26/2017,Wed: 8:00 AM-12:30 PM;,,,,,,,-116.400311,33.723677,,7/14/2016 14:03
1012588,Annandale Farmers Market ,http://www.fairfaxcounty.gov/parks/farmersmarkets/annandalemkt.htm,,,,,6621 Columbia Pike ,Annandale,Fairfax,Virginia,22003,,Thu: 8:00 AM-12:00 PM;,,,,,,,-77.1743282,38.8348371,,7/14/2016 14:03
1012589,CentraCare Health Family Farmers Market,http://www.marketmonday.org/,https://www.facebook.com/pages/Market-MondaySartell-Saturday-Winter-Market/204582149559040,,https://www.youtube.com/user/marketmondays,,1900 CentraCare Circle,St. Cloud ,Stearns,Minnesota,56303,06/16/2016 to 10/13/2016,Thu: 3:00 PM-6:00 PM;,,,,,,,-94.20525,45.581787,,7/14/2016 14:10
1012590,Floyd Farmers Market,http://sustainfloyd.org,floydfarmersmarket,,,,203 South Locust Street,Floyd,Floyd,Virginia,24091,05/14/2016 to 11/19/2016,Sat: 9:00 AM-1:00 PM;,,,,,,,-80.319761,36.91065,,7/14/2016 14:12
1012591,Old Town La Quinta Certified Farmers Market,http://www.certifiedfarmersmarkets.org,https://www.facebook.com/CertifiedFarmersMarket/,@PSFARMERSMARKET,,Instagram: certifiedfarmersmarketscv,78100 Main Street,La Quinta,Riverside,California,92253,10/02/2016 to 05/28/2017,Sun: 8:00 AM-12:30 PM;,,,,,,,-116.302435,33.67749,,7/14/2016 14:15
1012592,Government Center Farmers Market ,http://www.fairfaxcounty.gov/parks/farmersmarkets/governmentcntr-mrkt.htm,,,,,12000 Government Center Pkwy,Fairfax ,Fairfax,Virginia,22035,,Thu: 3:00 PM-7:00 PM;,,,,,,,-77.3563658,38.8541263,,7/14/2016 14:54
1012593,Boston University Farmers Market,http://www.bu.edu/dining/about-us/sustainability/farmers-market/,,,,,775 Commonwealth Ave,Boston,Suffolk,Massachusetts,2215,09/08/2016 to 10/27/2016,Thu: 11:00 AM-3:00 PM;,,,,,,,-71.10847,42.350598,,7/14/2016 14:15
1012594,McLean Farmers Market ,http://www.fairfaxcounty.gov/parks/farmersmarkets/mcleanmkt.htm,,,,,1659 Chain Bridge Road ,McLean,Fairfax,Virginia,22101,,Fri: 8:00 AM-12:00 PM;,,,,,,,-77.19051,38.9287009,,7/14/2016 14:53
1012595,Tobin FarmArt Market,,,,,,110 Auditorium Circle,San Antonio,Bexar,Texas,78205,01/01/2016 to 12/31/2016,Mon: 4:00 PM-7:00 PM;,,,,,,,-98.488822,29.43105,,7/14/2016 14:24
1012598,Burke Farmers Market ,http://www.fairfaxcounty.gov/parks/farmersmarkets/burkemkt.htm,,,,,"VRE Parking Lot, 5671 Roberts Parkway",Burke ,Fairfax,Virginia,22015,,Sat: 8:00 AM-12:00 PM;,,,,,,,-77.298861,38.796975,,7/14/2016 14:56
1012599,Fifth Street Farmers' Market,,Fifth Street Farmers Market,,,,W. Fifth Street,Sycamore,Wyandot,Ohio,44882,06/11/2016 to 10/08/2016,Sat: 9:00 AM-12:00 PM;,,,,,,,-83.1708481,40.9509495,,7/14/2016 14:46
1012600,Plainfield Township Farmers Market Hale,,,,,,220 N. Washington,Hale,Iosco,Michigan,48739,06/04/2016 to 10/29/2016,Sat: 8:00 AM-12:00 PM;,,,,,,,-83.803406,44.379872,,7/14/2016 15:01
1012601,Reston Farmers Market ,http://www.fairfaxcounty.gov/parks/farmersmarkets/restonmkt.htm,,,,,"Lake Anne Village Center, 11401 North Shore Drive ",Reston ,Fairfax,Virginia,20190,,Sat: 8:00 AM-12:00 PM;,,,,,,,-77.3570028,38.9586307,,7/14/2016 15:20
1012602,Hutchinson Farmers' Market,,https://www.facebook.com/HutchinsonFarmersMarket/,,,https://www.instagram.com/hutchfarmersmarket/,25 Adams Street SE,Hutchinson,McLeod,Minnesota,55350,01/16/2016 to 04/16/2016,Sat: 11:30 AM-3:00 PM;,05/14/2016 to 10/29/2016,Wed: 2:30 AM-5:30 PM;Sat: 8:00 AM-12:00 PM;,,,,,-94.364513,44.892092,,7/14/2016 15:11
1012603,Lebanon Farmers' Market,http://www.lebanonfarmersmarket.org,https://www.facebook.com/lebanonfarmersmarket,,,,51 North Park St,Lebanon ,Grafton,New Hampshire,3766,05/19/2016 to 09/29/2016,Thu: 4:00 PM-7:00 PM;,,,,,,,-72.2513957,43.6428883,,7/14/2016 15:04
1012604,Vienna Saturday Farmers Market,http://VIENNAFARMERSMARKET.COM,www.facebook.com/Vienna-Farmers-Market,,,,301 Center St Sotuh,Vienna,Fairfax,Virginia,22180,05/07/2016 to 10/29/2016,Sun: 8:00 AM-12:00 PM;,,,,,,,-77.2628865,38.8991973,,7/14/2016 15:17
1012605,Lorton Farmers Market ,http://www.fairfaxcounty.gov/parks/farmersmarkets/lortonmkt.htm,,,,,8990 Lorton Station Boulevard,Lorton ,Fairfax,Virginia,22079,,Sun: 9:00 AM-1:00 PM;,,,,,,,-77.2141457,38.7152174,,7/14/2016 15:17
1012606,El Dorado Farmers Market ,,https://www.facebook.com/eldoarkfarmers.market/,,,,1101 N.W. Ave,El Dorado,Union,Arkansas,71730,04/16/2016 to 10/29/2016,Wed: 8:00 AM-12:00 PM;Sat: 8:00 AM-12:00 PM;,,,,,,,-92.665108,33.222386,,7/14/2016 15:29
1012607,Plain Township Farmers' Market,,https://www.facebook.com/PlainTownshipFarmersMarket/,,,,1714 Schneider Street NE,Canton,Stark,Ohio,44721,05/02/2016 to 09/26/2016,Mon: 4:00 PM-7:00 PM;,,,,,,,-81.349933,40.867046,,7/14/2016 15:33
1012608,Downtown Farmers' Market - Des Moines,http://www.desmoinesfarmersmarket.com/,https://www.facebook.com/DowntownFarmersMarket/,https://twitter.com/DTFarmersMarket,https://www.youtube.com/user/Downtown50309,,Court Avenue and 3rd Street,Des Moines,Polk,Iowa,50309,05/07/2016 to 09/24/2016,Sat: 7:00 AM-12:00 PM;,10/01/2016 to 10/29/2016,Sat: 8:00 AM-12:00 PM;,,,,,-93.6204386,41.5853202,,7/14/2016 15:38
1012609,Produce in the Park,,produceinthepark,,,,10 West 7th Street,Atlantic ,Cass,Iowa,50022,06/02/2016 to 09/29/2016,Thu: 4:30 PM-6:30 PM;,,,,,,,-95.013901,41.404685,,7/14/2016 15:47
1012610,Church + Main Market,http://churchmain.com,,,,,1848 Church Street,Appomattox ,Appomattox,Virginia,24522,09/03/2016 to 12/31/2016,Mon: 8:00 AM-12:00 PM;,,,,,,,-78.826597,37.353163,,7/14/2016 17:01
1012611,Yorktown Market Days,http://villageevents.org/,"Village Events, ltd.",,,,"331 Water Street,",Yorktown,York,Virginia,23690,05/14/2016 to 10/29/2016,Sat: 9:00 AM-1:00 PM;,,,,,,,-76.508206,37.238105,,7/14/2016 16:48
1012612,Lewis County Farmer's Markets DBA Centralia Farmer's Market,http://www.lewiscountyfarmersmarket.org/index.html,https://www.facebook.com/Centralias-Lewis-County-Farmers-Market-759554527389826/,,,,Corner of N. Pearl and Maple Streets,Centralia ,Lewis,Washington,98531,04/29/2016 to 09/30/2016,Fri: 10:00 AM-3:30 PM;,,,,,,,-122.9543076,46.7193298,,7/14/2016 16:53
1012614,Waukee Downtown Farmers Market,http://waukeedowntown.com,,,,,Ashworth Dr. and 6th St.,Waukee ,Dallas,Iowa,50263,06/01/2016 to 09/28/2016,Wed: 4:00 AM-7:00 AM;,,,,,,,-93.8855918,41.6119491,,7/14/2016 18:05
1012615,East New York Farmers' Market,http://eastnewyorkfarms.org/,,,,,613 New Lots Ave,Brooklyn,Kings,New York,11207,06/25/2016 to 11/26/2016,Sat: 9:00 AM-3:00 PM;,,,,,,,-73.8866767,40.6649239,,7/14/2016 18:04
1012616,Cedar Falls Farmers Market,https://cedarfallsfarmersmarket.net/,https://www.facebook.com/Cedar-Falls-Farmers-Market-116358658381830/,CFFarmersMkt,,,Clay & Third Streets,Cedar Falls,Black Hawk,Iowa,50613,05/07/2016 to 10/29/2016,Sat: 8:30 AM-12:00 PM;,,,,,,,-92.4481584,42.5359498,,7/14/2016 19:07
1012618,Leesburg Farmers Market,http://loudounfarmersmarkets.org,https://www.facebook.com/LeesburgFarmersMarket/,https://twitter.com/LoudounFarmMkts,https://www.youtube.com/channel/UCLtKasFkU1Reojzjl1-imyw,https://www.instagram.com/loudounfarmmkts,Catoctin Circle SE,Leesburg,Loudoun,Virginia,20175,05/07/2016 to 10/29/2016,Sat: 8:00 AM-12:00 PM;,05/04/2016 to 10/26/2016,Wed: 3:00 PM-6:00 PM;,11/05/2016 to 04/29/2017,Sat: 9:00 AM-12:00 PM;,,,-77.567028,39.10795,,7/14/2016 21:42
1012619,Grow Benzie Farmers Market,http://www.GrowBenzie.org/,https://www.facebook.com/Growbenzie/?fref=ts,,,,5885 Frankfort Hwy.,Benzonia,Benzie,Michigan,49616,06/06/2016 to 10/03/2016,Mon: 3:00 PM-7:00 PM;,,,,,,,-86.12149,44.630837,,7/14/2016 19:59
1012620,Kanawha Farmers Market,,,,,,,Kanawha,Hancock,Iowa,50447,06/13/2016 to 10/10/2016,Mon: 3:00 PM-5:00 PM;,,,,,,,-93.7932746,42.9377443,,7/14/2016 20:42
1012621,Ida Area Farmers' Market,http://www.idafarmersmarket.com,Ida Area Farmers Market,,,,2nd Street,Ida Grove,Ida,Iowa,51445,06/02/2016 to 09/29/2016,Thu: 4:00 PM-7:00 PM;,,,,,,,-95.470874,42.345173,,7/14/2016 20:47
1012623,Glen Rock Farmer's Market,,https://www.facebook.com/TheRuinsPark/,,,,30 Enterprise Street,Glen Rock borough,York,Pennsylvania,17327,05/15/2016 to 10/16/2016,Sun: 10:00 AM-1:00 PM;,,,,,,,-76.733814,39.794187,,7/14/2016 21:23
1012624,Bettendorf Farmers' Market,http://mvgrowers.com,Mississippi Valley Growers farmers Market,,,,,Bettendorf ,Scott,Iowa,52722,05/02/2016 to ,Mon: 2:30 AM-5:30 AM;Thu: 2:30 AM-5:30 AM;,,,,,,,-90.50228,41.524972,,7/14/2016 21:57
1012625,Bryan House Farmers Market,,,,,,1113  E. Mile 2 Rd,Mission ,Hidalgo,Texas,78574,10/01/2016 to ,Sat: 12:00 PM-2:00 PM;,,,,,,,-98.305365,26.241991,,7/15/2016 0:35
1012626,iowa falls farmers' market,,,,,,Corner of Rocksylvania Ave. anb Stevens St.,Iowa Falls,Hardin,Iowa,,05/07/2016 to 10/15/2016,Wed: 5:00 PM-7:00 PM;Sat: 8:30 AM-11:30 AM;,,,,,,,-93.26427,42.521386,,7/14/2016 22:35
1012627,Fearrington Farmers' Market,http://fearringtonfarmersmarket.com,https://www.facebook.com/fearringtonfarmersmarket,,,,East Camden,Fearrington Village,Chatham,North Carolina,27312,04/05/2016 to 11/22/2016,Tue: 4:00 AM-6:00 PM;,,,,,,,-79.086495,35.800131,,7/17/2016 12:27
1012628,Knoxville Farmers' Market ,,knoxville farmers market,,,,,Knoxville ,Marion,Iowa,50138,05/28/2016 to 10/15/2016,Tue: 2:30 PM-6:00 PM;Sat: 8:00 AM-12:00 PM;,,,,,,,-93.097039,41.318334,,7/14/2016 22:52
1012629,Belle Plaine Farmers Market,,Belle Plaine IA Farmers Mkt,,,,12th St and 9th Ave,Belle Plaine ,Benton,Iowa,,07/01/2016 to 10/28/2016,Fri: 5:00 PM-7:00 PM;,,,,,,,-92.2749472,41.8963048,,7/14/2016 23:50
1012630,Neillsville Farmers Market,,,,,,Corners of Hewett & 5th Street,Neillsville ,Clark,Wisconsin,54456,07/16/2016 to 09/24/2016,Sat: 8:00 AM-12:00 PM;,,,,,,,-90.596173,44.559826,,7/15/2016 3:16
1012632,Boone Street Market,http://jonesborough.locallygrown.net,facebook.com/Boone-Street-Market-738767102860278/,@boonestmarket,,,101 Boone Street,Jonesborough,Washington,Tennessee,37659,01/01/2016 to 12/31/2016,Mon: 10:00 AM-6:00 PM;Tue: 10:00 AM-6:00 PM;Wed: 10:00 AM-6:00 PM;Thu: 10:00 AM-6:00 PM;Fri: 10:00 AM-6:00 PM;Sat: 10:00 AM-5:00 PM;,,,,,,,-82.471979,36.295271,,7/15/2016 7:57
1012633,The Madison Farmer's Market Inc.,http://Www.themadisonfarmersmarket.org,The Madison farmers market,,,,4 E. Mifflin St.,Madison,Dane,Wisconsin,53703,04/17/2016 to 11/06/2016,Sun: 8:00 AM-2:00 PM;,,,,,,,-89.382937,43.075298,,7/15/2016 8:29
1012634,Eldora Farmers Market,,,,,,Corner of Edgington Ave. and 14th Street,Eldora,Hardin,Iowa,50627,05/12/2016 to 10/13/2016,Fri: 4:00 PM-6:00 PM;,,,,,,,-93.1007727,42.3606264,,7/15/2016 8:29
1012635,Belchertown Farmers Market,http://belchertownfarmersmarket.weebly.com/,https://www.facebook.com/Belchertown-Farmers-Market-112245358807378/,https://twitter.com/marketbtown,,http://imgleak.com/user/belchertownfarmersmarket/2085736663,On The Common,Belchertown,Hampden,Massachusetts,1007,06/19/2016 to 10/09/2016,Sun: 10:00 AM-2:00 PM;,,,,,,,-72.40138,42.277868,,7/15/2016 8:57
1012636,Canterbury Community Farmers Market Association,http://www.ccfma.net,Canterbury Community Farmers Market Association,,,, Center Street,Canterbury,Merrimack,New Hampshire,3224,06/08/2016 to 10/05/2016,Wed: 4:00 PM-6:30 PM;,,,,,,,-71.565515,43.338273,,7/15/2016 8:54
1012637,Lemhi County Farmers' Market,http://www.lemhicountyfarmersmarket.wordpress.com,www.facebook.com/lemhicountyfarmersmarket,,,,103 Main St,Salmon,Lemhi,Idaho,83467,06/04/2016 to 09/24/2016,Sat: 9:00 AM-1:00 PM;,,,,,,,-113.897794,45.176588,,7/15/2016 9:32
1012638,Uptown Fresh Healthy Lifestyle Market,,,,,,3248 Bailey Ave, Buffalo,Erie,New York,14215,06/25/2016 to 09/24/2016,Sat: 10:00 AM-2:00 PM;,,,,,,,-78.8136755,42.9432192,,7/19/2016 22:06
1012639,Port Jervis Healthy Orange Farmers Market,http://Pjfarmmarket.com,Port Jervis Farmers Market,,,Instagram @pjfarmersmarket,Corner of Hammond and Pike Streets,Port Jervis ,Orange,New York,12771,06/25/2016 to 10/29/2016,Sat: 9:00 AM-1:00 PM;,,,,,,,-74.6923041,41.3755313,,7/15/2016 10:46
1012640,Morgan County-Decatur Farmers Market,,https://www.facebook.com/Morgan-CountyDecatur-Farmers-Market-174610319238067,,,,211 1st Ave SE,Decatur,Morgan,Alabama,35601,04/23/2016 to 06/20/2016,Mon: 7:00 AM-3:00 PM;Wed: 7:00 AM-3:00 PM;Fri: 7:00 AM-3:00 PM;Sat: 7:00 AM-3:00 PM;,06/21/2016 to 10/31/2016,Mon: 7:00 AM-3:00 PM;Tue: 7:00 AM-3:00 PM;Wed: 7:00 AM-3:00 PM;Thu: 7:00 AM-3:00 PM;Fri: 7:00 AM-3:00 PM;Sat: 7:00 AM-3:00 PM;,,,,,-86.986876,34.600893,,7/15/2016 10:43
1012641,Livingston Farmers Market,http://www.westernsustainabilityexchange.org,,,,,215 W. River Drive ,Livingston,Park,Montana,59047,06/01/2016 to 09/21/2016,Wed: 4:30 PM-7:30 PM;,,,,,,,-110.556745,45.654233,,7/15/2016 10:44
1012642,Lamoni Farmer's Market,,Lamoni Farmers' Market,,,,610 E Main,Lamoni,Decatur,Iowa,50140,05/07/2016 to ,Wed: 4:00 PM-7:00 PM;,,,,,,,-93.9262744,40.6236762,,7/15/2016 10:55
1012644,Rockingham Farmers' Market,,https://www.facebook.com/RockinghamFarmersMarket/,,,,125 E. Washington Street,Rockingham,Richmond,North Carolina,28379,04/30/2016 to 10/29/2016,Wed: 8:00 AM-12:00 PM;Sat: 8:00 AM-12:00 PM;,,,,,,,-79.774713,34.939215,,7/15/2016 11:27
1012645,Freight House Farmers' Market,http://www.freighthhousefarmersmarket.com,Freight House Farmers Market,,,Instagram: FreightHouseFarmersMarket,"421 W. River Drive, Last Suite-Closest to Playground",Davenport,Scott,Iowa,52805,01/01/2016 to 12/31/2016,Tue: 3:00 PM-6:00 PM;Sat: 8:00 AM-1:00 PM;Sun: 10:00 AM-2:00 PM;,,,,,,,-90.580319,41.520005,,7/15/2016 11:29
1012646,Leominster Marketplace,http://www.leominstermarketplace.com,https://www.facebook.com/LeominsterMarketplace,,,,25 West Street,Leominster ,Worcester,Massachusetts,1453,05/07/2016 to 09/17/2016,Sat: 9:00 AM-1:00 PM;,10/01/2016 to 12/18/2016,Sat: 10:00 AM-2:00 PM;Sun: 10:00 AM-2:00 PM;,02/06/2016 to 04/02/2016,Sat: 10:00 AM-2:00 PM;Sun: 10:00 AM-2:00 PM;,,,-71.760614,42.526424,,7/15/2016 12:07
1012647,Niagara Falls City Market,,,,,,Pine Avenue at 18th Street,"Niagara Falls, USA",Niagara,New York,,01/01/2016 to 12/31/2016,Mon: 8:00 AM-3:00 PM;Wed: 8:00 AM-3:00 PM;Fri: 8:00 AM-3:00 PM;,,,,,,,-79.040395,43.096277,,7/15/2016 12:07
1012648,Prairie Street Farmers Market,,Prairie Street Farmers Market,,,,312 W Blackhawk. Ave,Prairie du Chien ,Crawford,Wisconsin,53821,05/07/2016 to 10/15/2016,Sat: 8:00 AM-1:00 PM;,,,,,,,-91.149952,43.05166,,7/15/2016 12:33
1012649,Park Place Market,http://www.parkplacemarketnf.com,www.facebook.com/parkplacemarket,,,,630 Main Street,Niagara Falls,Niagara,New York,14301,01/01/2016 to 12/31/2016,Tue: 10:00 AM-1:00 PM;Thu: 10:00 AM-6:00 PM;Sat: 10:00 AM-3:00 PM;,,,,,,,-79.0574029,43.093571,,7/15/2016 12:25
1012651,Anthem Farmers Market,http://www.arizonacommunityfarmersmarkets.com/FM_Anthem.html,ww.facebook.com/Anthem-Farmers-Market-608872579141231/,Anthemfm1,,,41703 N. Gavilan Peak Pkwy,Anthem ,Maricopa,Arizona,85086,10/02/2016 to 05/28/2017,Sun: 9:00 AM-1:00 PM;,,,,,,,-112.136313,33.862997,,7/15/2016 13:25
1012652,The Green Market,http://greenmarketmilledgeville.com,https://www.facebook.com/GreenMarketMilledgeville/,https://twitter.com/millygmarket,,,222 East Hancock St,Milledgeville,Baldwin,Georgia,31061,01/01/2016 to 12/31/2016,Sat: 9:00 AM-12:00 PM;,,,,,,,-83.22488,33.082027,,7/15/2016 13:19
1012653,Renton Farmers Market,http://rentonfarmersmarket.com,https://www.facebook.com/RentonFarmersMarket/,https://twitter.com/RentonFarmersM,,https://www.instagram.com/rentonfarmersmarket/,233 Burnett Ave South,Renton,King,Washington,98057,06/07/2016 to 09/27/2016,Tue: 3:00 PM-7:00 PM;,,,,,,,-122.2084872,47.4802495,,7/15/2016 13:22
1012654,Carefree Farmers Market,http://www.arizonacommunityfarmersmarkets.com/FM_Carefree.html,https://www.facebook.com/Carefree-Farmers-Market-151858821512415/,https://twitter.com/CarefreeMarket,,,1 Sundial Circle,Carefree ,Maricopa,Arizona,85377,10/07/2016 to 05/26/2017,Fri: 9:00 AM-1:00 PM;,,,,,,,-111.9217879,33.8246683,,7/15/2016 13:33
1012655,Verrado Community Farmers Market,http://www.arizonacommunityfarmersmarkets.com/FM_Verrado.html,https://www.facebook.com/VerradoCommunityFarmersMarket/,,,,Main Street and N. Verrado Way,Buckeye,Maricopa,Arizona,85396,11/05/2016 to 05/27/2017,Sat: 9:00 AM-1:00 PM;,,,,,,,-112.514122,33.495874,,7/15/2016 13:45
1012656,Pine River Market Square,https://prmarketsquare.wordpress.com/,https://www.facebook.com/Pine-River-Market-Square-181422103911/,,,https://www.instagram.com/pine_river_market_square/?hl=en,Barclay Ave & 3rd Street,Pine River,Cass,Minnesota,56474,05/27/2016 to 09/30/2016,Fri: 2:30 PM-5:30 PM;,,,,,,,-94.4018273,46.719848,,7/15/2016 14:01
1012657,The AZ Capitol Farmers Market ,http://www.arizonacommunityfarmersmarkets.com/FM_TheCapitol.html,https://www.facebook.com/State-Capitol-Farmers-Market-1572316693029038/,,,,1700 W. Adams Street,Phoenix ,Maricopa,Arizona,85007,1/12/2017,Thu: 10:30 AM-1:30 PM;,,,,,,,-112.096154,33.44892,,7/15/2016 14:39
1012659,Sun City Farmers Market,http://www.arizonacommunityfarmersmarkets.com/FM_SunCity.html,acebook.com/Sun-City-Farmers-Market-631299790224049/,,,,16820 N. 99th Avenue,Sun City,Maricopa,Arizona,85351,10/06/2016 to 05/25/2017,Thu: 9:00 AM-1:00 PM;,,,,,,,-112.273728,33.634933,,7/15/2016 15:00
1012660,Black Seed Farmers Market,http://www.blackseedfarmersmarket.com,www.facebook.com/blackseedfarmersmarket,,,,248 East Mountain St.,Worcester,Worcester,Massachusetts,1606,,Sun: 10:00 AM-2:00 PM;,,,,,,,-71.7738903,42.3154222,,7/15/2016 15:22
1012661,Southwest DC Farmer's Market,http://www.dreamingoutloud.org,https://www.facebook.com/DOLmarkets/,https://twitter.com/DOLDC,,https://www.instagram.com/doldc/,425 M Street SW,"Washington, DC",District of Columbia,District of Columbia,20024,05/28/2016 to 11/19/2016,Sat: 10:00 AM-2:00 PM;,,,,,,,-77.018177,38.87689,,7/15/2016 15:40
1012662,Dillsburg Farmers' Market,http://dillsburgfarmersma.wix.com/dbgfarmersmarket,facebook.com/DillsburgFarmersMarket/,twitter.com/dbgfarmers,youtube.com/channel/UCut3qwS3znzDQ63WGVMnQ0A/feed,instagram.com/dbgfarmers,117 N. Baltimore Street,Dillsburg,York,Pennsylvania,17019,05/21/2016 to 10/08/2016,Sat: 8:00 AM-12:00 PM;,10/22/2016 to 11/19/2016,Sat: 9:00 AM-12:00 PM;,,,,,-77.036579,40.112875,,7/15/2016 15:58
1012663,Minnesota Avenue Farmer's Market,http://www.dreamingoutloud.org,https://www.facebook.com/DOLmarkets/,https://twitter.com/DOLDC,,https://www.instagram.com/doldc/,3924 Minnesota Avenue NE,"Washington, DC",District of Columbia,District of Columbia,20019,06/01/2016 to 11/16/2016,Wed: 3:00 PM-6:00 PM;,,,,,,,-76.950947,38.893844,,7/15/2016 15:48
1012664,El Centro de Laredo Farmers Market,http://laredomainstreet.org/,laredomainstreet,laredomainstreet,,Instagram: laredomainstreet,1301 Farragut St.,Laredo,Webb,Texas,78040,01/01/2016 to 12/31/2016,Sat: 9:00 AM-1:00 PM;,,,,,,,-99.508713,27.505348,,7/15/2016 16:10
1012665,Dripping Springs Farmers Market,http://cityofdrippingsprings.com,Dripping Springs Farmers Market - Official,,,instagram,140 East Mercer Street,Dripping Springs ,Hays,Texas,78620,01/01/2016 to 12/31/2016,Wed: 3:00 PM-7:00 PM;,,,,,,,-98.0864453,30.1922992,,7/15/2016 16:43
1012666,Corpus Christi Downtown Farmers' Market,http://www.ccdowntownfm.com,https://www.facebook.com/CorpusChristiDowntownFarmersMarket/,https://twitter.com/ccdowntownfm,https://www.youtube.com/channel/UCYbRpp3vuRs5xLsbrB1ospA,https://www.instagram.com/ccdowntownfm/,100 N Shoreline Blvd,Corpus Christi ,Nueces,Texas,78401,01/01/2016 to 12/31/2016,Wed: 5:00 PM-8:00 PM;,,,,,,,-97.392539,27.791933,,7/15/2016 16:40
1012667,Irvington Farmers Market,http://www.irvingtonfarmersmarket.org,facebook.com/irvingtonFM,,,,NE 16th Avenue (between Broadway & Weidler),Portland,Multnomah,Oregon,97212,06/05/2016 to 10/30/2016,Sun: 9:30 AM-2:30 PM;,,,,,,,-122.649445,45.534667,,7/15/2016 17:16
1012668,Menomonie Farmer's Market,http://www.westcap.org,https://www.facebook.com/Menomonie-Farmers-Market-132792951987/,,,,"Wilson Park, 8th Street",Menomonie ,Dunn,Wisconsin,54751,05/21/2016 to 10/22/2016,Wed: 11:30 AM-6:00 PM;Sat: 8:00 AM-1:00 PM;,,,,,,,-91.921551,44.875275,,7/15/2016 17:33
1012669,Wellfleet Farmers' Market,http://www.wellfleetfarmersmarket.com,wellfeetfarmersmarket,,,,335 Main Street,Wellfleet,Barnstable,Massachusetts,2667,05/18/2016 to 10/12/2016,Wed: 8:00 AM-12:00 PM;,,,,,,,-70.0324231,41.9385003,,7/15/2016 17:36
1012670,Carlisle Farmer's Market,,http://www.facebook.com/CarlisleFarmersMarket/,,,,95 Highway 5,Carlisle,Warren,Iowa,50047,06/04/2016 to 10/29/2016,Sat: 8:30 AM-11:30 AM;,,,,,,,-93.486073,41.494981,,7/15/2016 18:04
1012671,Roslyn Farmers Market,http://www.roslynfarmersmarket.org/,https://www.facebook.com/RoslynFarmersMarket/,,,,101 Pennsylvania Ave.,Roslyn,Kittitas,Washington,98941,06/12/2016 to 09/11/2016,Sun: 10:00 AM-2:00 PM;,,,,,,,-120.993868,47.222756,,7/15/2016 18:02
1012675,Slippery Rock Community Farmers Market ,,https://www.facebook.com/SRCFM/,,,,111 Stoughton Beach,Slippery Rock,Butler,Pennsylvania,16057,05/07/2016 to 10/29/2016,Sat: 9:00 AM-12:00 PM;,,,,,,,-80.0304479,41.0377656,,7/15/2016 21:56
1012676,Winneshiek Farmers Market,"http://www,winnehiekfarmersmarket.com",,,,,Lower Oneota Coop Parking lot,Decorah,Winneshiek,Iowa,52101,05/01/2016 to 10/31/2016,Wed: 3:00 PM-6:00 PM;Sat: 8:00 AM-11:00 AM;,,,,,,,-91.788765,43.3046,,7/16/2016 0:16
1012677,Spencer Riverfront Farmers Market,,https://www.facebook.com/SpencerRiverfrontDistrictFarmersMarket/,,,,24 West Park Street,Spencer,Clay,Iowa,51301,06/04/2016 to 10/08/2016,Sat: 8:00 AM-12:00 PM;,,,,,,,-95.1457676,43.1375126,,7/16/2016 7:20
1012678,Drake Neighborhood Farmers Market,http://www.drakefarmersmarket.org,https://www.facebook.com/drakefarmersmarket/,,,,University Avenue and 26th St,Des Moines,Polk,Iowa,50311,05/18/2016 to 10/26/2016,Wed: 4:00 PM-7:00 PM;,,,,,,,-93.6521667,41.6003891,,7/16/2016 9:22
1012679,Bensenville French Market,http://www.bensidounmidwestmarkets.com/,facebook.com/BensenvilleFrenchMarket,https://twitter.com/BensidounMarket,,https://www.instagram.com/bensidounfrenchmarket/,10 S Center street,Bensenville,DuPage,Illinois,60105,06/15/2016 to 08/31/2016,Wed: 5:00 PM-9:00 PM;,,,,,,,-87.941926,41.95608,,7/16/2016 17:11
1012680,Lisle French Market,http://www.bensidounmidwestmarkets.com/,facebook.com/LisleFrenchMarket,https://twitter.com/BensidounMarket,,https://www.instagram.com/bensidounfrenchmarket/,Garfield Ave. North of Burlington,Lisle,DuPage,Illinois,60532,06/11/2016 to 09/03/2016,Sat: 8:00 AM-1:00 PM;,,,,,,,-88.076118,41.799605,,7/16/2016 17:18
1012681,Fox Point Farmers' Market,,Fox Point Farmers' Market,,,,7300 N. Lombardy Rd.,Fox Point,Milwaukee,Wisconsin,53217,06/18/2016 to 10/15/2016,Sun: 8:00 AM-12:00 PM;,,,,,,,-87.905279,43.149451,,7/17/2016 16:51
1012682,Manson Farmers Market,,,,,,Water Tower Park,Manson,Calhoun,Iowa,50563,07/05/2016 to 09/27/2016,Tue: 4:00 PM-6:00 PM;,,,,,,,-94.5341421,42.5291439,,7/17/2016 14:26
1012683,Heights City Market,,,,,,99 Center Street,Muskegon Heights ,Muskegon,Michigan,49444,06/03/2016 to 09/30/2016,Fri: 12:00 PM-6:00 PM;,,,,,,,-86.242558,43.201885,,7/17/2016 22:37
1012684,White House Farmers Merket,http://www.cityofwhitehouse.com/government/white-house-farmers-market-information,https://www.facebook.com/WHFarmersMarket/,https://twitter.com/,,,105 College Street,White House,Sumner,Tennessee,37188,05/25/2016 to 08/31/2016,Wed: 3:30 PM-7:00 PM;,,,,,,,-86.6525697,36.4679044,,7/18/2016 8:33
1012685,Fairburn Farmers Market,http://www.fairburnfarmersmarket.com,Fairburn Farmers Market,,,,15 West Broad Street ,Fairburn,Fulton,Georgia,30213,06/03/2016 to 08/26/2016,Fri: 4:00 PM-7:00 PM;,,,,,,,-84.582082,33.566788,,7/18/2016 10:11
1012686,East Bayfront Eats & Arts,,facebook.com/eatsandarts,,,,6th & Parade,Erie,Erie,Pennsylvania,16507,,Sat: 10:00 AM-3:00 PM;,,,,,,,-80.0766831,42.13264,,7/18/2016 10:20
1012687,Welk Certified Farmers' Market,,facebook.com/welkfm,,,instagram: @welkfm,8860 Lawrence Welk Dr,Escondido,San Diego,California,92026,01/01/2016 to 12/31/2016,Mon: 3:00 PM-7:00 PM;,,,,,,,-117.142839,33.232552,,7/18/2016 11:14
1012688,Encinitas Station Certified Farmers Market,http://farmersmarketencinitas.com,https://www.facebook.com/Encinitas-Station-Certified-Farmers-Market-180841945358756/?ref=bookmarks,,,instagram: @encinitasfarmar,600 S Vulcan Ave,Encinitas,San Diego,California,,01/01/2016 to 12/31/2016,Wed: 4:00 PM-7:00 PM;,,,,,,,-117.292563,33.043816,,7/18/2016 11:40
1012689,Grow Dat Youth Farm Farmstand,http://growdatyouthfarm.org,https://www.facebook.com/pages/Grow-Dat-Youth-Farm/193229134029719?fref=ts,https://twitter.com/GrowDatNOLA,,https://www.instagram.com/growdatyouthfarm/,150 Zachary Taylor Dr. ,New Orleans ,Orleans,Louisiana,70116,01/07/2017 to 06/24/2017,Sat: 9:00 AM-12:00 PM;,,,,,,,-90.0928128,29.9943711,,7/18/2016 11:21
1012690,The Abraham Lincoln Memorial Hospital Market,http://www.thealmhmarket.org,facebook.com/thealmhmarket,,,,1408 Short Eleventh Street,Lincoln,Logan,Illinois,62656,05/21/2016 to 10/29/2016,Sat: 8:00 AM-12:00 PM;,,,,,,,-89.38516,40.154182,,7/18/2016 11:22
1012691,Geneva French Market,http://www.bensidounmidwestmarkets.com/,facebook.com/GenevaFrenchMarket,https://twitter.com/BensidounMarket,,https://www.instagram.com/bensidounfrenchmarket/,"Metra Parking Lot, NW Corner of South street & 4th Street.",Geneva ,DuPage,Illinois,60134,04/17/2016 to 11/13/2016,Sun: 9:00 AM-2:00 PM;,,,,,,,-88.31122,41.883766,,7/18/2016 14:43
1012692,Onslow County Farmers' Market,http://Onslowncfarmersmarket.com,OnslowCountyFarmersMarket ,,,,Western Blvd,Jacksonville ,Onslow,North Carolina,28540,04/08/2016 to 09/29/2016,Thu: 10:00 AM-2:00 PM;,,,,,,,-77.39531,34.781224,,7/18/2016 14:44
1012693,Onslow County Farmers' Market,http://Onslowncfarmersmarket.com,OnslowCountyFarmersMarket ,,,,4024 Richlands Hwy,Jacksonville,Onslow,North Carolina,28540,04/08/2016 to 10/29/2016,Sat: 8:30 AM-1:30 PM;,,,,,,,-77.493038,34.78226,,7/18/2016 14:43
1012695,Wilmette French Market,http://www.bensidounmidwestmarkets.com/,facebook.com/WilmetteFrenchMarke,https://twitter.com/BensidounMarket,,https://www.instagram.com/bensidounfrenchmarket/,"Metra Lot 722, Green Bay Road",Wilmette,DuPage,Illinois,60091,04/23/2016 to 11/05/2016,Sat: 8:00 AM-1:00 PM;,,,,,,,-87.7092596,42.0774802,,7/18/2016 14:52
1012696,Seaside Farmers Market,https://seasidefarmersmarket.wordpress.com,https://www.facebook.com/seasidefarmersmarket,,,,2255 E Co Hwy 30A,Santa Rosa Beach,Walton,Florida,32459,5/28/2016,Tue: 8:00 AM-12:00 PM;Sat: 8:00 AM-12:00 PM;,09/05/2016 to 11/05/2016,Sat: 8:00 AM-12:00 PM;,11/06/2016 to 03/12/2017,Sat: 9:00 AM-1:00 PM;,,,-86.137203,30.31994,,7/18/2016 16:09
1012697,Farmers on the Square,http://farmersonthesquare.com,https://www.facebook.com/FarmersontheSquare/,,,,2a N. Hanover St.,Carlisle,Cumberland,Pennsylvania,17013,05/04/2016 to 10/26/2016,Wed: 3:00 PM-7:00 PM;,,,,,,,-77.189307,40.201793,,7/18/2016 17:10
1012698,King George Farmers' Market,http://KingerogeFarmersMarket.com,FAcebook.com/KingGeorgeFarmersMarket,,,,10381 Ridge Road,King George ,King George,Virginia,22485,04/30/2016 to 10/29/2016,Sat: 8:00 AM-12:00 PM;,,,,,,,-77.1638413,38.2577486,,7/18/2016 19:04
1012699,White Harvest Farmers Market,http://www.clarawhitemission.org,,,,,5348 Moncrief Road,Jacksonville ,Duval,Florida,32209,01/01/2016 to 12/31/2016,Sat: 10:00 AM-5:00 PM;,,,,,,,-81.6846931,30.3704783,,7/18/2016 19:43
1012700,Rockmart Farmers Market,http://RockmartFarmersMarket.com,Facebook.com/RockmartFarmersMarket,,,,"Corner of Water St. and Church St., Downtown Rockmart",Rockmart ,Polk,Georgia,30153,05/05/2016 to 11/17/2016,Thu: 2:00 PM-6:00 PM;,12/01/2016 to 12/22/2016,Thu: 2:00 PM-5:00 PM;,,,,,-85.052814,33.997833,,7/18/2016 19:42
1012701,Greene County Farmers Market,,Greene county farmers market,,,,114 n chestnut st,Jefferson,Greene,Iowa,50129,06/07/2016 to 09/27/2016,Tue: 4:00 PM-6:30 PM;,,,,,,,-94.3740951,42.0157699,,7/18/2016 21:32
1012702,Kamuela Farmers Market,http://kamuelafarmersmarket.com/,https://www.facebook.com/kamuelafarmersmarket/,,,https://www.instagram.com/kamuelafarmersmarket/,67-139 Pukalani Road,Kamuela,Hawaii,Hawaii,96743,01/01/2016 to 12/31/2016,Sat: 7:00 AM-12:00 PM;,,,,,,,-155.662467,20.016964,,7/19/2016 3:28
1012703,New Morning Farmers Market-Saturday,http://www.newmorningfarm.net,New Morning Farm,@NewMorningFarm,,Instagram - @newmorningfarm,4400 Thirty-Sixth St. NW,Washington,District of Columbia,District of Columbia,20008,06/04/2016 to 11/19/2016,Sat: 8:00 AM-1:00 PM;,12/03/2016 to 03/11/2017,Sat: 9:00 AM-1:00 PM;,,,,,-77.070128,38.946848,,7/19/2016 9:59
1012705,Lansdale Farmers' Market,http://www.lansdalefarmersmarket.org,www.facebook.com/lansdalefarmersmarket,www.twitter.com/lansdalefm,,www.instagram.com/lansdalefarmersmarket,664 E. Main Street,Lansdale borough,Montgomery,Pennsylvania,19446,05/21/2016 to 11/05/2016,Sat: 9:00 AM-1:00 PM;,,,,,,,-75.281208,40.241654,,7/19/2016 11:42
1012706,Walton Farmers' Market,http://www.ccedelaware.org,https://www.facebook.com/SidneyNYFarmersMarket/,,,,89 Main St,Sidney,Delaware,New York,13838,06/28/2016 to 08/30/2016,Tue: 2:00 PM-6:00 PM;,,,,,,,-75.390452,42.3142629,,7/19/2016 13:38
1012707,New Morning Farm Market - Wednesday,http://www.newmorningfarm.net,New Morning Farm,@NewMorningFarm,,Twitter - @newmorningfarm,420 12th St SE,Washington,District of Columbia,District of Columbia,20003,06/08/2016 to 08/31/2016,Wed: 4:00 PM-8:00 PM;,10/05/2016 to 10/26/2016,Wed: 3:30 PM-7:00 PM;,,,,,-76.988105,38.88299,,7/19/2016 14:15
1012708,New Morning Farm Market - Tuesday,http://www.newmorningfarm.net,New Morning Farm,@NewMorningFarm,,Twitter - @newmorningfarm,4400 36th St NW,"Washington, DC",District of Columbia,District of Columbia,20008,06/07/2016 to 09/27/2016,Tue: 3:30 PM-8:00 PM;,,,,,,,-77.070101,38.946505,,7/19/2016 14:14
1012709,Yellville Farmers Market,,https://www.facebook.com/YellvilleFarmersMarket,,,,300 Old Main Street,Yellville,Marion,Arkansas,72687,05/14/2016 to 09/10/2016,Sat: 5:30 PM-8:30 PM;,,,,,,,-92.681901,36.225396,,7/19/2016 16:46
1012710,14th & Kennedy Street Farmers Market,,https://www.facebook.com/14KennnedyFarmersMarket/,14KenFM,,instagram:14kenfm,"5500 Colorado Avenue, NW",Washington ,District of Columbia,District of Columbia,20011,04/09/2016 to 11/19/2016,Sat: 9:00 AM-1:00 PM;,,,,,,,-77.0334486,38.9559783,,7/20/2016 11:16
1012711,Verde Valley Farmers' Market,,Verde Valley Farmers Market,,,,Hollaman and Main,Camp Verde ,Yavapai,Arizona,86322,07/02/2016 to 10/01/2016,Sat: 8:00 AM-12:00 PM;,,,,,,,-111.852131,34.564092,,7/20/2016 11:17
1012712,City Market Kansas City- Year-round,http://thecitymarket.org,https://www.facebook.com/TheCityMarketKansasCity/,https://twitter.com/TheCityMarketKC,https://www.youtube.com/user/citymarketkansascity,,20 E 5th Street,Kansas City,Jackson,Missouri,64106,,Sat: 7:00 AM-3:00 PM;Sun: 7:00 AM-3:00 PM;,05/11/2016 to 09/28/2016,Wed: 4:00 PM-7:00 PM;,,,,,-94.5821788,39.1086815,,7/20/2016 14:02
1012713,Coupeville Farmers Market,,https://www.facebook.com/Coupeville-Farmers-Market-115641631824425/,,,,"Community Green, next to Coupeville Library, cross street Alexander",Coupeville ,Island,Washington,98239,04/02/2016 to 10/08/2016,Sat: 10:00 AM-2:00 PM;,,,,,,,-122.689225,48.21936,,7/20/2016 14:07
1012714,Oak Harbor Farmers Market,,https://www.facebook.com/FarmersMarketOakHarbor/,,,,Washington State Highway 20 next to Visitor Center,Oak Harbor Farmers Market,Island,Washington,98277,05/19/2016 to 09/29/2016,Thu: 4:00 PM-7:00 PM;,,,,,,,-122.647786,48.302342,,7/20/2016 14:37
1012716,Burnett County Farmers' Markets - Grantsburg - Burnett Medical Center,,https://www.facebook.com/Burnett-County-Farmers-Markets-250874305027758/,,,, 257 W St George Ave,Grantsburg,Burnett,Wisconsin,54840,06/24/2016 to 10/28/2016,Sat: 2:00 PM-4:00 PM;,,,,,,,-92.686157,45.774153,,7/21/2016 12:27
1012717,East Point Farmers Market ,http://www.downtowneastpoint.com/eastpointfarmersmarket/,https://www.facebook.com/search/top/?q=East%20Point%20Farmers%20Market,,,,2757 East Point St.,East Point ,Fulton,Georgia,30344,01/01/2016 to 12/31/2016,Wed: 4:00 PM-7:00 PM;,,,,,,,-84.441926,33.680029,,7/21/2016 14:39
1012718,Bentonville Farmers Market - Saturday,http://www.downtownbentonville.org/farmersmarket,https://www.facebook.com/BentonvilleFarmersMarket,,,,100 N Main St,Bentonville,Benton,Arkansas,72712,04/23/2016 to 10/29/2016,Sat: 7:00 AM-1:00 PM;,,,,,,,-94.208816,36.3723485,,7/21/2016 17:47
1012719,"South Fork Farmers, Local Artisan and Antique Market",http://www.southforkfarmersmarket.com,South Fork Farmers Market,,,,0168 Four Seasons Drive,South Fork,Rio Grande,Colorado,81154,07/23/2016 to 09/18/2016,Sat: 10:00 AM-3:00 PM;Sun: 10:00 AM-3:00 PM;,,,,,,,-106.6160037,37.6734709,,7/22/2016 18:38
1012720,Harrison Farmers Market,,https://www.facebook.com/Harrison-Farmers-Market-176449649139351/?ref=bookmarks,,,,Route 117,Harrison,Cumberland,Maine,4040,05/27/2016 to 09/23/2016,Fri: 1:00 PM-5:00 PM;,,,,,,,-70.686816,44.11296,,7/23/2016 7:54
1012723,Woodland Park Farmers' Market - Winter,http://www.wpfarmersmarket.com,WPFarmers Market,WPFarmers Market,,,215 E. Midland Road,Woodland Park,Teller,Colorado,80863,11/12/2016 to 12/10/2016,Sat: 9:00 AM-1:00 PM;,,,,,,,-105.051551,38.994733,,7/24/2016 13:58
1012724,Farmer & Artisan Regional Market,,https://www.facebook.com/groups/farmartmarket/,,,,William Ave (Route 32),Davis,Tucker,West Virginia,26260,06/10/2016 to 10/28/2016,Fri: 4:00 PM-6:30 PM;,,,,,,,-79.468602,39.127619,,7/24/2016 16:55
1012725,Muldoon Farmers Market,http://muldoonfarmersmarket.org,http://www.facebook.com/muldoonfarmersmarket,http://twitter.com/MuldoonFarmers,,,7440 Creekside Center Drive,Anchorage,Anchorage,Alaska,99504,06/27/2015 to 09/26/2015,Sat: 9:00 AM-2:00 PM;,06/25/2016 to 09/24/2016,Sat: 9:30 AM-2:30 PM;,,,,,-149.7431678,61.20806,,7/24/2016 17:35
1012726,Brookhaven Farmers Market,http://www.brookhavenfarmersmarket.com,https://www.facebook.com/brookhavenmarket,,,,1375 Fernwood Circle NE,Brookhaven,DeKalb,Georgia,30319,04/16/2016 to 12/10/2016,Sat: 9:00 AM-12:00 PM;,,,,,,,-84.334721,33.860129,,7/24/2016 22:05
1012728,Okanogan Valley Farmers Market - Okanogan,https://okanoganfarmersmarket.org/,https://www.facebook.com/OkanoganValleyFarmersMarket,,,,American Legion Park,Okanogan,Okanogan,Washington,98840,05/01/2016 to 10/01/2016,Sat: 9:00 AM-1:00 PM;,,,,,,,-119.5712323,48.3718393,,7/25/2016 0:43
1012729,Okanogan Valley Farmers Market - Omak,https://okanoganfarmersmarket.org/,https://www.facebook.com/OkanoganValleyFarmersMarket,,,,Civic League Park,Omak,Okanogan,Washington,98841,06/01/2016 to 10/01/2016,Tue: 3:30 PM-6:30 PM;,,,,,,,-119.530555,48.410245,,7/25/2016 0:42
1012730,Eastside Farmers' Market,http://www.eastsidefarmersmarket.org,,,,,202 S Ingersoll Street,Madison ,Dane,Wisconsin,53703,04/19/2016 to 12/20/2016,Tue: 4:00 PM-7:00 PM;,,,,,,,-89.3677304,43.0832213,,7/25/2016 13:59
1012731,Red Hills Online Market,http://www.rhomarket.com/,https://www.facebook.com/Red-Hills-Small-Farm-Alliance-216932908492459/?fref=ts,,,,1940 N Monroe St,Tallahassee,Leon,Florida,32303,01/01/2016 to 12/31/2016,Thu: 3:00 PM-6:00 PM;,,,,,,,-84.287205,30.464775,,7/25/2016 14:50
1012732,Waimea Midweek Farmers Market,,Waimea Midweek Farmers Market,Waimea Midweek Mkt,,Instagram :  waimeamidweekmarket,67-139 Pukalani Road,Waimea ( Kamuela ),Hawaii,Hawaii,96743,01/01/2016 to 12/31/2016,Wed: 9:00 AM-3:00 PM;,,,,,,,-155.650086,20.006422,,7/27/2016 2:18
1012734,Lancaster Central Market,http://www.centralmarketlancaster.com,https://www.facebook.com/LancasterCentralMarket/,https://twitter.com/lanccentmrkt,,https://www.instagram.com/centralmarketlancaster/,23 North Market Street,Lancaster,Lancaster,Pennsylvania,17603,01/01/2016 to 12/31/2016,Tue: 6:00 AM-4:00 PM;Fri: 6:00 AM-4:00 PM;Sat: 6:00 AM-2:00 PM;,,,,,,,-76.3064763,40.0383749,,7/27/2016 10:59
1012736,Williams County Farmer's Market,,,,,,High Street ,Bryan ,Williams,Ohio,43506,05/23/2016 to 10/27/2016,Tue: 7:00 AM-12:00 PM;Thu: 6:00 PM-9:00 PM;,,,,,,,-84.551292,41.474364,,7/27/2016 12:20
1012737,New Bedford Farmers Market/Downtown at Custom House Square,http://massinmotionnewbedford.org/projects/food-access/farmers-markets/,https://www.facebook.com/massinmotionnewbedford/,,,,Barkers Lane ,New Bedford,Bristol,Massachusetts,2740,06/16/2016 to 10/27/2016,Thu: 2:00 PM-6:00 PM;,,,,,,,-70.924564,41.634946,,7/27/2016 13:19
1012738,New Bedford Farmers Market- Clasky Common Park,http://massinmotionnewbedford.org/projects/food-access/farmers-markets/,https://www.facebook.com/massinmotionnewbedford/,,,,1119 Pleasant St.,New Bedford ,Bristol,Massachusetts,2740,07/09/2016 to 10/29/2016,Sat: 10:00 AM-2:00 PM;,,,,,,,-70.928587,41.644314,,7/27/2016 13:29
1012739,New Bedford Farmers Market- Brooklawn Park,http://massinmotionnewbedford.org/projects/food-access/farmers-markets/,https://www.facebook.com/massinmotionnewbedford/,,,,1997 Acushnet Ave.,New Bedford ,Bristol,Massachusetts,2745,06/13/2016 to 10/31/2016,Mon: 2:00 PM-6:00 PM;,,,,,,,-70.923644,41.675431,,7/27/2016 13:35
1012741,Hastings Farmers Market,http://hastingsfarmersmarket.org,https://www.facebook.com/HastingsFarmersMarket,,,https://www.instagram.com/hastings_farmers_market/,7 Maple Avenue,Hastings-on-Hudson,Westchester,New York,10706,06/04/2016 to 11/19/2016,Sat: 8:30 AM-1:30 PM;,,,,,,,-73.883751,40.995749,,7/28/2016 13:14
1012742,Nutley Farmers Market,http://www.nutleynj.org/farmersmarket,www.facebook.com/nutleyfarmersmarket1,twitter.com/nutleyfm,,www.instagram.com/nutleyfarmersmarket,Municipal Lot #1 (William Street east of Franklin Avenue),Nutley,Essex,New Jersey,7110,06/12/2016 to 10/30/2016,Sun: 9:00 AM-2:00 PM;,,,,,,,-74.160889,40.815615,,7/28/2016 15:30
1012744,Bronxville Farmers Market,http://www.bronxvillefarmersmarket.com/,https://www.facebook.com/BronxvilleFarmersMarket/,,,,Stone Place and Paxton Avenue ,Bronxville,Westchester,New York,10708,05/04/2016 to 11/19/2016,Sat: 8:30 AM-1:00 PM;,,,,,,,-73.8377863,40.9399964,,7/28/2016 15:30
1012747,North Iowa Farmers Market,http://www.northiowafarmersmarket.com/,www.fb.com/northiowafarmersmarket,,,,,Mason City,Cerro Gordo,Iowa,50401,05/17/2016 to 10/28/2016,Tue: 3:00 PM-6:00 PM;Fri: 3:00 PM-6:00 PM;,,,,,,,-93.2476,43.149597,,7/31/2016 15:09
1012748,Crofton Farmers Market,http://www.croftonfarmersmarket.com,https://www.facebook.com/croftonfarmersmarket/,https://twitter.com/croftonfarmmkt,,https://www.instagram.com/croftonfarmersmarket/,1691 Crofton Pkwy,Crofton,Anne Arundel,Maryland,21114,05/11/2016 to 10/26/2016,Wed: 3:00 PM-7:00 PM;,,,,,,,-76.696765,39.004666,,8/2/2016 10:41
1012749,Dallas Farmers Market,http://www.dallasfarmersmarket.org,https://www.facebook.com/DFMDallasFarmersMarket/,https://twitter.com/dallasfarmer,,https://www.instagram.com/dallasfarmersmarket/,920 S. Harwood Rd.,Dallas,Dallas,Texas,75201,01/01/2016 to ,Fri: 10:00 AM-5:00 PM;Sat: 8:00 AM-5:00 PM;Sun: 10:00 AM-5:00 PM;,01/01/2016 to 12/31/2016,Mon: 10:00 AM-6:00 PM;Tue: 10:00 AM-6:00 PM;Wed: 10:00 AM-6:00 PM;Thu: 10:00 AM-6:00 PM;Fri: 10:00 AM-6:00 PM;Sat: 10:00 AM-6:00 PM;Sun: 10:00 AM-6:00 PM;,,,,,-96.789378,32.777649,,8/2/2016 11:58
1012750,Lawrence Farmers' Market - Saturday,http://www.lawrencefarmersmarket.com,Lawrence Farmers' Market,,,@lawrencefarmersmarket,824 New Hampshire Street,Lawrence,Douglas,Kansas,66044,04/09/2016 to 08/27/2016,Sat: 7:00 AM-11:00 AM;,09/03/2016 to 11/19/2016,Sat: 8:00 AM-12:00 PM;,,,,,-95.234356,38.96857,,8/2/2016 12:34
1012751,Lawrence Farmers' Market - Tuesday,http://www.lawrencefarmersmarket.com,Lawrence Farmers' Market,,,@lawrencefarmersmarket,706 Kentucky Street,Lawrence,Douglas,Kansas,66044,05/03/2016 to 10/25/2016,Tue: 4:00 PM-6:00 PM;,,,,,,,-95.237968,38.97035,,8/2/2016 12:41
1012752,St. John Farmers Market,http://www. 41markets.com,www.facebook.com/st.johnfarmersmarket,,,,625 111th Ave N,Naples,Collier,Florida,34108,10/07/2016 to 04/28/2017,Fri: 9:00 AM-2:00 PM;,,,,,,,-81.812604,26.27315,,8/2/2016 18:02
1012753,Beach Baptist Farmers Market,http://www.41markets.com,www.facebook.com/beachbaptistfarmersmarket,,,,130 Connecticut Street,Fort Myers Beach ,Lee,Florida,33931,08/03/2016 to 04/26/2017,Wed: 9:00 AM-2:00 PM;,,,,,,,-81.930516,26.442506,,8/2/2016 18:13
1012754,Community Congregational Farmers Market,http://www. 41markets.com,www.facebook.com/c3farmersmarket,,,,15300 Tamiami Trail N,Naples,Collier,Florida,34110,10/08/2016 to 04/29/2017,Sat: 9:00 AM-2:00 PM;,,,,,,,-81.804309,26.309917,,8/2/2016 18:22
1012756,Rodes Farmers Market,,,,,,3756 Bonita Beach Road SW,Bonita Springs ,Lee,Florida,34134,04/24/2016 to 08/28/2016,Sun: 9:00 AM-2:00 PM;,10/01/2016 to 04/28/2017,Sat: 9:00 AM-2:00 PM;,,,,,-81.815337,26.33083,,8/3/2016 10:43
1012758,City Soul Market ,,,,,,700 State St.,Springfield,Hampden,Massachusetts,1109,,Sat: 10:00 AM-2:00 PM;,,,,,,,-72.569068,42.110615,,8/3/2016 6:59
1012759,Okawville Farmers Market,,,,,,110 E Walnut St,Okawville,Washington,Illinois,62271,04/05/2016 to 09/27/2016,Tue: 4:00 PM-6:00 PM;,,,,,,,-89.550447,38.434503,,8/3/2016 14:01
1012761,Muncie Makers Market ,,https://www.facebook.com/groups/1627047027524961/,,,,Jackson and Cherry Streets ,Muncie ,Delaware,Indiana,47305,06/11/2016 to 10/29/2016,Sat: 4:00 PM-7:00 PM;,,,,,,,-85.3909944,40.1928856,,8/4/2016 23:12
1012762,Frostburg Farmers' Market,http://alleganymountainfresh.weebly.com/,https://www.facebook.com/Alleganyfarmersmarkets/?fref=ts,,,,14 S. Water Street,Frostburg ,Allegany,Maryland,21532,05/23/2016 to 10/31/2016,Fri: 9:30 AM-1:00 PM;,,,,,,,-78.9292556,39.6574721,,8/5/2016 14:41
1012765,wilkes county farmers market,http://downtownnorthwilkesboro.com,https://www.facebook.com/wilkescountyfarmersmarket/,,,,CBD Loop,North Wilkesboro,Wilkes,North Carolina,28659,04/01/2016 to 09/24/2016,Tue: 3:30 PM-5:30 PM;Sat: 7:30 AM-12:00 PM;,,,,,,,-81.1445774,36.1593523,,8/8/2016 8:53
1012766,Stafford Community Farmers' Market,http://Www.staffordcommunityfarmersmarket.com,Stafford Community Farmers Market,,,,3 Stafford Street,Stafford Springs,Tolland,Connecticut,6076,06/11/2016 to 10/29/2016,Sat: 9:00 AM-1:00 PM;,,,,,,,-72.2842559,41.9575977,,8/8/2016 9:47
1012767,Farmers Market at St. John's,,Farmers Market at St. John's/Naperviile,,,,750 Aurora Avenue,Naperville,DuPage,Illinois,60540,06/08/2016 to 09/21/2016,Wed: 3:00 PM-7:00 PM;,,,,,,,-88.159302,41.767704,,8/8/2016 10:14
1012768,"Pike County Pop-Up Farmers' Markets - Waverly, Ohio",http://pike.osu.edu/,https://www.facebook.com/OSU-Extension-Pike-County-942516695840817/?ref=bookmarks,,,,1001 W 2nd Street,Waverly,Pike,Ohio,45690,07/30/2016 to 10/15/2016,Sat: 2:00 PM-4:00 PM;,,,,,,,-82.993338,39.11329,,8/8/2016 12:02
1012770,Pigtown Community Farmers Market,http://www.pigtowncommunityfarmersmarket.com/,https://www.facebook.com/PigtownMarket/?fref=ts,https://twitter.com/pigtown_market,,https://www.instagram.com/pigtownmarket/?hl=en,Washington Boulevard and Bayard Street,Baltimore,Baltimore City,Maryland,21230,06/02/2016 to 10/06/2016,Thu: 3:00 PM-7:00 PM;,,,,,,,-76.6367416,39.2796022,,8/8/2016 13:07
1012771,THE MARKETPLACE ,http://pulaskimarketplace.com/,www.facebook.com/pulaskimarketplace,https://twitter.com/pulaski_market,,https://www.pinterest.com/pulaskimarket/,20 S Washinton Ave,Pulaski,Pulaski,Virginia,24301,05/17/2016 to 09/06/2016,Tue: 4:00 PM-8:00 PM;,,,,,,,-80.7792887,37.0458736,,8/8/2016 13:55
1012773,Ohio Valley Farmers Market - Bellaire,http://ovfarmersmarket.org/,https://www.facebook.com/Ohio-Valley-Farmers-Market-76218936373/info/?entry_point=page_nav_about_item&tab=page_info,,,,32nd Street and Union Street,Bellaire,Belmont,Ohio,43906,06/04/2016 to 10/29/2016,Sun: 9:00 AM-12:00 PM;,06/03/2017 to 10/28/2017,Sun: 9:00 AM-12:00 PM;,,,,,-80.7422347,40.0137473,,8/9/2016 13:35
1012774,Whitestown Farmers Market,,https://www.facebook.com/WhitestownFarmersMarket/,,,,6210 Veterans Drive,Whitestown,Boone,Indiana,46075,06/11/2016 to 10/15/2016,Sat: 10:00 AM-2:00 PM;,,,,,,,-86.337987,39.950105,,8/9/2016 14:16
1012775,New Haven Farmers Market,,New Haven Farmers Market,@newhavenin_park,,,956 Park Ave,New Haven,Allen,Indiana,46774,06/29/2016 to 09/28/2016,Wed: 4:00 PM-7:00 PM;,,,,,,,-85.0164173,41.0691493,,8/9/2016 14:40
1012777,Oxnard Farmers Market,http://www.OxnardFarmersMarket.com,www.facebook.com/OxnardFarmersMarket/,https://twitter.com/oxnfarmersmkt,www.youtube.com/DowntownOxnard,www.instagram.com/oxnardfarmersmarket/,Fifth and C Street,Oxnard,Ventura,California,93030,01/01/2016 to 12/31/2016,Thu: 9:00 AM-1:30 PM;,,,,,,,-119.180102,34.198012,,8/10/2016 16:44
1012779,Monte Vista Farmers Market,,Monts Vista Farmers Market,,,,1st and Jefferson,Monte Vista ,Rio Grande,Colorado,81144,07/15/2016 to 09/30/2016,Fri: 8:00 AM-1:00 PM;,,,,,,,-106.145805,37.58014,,8/10/2016 17:55
1012781,Marianna City Farmers' Market,,Marianna City Farmers Market,,,,Madison Street,Marianna ,Jackson,Florida,32446,04/02/2016 to 08/31/2016,Tue: 7:00 AM-12:00 PM;Thu: 7:00 AM-12:00 PM;Sat: 7:00 AM-12:00 PM;,09/03/2016 to 12/31/2016,Sat: 8:00 AM-12:00 PM;,,,,,-85.225285,30.775235,,8/11/2016 9:25
1012782,Owen County Farm and Craft Market,,https://www.facebook.com/owencountyfarmandcraftmarket/,,,,430 Roland Avenue,Owenton,Owen,Kentucky,40359,05/13/2016 to 10/28/2016,Fri: 10:00 AM-1:00 PM;,,,,,,,-84.841835,38.546503,,8/11/2016 16:18
1012783,Edenton Farmers Market,http://www.edentonfarmersmarket.com,https://www.facebook.com/edentonfarmersmarket/,,,,730 N Granville St,Edenton,Chowan,North Carolina,27932,04/23/2016 to 12/17/2016,Sat: 8:00 AM-12:00 PM;,,,,,,,-76.607355,36.070023,,8/11/2016 21:44
1012784,38th & Meridian Farmers Market,http://www.meridianfarmersmarket.org,https://www.facebook.com/38th-Meridian-Farmers-Market-501761683311307,,,,3808 N Meridian St,Indianapolis,Marion,Indiana,46208,06/02/2016 to 09/29/2016,Thu: 4:00 PM-6:30 PM;,,,,,,,-86.158459,39.825071,,8/12/2016 9:35
1012785,Lake of the Pines Association Certified Farmers Market,http://www.lop.org/sub_category_list.asp?category=108&title=Farmers+Market,https://www.facebook.com/LOPFarmersMarket/,,,,11665 Lakeshore North ,Auburn ,Nevada,California,95602,06/14/2016 to 09/27/2016,Tue: 3:00 PM-7:00 PM;,06/13/2017 to 09/26/2017,Tue: 4:00 PM-6:30 PM;,,,,,-121.0664289,39.0406051,,8/15/2016 16:15
1012786,Midtown Farmers Market,http://www2.midwestfarmersmarkets.org/markets/midtown-farmers-market/,https://www.facebook.com/Midtown-Farmers-Market-655879797806495/,https://twitter.com/MidtownFmsMkt,,,"6655 Delmar Blvd, Back Lot",University City,St. Louis,Missouri,63130,,Sat: 8:30 AM-12:30 PM;,,,,,,,-90.307251,38.656378,,8/17/2016 7:19
1012788,Plumsteadville Grange Farmer's Market,http://www.grange.org/plumsteadvillepa1738/farm-market/,https://www.facebook.com/pages/Plumsteadville-Grange-Farm-Market/202768669745812,,,,5901 Easton Rd,Pipersville,Bucks,Pennsylvania,18947,05/21/2016 to 10/29/2016,Sat: 9:00 AM-12:30 PM;,,,,,,,-75.146537,40.388588,,8/17/2016 14:37
1012789,Charles Town Farmers Market,,https://www.facebook.com/Charles-Town-Farmers-Market-WV-198296286944643/,,,,100 block of South Samuel Street,Charles Town,Jefferson,West Virginia,25414,04/16/2016 to 10/29/2016,Sat: 8:00 AM-12:00 PM;,,,,,,,-77.858224,39.288865,,8/19/2016 15:29
1012790,19/27 Community Farmers Market,,https://www.facebook.com/1927-Community-Farmers-Market-1505265436358960/,,,,NE 7th Ave,Chiefland,Levy,Florida,32626,09/03/2016 to 06/24/2017,Sat: 8:30 AM-1:00 PM;,09/02/2017 to 06/30/2018,Sat: 8:30 AM-1:00 PM;,,,,,-82.8578732,29.4848541,,8/19/2016 16:07
1012791,Main Street Wadsworth Farmers Market,http://www.wadsworthfarmersmarket.com,https://www.facebook.com/MainStreetWadsworthFarmersMarket/?fref=nf,,,,151 Main Street,Wadsworth,Medina,Ohio,44281,,Sat: 9:00 AM-12:00 PM;,,,,,,,-81.7284945,41.0239638,,8/21/2016 7:58
1012792,Winter Farmers Market by Grow Oak Ridge,http://www.GrowOakRidge.org,https://www.facebook.com/GrowOakRidge/?fref=ts,,,https://www.instagram.com/growoakridge/,323 Vermont Avenue,Oak Ridge,Anderson,Tennessee,37830,12/03/2016 to 02/25/2017,Sat: 10:00 AM-1:00 PM;,,,,,,,-84.250956,36.017191,,8/22/2016 10:32
1012793,Old Town Newhall Farmers Market,http://oldtownnewhall.com,Old Town Newhall Farmers Market,Old Town Newhall FM,,Instagram,24500 Main Street,Newhall,Los Angeles,California,91321,01/01/2016 to 12/31/2016,Sat: 8:30 AM-12:30 PM;,,,,,,,-118.518215,34.359773,,8/24/2016 14:17
1012794,Kingman Farmers Market,http://www.kingmanfarmersmarket.org,https://www.facebook.com/KingmanFarmersMarket/,,,,102 E Beale St,Kingman,Mohave,Arizona,86401,03/04/2017 to 06/24/2017,Sat: 9:30 AM-1:30 PM;,07/01/2017 to 09/30/2017,Sat: 8:00 AM-12:00 PM;,10/07/2017 to 11/18/2017,Sat: 9:00 AM-1:00 PM;,,,-114.057378,35.18972,,8/24/2016 15:23
1012796,Royalton Farmers Market,,Royalton farmers market@facebook.com,,,,Windsor street,S Royalton ,Windsor,Vermont,5068,05/12/2016 to 10/20/2016,,,,,,,,-72.521463,43.82003,,8/25/2016 12:16
1012798,Morrisville Farmers Market,,Morrisville farmers and Artisan markets ,,,,Portland Street,"Morrisville, VT",Lamoille,Vermont,5661,,Sat: 9:00 AM-1:00 PM;,,,,,,,-72.661686,44.371731,,8/25/2016 17:42
1012799,The West River Farmers Market,http://westriverfarmersmarket.com,West River Farmers Market,,,Instagram - westriverfarmersmarket,,Londonderry,Windham,Vermont,,05/28/2016 to 10/08/2016,Sat: 9:00 AM-1:00 PM;,,,,,,,-72.8064866,43.2264643,,8/26/2016 10:48
1012801,F.A.R.M. (Farmer's Atlanta Road Market),http://www.FARMSmyrna.com,https://www.facebook.com/FARMSmyrna/?fref=ts,,,stbfarm@gmail.com,2160 Cooper Lake Road,Smyrna,Cobb,Georgia,30080,04/05/2016 to 10/25/2016,Tue: 4:30 PM-7:00 PM;,,,,,,,-84.4940793,33.8506111,,9/5/2016 21:15
1012802,St. Andrews Waterfront Farmers Market,http://www.historicstandrews.com/farmers-market/,https://www.facebook.com/St.Andrews.Waterfront.Farmers.Market/,,,,1201 Beck Avenue,Panama City,Bay,Florida,FL,01/01/2016 to 12/31/2016,Sat: 8:00 AM-1:00 PM;,,,,,,,-85.701673,30.170729,,9/8/2016 10:55
1012803,White Barn Local,http://www.whitebarnlocal.com,www.facebook.com/whitebarnlocal,,,,Online,Chardon,Geauga,Ohio,,01/01/2016 to 12/31/2016,Mon: 12:00 AM-11:00 PM;Tue: 12:00 AM-11:00 PM;Wed: 12:00 AM-11:00 PM;Thu: 12:00 AM-11:00 PM;Fri: 12:00 AM-11:00 PM;Sat: 12:00 AM-11:00 PM;Sun: 12:00 AM-11:00 PM;,,,,,,,-81.183629,41.604726,,9/12/2016 11:48
1012804,hubbs farm & garden center ,http://www.hubbsfarm.com,hubbsfarm,hubbsfarm,,,29240 state road 46 ,sorrento,Lake,Florida,32776,01/01/2016 to 12/31/2016,Thu: 10:00 AM-5:00 PM;Fri: 10:00 AM-5:00 PM;Sat: 10:00 AM-5:00 PM;Sun: 10:00 AM-5:00 PM;,,,,,,,-81.472665,28.815663,,9/13/2016 16:21
1012808,Corte Bella Farmers Market,http://www.azFarmersMarkets.US,,,,,"22135 N Mission Dr, Sun City West, AZ 85375",Peoria ,Maricopa,Arizona,85375,09/14/2016 to 04/15/2017,Wed: 10:00 AM-1:00 PM;,,,,,,,-112.342222,33.683068,,9/23/2016 20:22
1012809,Estrella Lakeside Market,http://www.azFarmersMarkets.US,,,,,"	10336 S Estrella Pkwy, 85338, USA","Goodyear, AZ ",Maricopa,Arizona,85338,09/17/2016 to 04/15/2017,Sat: 10:00 AM-1:00 PM;,,,,,,,-112.429459,33.352917,,9/23/2016 20:45
1012812,South Bossier Farmer's Market,http://www.faithfarmsarena.com,https://www.facebook.com/Southbossierfarmersmarket/?fref=ts,,,,1145 Hwy 527,Elm Grove,Bossier,Louisiana,71051,10/09/2016 to ,Sun: 12:00 PM-4:00 PM;,,,,,,,-93.571389,32.397555,,10/6/2016 11:51
1012815,M&M Farmers Market in Menominee,,,,,,1207 8th Ave,Menominee ,Menominee,Michigan,49858,10/01/2016 to 05/06/2017,Sat: 9:00 AM-12:00 PM;,05/06/2017 to 10/07/2017,Sat: 9:00 AM-12:00 PM;,,,,,-87.61861,45.105557,,10/11/2016 9:40
1012817,Kingstowne Farmers Market ,,,,,,5870 Kingstowne Ctr,Alexandria ,Fairfax,Virginia,22315,05/06/2016 to 10/28/2016,Fri: 4:00 PM-7:00 PM;,,,,,,,-77.13554,38.772762,,10/12/2016 23:29
1012818,Brown University Farmers Market,http://www.farmfresh.org/food/farmersmarkets_details.php?market=5,,,,,201 Thayer Street,Providence ,Providence,Rhode Island,2912,09/07/2016 to 10/26/2016,Wed: 11:00 AM-2:00 PM;,,,,,,,-71.400122,41.826784,,10/24/2016 10:24
1012822,Armory Farmers Market,,,,,,Parade Street,Providence ,Providence,Rhode Island,2909,05/26/2016 to 10/27/2016,Thu: 3:30 AM-7:00 PM;,,,,,,,-71.431725,41.814292,,10/24/2016 12:08
1012824,Downtown Providence Farmers Market,,,,,,2 Kennedy Plaza,Providence ,Providence,Rhode Island,2903,07/05/2016 to 10/25/2016,Tue: 3:00 PM-6:00 PM;,,,,,,,-71.411813,41.825232,,10/24/2016 12:41
1012825,Central Falls Farmers Market,,,,,,129 Garfield Street,Central Falls ,Providence,Rhode Island,2863,07/06/2016 to 10/26/2016,Tue: 2:30 PM-6:00 PM;,,,,,,,-71.395371,41.886107,,10/24/2016 13:11
1012826,The PATCH Urban Farm and Market,http://www.thepatchgarden.com,https://www.facebook.com/PATCHGarden/?fref=ts,,,,1201 West Dania Beach Blvd.,Dania Beach,Broward,Florida,33004,01/01/2016 to 12/31/2016,Sat: 9:00 AM-1:00 PM;,,,,,,,-80.1513358,26.0521352,,10/24/2016 13:46
1012827,Heirloom Farmers Markets at the Rillito Park Food Pavilion,https://www.heirloomfm.org/,https://www.facebook.com/HeirloomFarmersMarkets/,https://twitter.com/heirloomfm,https://www.youtube.com/channel/UCGDnrljMLcY4U1UI1Qx8DdQ,https://vimeo.com/heirloomfm,4502 N. 1st Ave,Tucson,Pima,Arizona,85718,01/01/2016 to 12/31/2016,Sun: 9:00 AM-1:00 PM;,,,,,,,-110.960495,32.289541,,10/27/2016 12:55
1012838,Marian's Market,,,,,,Arivaca Rd,Arivaca,Pima,Arizona,85601,01/01/2016 to 12/31/2016,Sat: 9:00 AM-12:00 PM;,,,,,,,-111.307724,31.6151821,,10/25/2016 17:30
1012839,Weaver Library Farmers' Market,http://www.eastprovidencelibrary.org,https://www.facebook.com/Weaver-Library-Farmers-Market-1704373393183379,,,@weaverlibrary,41 Grove Avenue,East Providence ,Providence,Rhode Island,2914,06/23/2016 to 09/08/2016,Thu: 4:00 PM-7:00 PM;,,,,,,,-71.375259,41.818466,,10/27/2016 12:09
1012841,Heirloom Farmers Markets Fridays at Trail Dust Town,https://www.heirloomfm.org/,https://www.facebook.com/HeirloomFarmersMarkets/,https://twitter.com/heirloomfm,https://www.youtube.com/channel/UCGDnrljMLcY4U1UI1Qx8DdQ,https://vimeo.com/heirloomfm,6541 E Tanque Verde Rd,Tucson,Pima,Arizona,85715,01/01/2016 to 12/31/2016,Fri: 9:00 AM-1:00 PM;,,,,,,,-110.853253,32.247147,,10/27/2016 12:46
1012842,Fort Smith Farmers Market,,www.facebook.com/FortSmithFarmersMarket,,,instagram  @FSfarmersmarket,"15 N 2nd St, Fort Smith, AR 72901",Fort Smith ,Sebastian,Arkansas,72901,01/01/2016 to 12/31/2016,Tue: 7:00 AM-12:00 PM;Sat: 7:00 AM-12:00 PM;,,,,,,,-94.427993,35.389901,,10/27/2016 14:24
1012843,Flagstaff Community Market,http://www.flagstaffmarket.com,flagstaff community market,,,,211 W Aspen Ave,Flagstaff ,Coconino,Arizona,86001,05/01/2017 to 10/15/2017,Sun: 8:00 AM-12:00 PM;,,,,,,,-111.6516204,35.1990616,,10/27/2016 23:19
1012844,Hope Street Farmers Market,http://www.hopestreetmarket.com/,,,,,1059 Hope Street,Providence ,Providence,Rhode Island,2906,05/06/2017 to 10/28/2017,Sat: 9:00 AM-1:00 PM;,05/31/2017 to 10/25/2017,Wed: 3:00 PM-6:00 PM;,,,,,-71.39151,41.854673,,10/28/2016 14:45
1016768,North Scituate Farmers Market,http://www.scituatefarmersmarketri.org/,https://www.facebook.com/scituatefarmersmarketri/?ref=page_internal,,,,46 Institute Lane,North Scituate,Providence,Rhode Island,2857,05/07/2016 to 10/01/2016,Sat: 9:00 AM-12:00 PM;,,,,,,,-71.585906,41.833758,,10/31/2016 10:31
1016770,Ktizo UCC Farmers' Market,, https://www.facebook.com/ktizofarmersmarket,,,,8740 N. 35th ave,Phoenix,Maricopa,Arizona,85051,10/02/2016 to 02/04/2017,,,,,,,,-112.134509,33.565282,,11/4/2016 5:26
2000001,Center for Design Practice - Mobile Farmers Market,http://www.realfoodfarm.org/get-food/mobilemarket/,https://www.facebook.com/rffpage,,,,,,,Maryland,,,,,,,,,,,,,2013
2000002,Dig It!,http://www.thresholdpa.org,,,,,,,,Pennsylvania,,,,,,,,,,,,,2013
2000004,Farm a la Carte,http://revivalfoods.com/pages/farm-a-la-carte,https://www.facebook.com/RevivalFoods,,,,,,,Georgia,,,,,,,,,,,,,2013
2000005,Farm Fresh Mobile Market,http://southsideinterfaithcdc.org,,,,,,,,New York,,01/01/2014 to 12/31/2014,,,,,,,,,,,2013
2000006,Farm to family,http://thefarmbus.com/,https://www.facebook.com/Farm2Family,,,,,,,Virginia,,,,,,,,,,,,,2013
2000007,Farmers Market Express,http://mab63.wordpress.com/2012/05/23/the-biggest-food-truck-ever/,https://www.facebook.com/FarmersMarketXP,,,,,,,California,,,,,,,,,,,,,2013
2000008,Food Shuttlle,http://foodshuttle.org/,https://www.facebook.com/InterFaithFoodShuttle,,,,,,,North Carolina,,,,,,,,,,,,,2013
2000009,Freshest Cargo: Mobile Farmers Market,http://freshapproach.org/mobile-farmers-market/,https://www.facebook.com/FreshestCargo,,,,,,,California,,,,,,,,,,,,,2013
2000010,Fulton Fresh Mobile Farmers Market,http://www.fultoncountyga.gov/latest-news/6106-fulton-fresh-mobile-farmers-market-opens-2013-season-on-wednesday-june-12th,,,,,,,,Georgia,,,,,,,,,,,,,2013
2000011,Go Fresh mobile farmer's market,http://www.masslive.com/news/index.ssf/2013/07/mobile_farmers_market_expands.html,https://www.facebook.com/pages/Go-Fresh-Springfield-Mobile-Farmers-Market/126945884179257,,,,,,,Massachusetts,,,,,,,,,,,,,2013
2000012,Gorge Grown Mobile Farmers' Market,http://www.gorgegrown.com/project/mobile-market.cfm,https://www.facebook.com/pages/Gorge-Grown-Food-Network/62066472820,,,,,,,Oregon,,,,,,,,,,,,,2013
2000013,Green Mountain - mobile farmers market,http://www.greenmountainfarmtoschool.org/programs/mobile-market/,https://www.facebook.com/pages/Green-Mountain-Farm-to-School/180053718451,,,,,,,Vermont,,,,,,,,,,,,,2013
2000014,Greensgrow Farms mobile food delivery system,http://www.greensgrow.org/mobile-markets/,https://www.facebook.com/pages/Greensgrow-Farms/66323974768?ref=mf,,,,,,,Pennsylvania,,,,,,,,,,,,,2013
2000016,Honeybee Mobile Farmers Market,http://www.honeybeemobilemarket.com/,https://www.facebook.com/HoneybeeMobileMarket/info,,,,,,,Minnesota,,,,,,,,,,,,,2013
2000017,Hub City mobile farmers market,http://www.hubcityfm.org/markets/mobile-market/,https://www.facebook.com/HubCityFM?fref=ts,,,,,,,South Carolina,,,,,,,,,,,,,2013
2000019,Merced Countys mobile farmers market ,http://www.modbee.com/2013/11/18/3039692/mobile-grocerys-debut-a-big-success.html,,,,,,,,California,,,,,,,,,,,,,2013
2000020,Mobile Farm Fresh of NC,http://mobilefarmfresh.com/,https://www.facebook.com/MobileFarmFresh,,,,,,,North Carolina,,,,,,,,,,,,,2013
2000021,Osage Nation Sr. Farmers Market,,,,,,,,,Oklahoma,,07/01/2014 to 07/31/2014,,,,,,,,,,,2013
2000022,Real Food System,http://www.realfoodfarm.org/get-food/mobilemarket/,https://www.facebook.com/rffpage,,,,,,,Maryland,,,,,,,,,,,,,2013
2000026,Riverview Farms of Ranger,http://www.grassfedcow.com/FarmMobile.html,https://www.facebook.com/farmmobile,,,,,,,Georgia,,,,,,,,,,,,,2013
2000028,San Joaquin Mobile Farmers Market,http://www.partnershipph.org/gallery/story/san-joaquin-mobile-farmers-market,,,,,,,,California,,,,,,,,,,,,,2013
2000030,Steve Casey's Mobile Produce Market,http://www.freshmoves.org/,https://www.facebook.com/freshmoves,,,,,,,Illinois,,,,,,,,,,,,,2013
2000032,TMC Healthy Harvest Mobile Market,http://www.pitch.com/FastPitch/archives/2012/07/17/tmc-healthy-harvest-mobile-market-is-now-rolling-in-kansas-city,https://www.facebook.com/HHEDCMobileMarket,,,,,,,Missouri,,,,,,,,,,,,,2013
2000033,Tri-CommunityMobileFarmersMarket,https://www.facebook.com/groups/419868484808209/,https://www.facebook.com/groups/419868484808209/,,,,,,,New Mexico,,,,,,,,,,,,,2013
2000034,Urban Oasis Farmers Market on the Move,http://www.urbanoasisproject.org,,,,,,,,Florida,,,,,,,,,,,,,2013
2000035,Westside Tailgate Farmers Market,https://www.facebook.com/pages/Westside-Tailgate-Farmers-Market/369260759751874,https://www.facebook.com/pages/Westside-Tailgate-Farmers-Market/369260759751874,,,,,,,Alabama,,,,,,,,,,,,,2013
2000036,YMCA Farmers Market and Veggie Van,http://mi.marketmaker.uiuc.edu/business/1627668-ymca-farmers-market-and-veggie-van,https://www.facebook.com/pages/YMCA-Farmers-Market/145014825569789,,,,,,,Michigan,,,,,,,,,,,,,2013
